nom;latitude_mairie;longitude_mairie;beach_coordinates;latitude_plage;longitude_plage;station;latitude_gare;longitude_gare;latitude_port;longitude_port
Groix;47.6385240;-3.4549219;[(Decimal('47.6229851'), Decimal('-3.4561170')), (Decimal('47.6490553'), Decimal('-3.4790716'))];47.638524;-3.451528;[(Decimal('47.6442497'), Decimal('-3.4466221')), (Decimal('47.6441348'), Decimal('-3.4466186'))];47.647542;-3.51126;;
Hézo;47.585454;-2.70173;[];;;[(None, None)];;;47.586144;-2.70312
Île-aux-Moines;47.5970583;-2.8456461;[];47.59757;-2.850212;[(Decimal('47.6013417'), Decimal('-2.8519920'))];;;;
Île-d'Arz;;;[];47.596858;-2.797694;[(None, None)];;;;
Séné;47.5414430;-2.8169881;[(Decimal('47.5622618'), Decimal('-2.9066667')), (Decimal('47.5438360'), Decimal('-2.8395150'))];;;[(None, None)];;;47.622507;-2.77718
Surzur;47.586803;-2.630935;[];47.55;-2.668271;[(None, None)];47.578587;-2.62936;47.580579;-2.631509
Vannes;47.5414430;-2.8169881;[(Decimal('47.4958342'), Decimal('-2.4843909')), (Decimal('47.7772651'), Decimal('-2.3808581')), (Decimal('47.5622618'), Decimal('-2.9066667')), (Decimal('47.5438360'), Decimal('-2.8395150'))];47.664761;-2.739506;[(Decimal('47.6652992'), Decimal('-2.7525901')), (Decimal('47.6379806'), Decimal('-2.7620299')), (Decimal('47.6584358'), Decimal('-2.7644525')), (Decimal('47.6757223'), Decimal('-2.2955265')), (Decimal('47.6013417'), Decimal('-2.8519920'))];;;;
Bono;;;[];;;[(None, None)];;;47.640254;-2.949892
Bonifacio;;;[];41.408995;9.211438;[(None, None)];41.387257;9.159749;;
Bastia;42.7746370;9.4749310;[];42.687608;9.435179;[(Decimal('42.5328351'), Decimal('9.4474124')), (Decimal('42.6712125'), Decimal('9.4440832')), (Decimal('42.6637699'), Decimal('9.4432709')), (Decimal('42.7020235'), Decimal('9.4475649')), (Decimal('42.7024600'), Decimal('9.4565284')), (Decimal('42.6202813'), Decimal('9.4376461')), (Decimal('42.6877420'), Decimal('9.4446096')), (Decimal('42.5448840'), Decimal('9.4486466')), (Decimal('42.5627188'), Decimal('9.4466801')), (Decimal('42.6515267'), Decimal('9.4411962')), (Decimal('42.6149413'), Decimal('9.4376789')), (Decimal('42.5218272'), Decimal('9.4410912')), (Decimal('42.6597171'), Decimal('9.4444398')), (Decimal('42.6810175'), Decimal('9.4453579')), (Decimal('42.6287931'), Decimal('9.4407742')), (Decimal('42.5847234'), Decimal('9.4415950')), (Decimal('42.7006931'), Decimal('9.4526207')), (Decimal('42.5965026'), Decimal('9.4393246')), (Decimal('42.7024836'), Decimal('9.4516945')), (Decimal('42.5764479'), Decimal('9.4443865')), (Decimal('42.6454048'), Decimal('9.4419382')), (Decimal('42.5504894'), Decimal('9.4418644')), (Decimal('42.7000796'), Decimal('9.4558151'))];;;42.695847;9.449499
Castellare-di-Casinca;42.4672951;9.4732068;[];42.468999;9.496106;[(None, None)];42.468999;9.496106;42.468999;9.496106
Farinole;42.7321470;9.3622828;[];42.731168;9.354624;[(None, None)];42.735482;9.347135;42.731168;9.354624
Oletta;42.653201;9.324833;[];42.6322;9.342666;[(None, None)];;;42.6322;9.342666
Palasca;42.5892980;9.0429001;[];;;[(Decimal('42.5934287'), Decimal('9.0484850'))];42.592986;9.04804;42.629025;9.031974
Penta-di-Casinca;42.442228;9.539099;[];42.446005;9.521658;[(None, None)];42.453419;9.499185;42.453419;9.499185
Sorbo-Ocagnano;42.4760961;9.4555539;[];42.481581;9.485544;[(None, None)];42.481581;9.485544;42.481581;9.485544
San-Gavino-di-Tenda;42.5981766;9.2649186;[];42.599047;9.268013;[(None, None)];42.599047;9.268013;42.599047;9.268013
Santa-Lucia-di-Moriani;42.3861828;9.5307684;[];42.382699;9.520031;[(None, None)];42.383454;9.512192;42.383454;9.512192
Vescovato;42.4996927;9.4646721;[];42.501687;9.459027;[(None, None)];42.504695;9.45549;42.500922;9.455731
Bouin;46.9744971;-1.9990231;[];;;[(None, None)];;;;
Plassac;45.4665376;-0.5681021;[];;;[(None, None)];45.467016;-0.569368;;
Saint-Dizant-du-Gua;45.4322526;-0.7055189;[];45.417851;-0.694056;[(None, None)];45.417851;-0.694056;45.42716;-0.736102
Saint-Fort-sur-Gironde;45.4605034;-0.7221232;[];;;[(None, None)];45.450783;-0.742356;45.460144;-0.722207
Cervione;42.3314094;9.4910073;[];42.332209;9.491351;[(None, None)];;;;
Linguizzetta;42.2641994;9.4732216;[];42.240189;9.520198;[(None, None)];42.240189;9.520198;42.197907;9.532859
Monte;;;[];;;[(Decimal('32.6775655'), Decimal('-16.8979216'))];;;;
Olmo;42.4973581;9.4092348;[];;;[(None, None)];;;;
San-Giuliano;42.3143100;9.4905433;[];42.28599;9.518368;[(None, None)];42.28599;9.518368;42.28599;9.518368
San-Nicolao;42.3749722;9.5250184;[];42.369702;9.526545;[(Decimal('42.3757423'), Decimal('9.5300170'))];42.376628;9.521382;42.376628;9.521382
Taglio-Isolaccio;42.4283795;9.4806071;[];42.43948;9.509073;[(None, None)];42.43948;9.509073;42.439491;9.509157
Venzolasca;42.4849523;9.4556330;[];42.509792;9.501177;[(None, None)];42.509422;9.524557;;
Baurech;44.7254944;-0.4383181;[];44.730391;-0.454486;[(None, None)];;;44.722663;-0.444759
Langoiran;44.7079482;-0.4007351;[];44.707937;-0.37282;[(None, None)];;;44.707341;-0.401998
Montagne;44.9302697;-0.1291616;[];44.950563;-0.151344;[(Decimal('45.4953736'), Decimal('-73.5798383')), (Decimal('45.4897865'), Decimal('-73.5863426'))];;;;
Quinsac;44.7545957;-0.4876675;[];44.757754;-0.485976;[(None, None)];;;44.759816;-0.503328
Saint-Émilion;44.892183;-0.204333;[];44.891991;-0.154068;[(Decimal('44.8811708'), Decimal('-0.1593340'))];44.88441;-0.158179;44.891409;-0.206626
Saint-Loubès;44.9167223;-0.4270745;[];44.92229;-0.429804;[(Decimal('44.9223901'), Decimal('-0.4332238'))];44.925276;-0.443779;44.931376;-0.438513
Saint-Sulpice-de-Faleyrens;44.87369;-0.192411;[];44.864684;-0.183335;[(None, None)];44.877486;-0.162889;44.854996;-0.181225
Saint-Bonnet-sur-Gironde;45.3544749;-0.6593723;[];;;[(None, None)];45.351493;-0.658412;;
Saint-Sorlin-de-Conac;45.364111;-0.678367;[];45.364111;-0.678367;[(None, None)];45.364111;-0.678367;45.328873;-0.71504
Saint-Thomas-de-Conac;45.3890404;-0.6872155;[];45.395165;-0.685952;[(None, None)];45.390434;-0.697661;;
Biguglia;42.62799;9.426993;[];42.627374;9.419315;[(Decimal('42.6202813'), Decimal('9.4376461')), (Decimal('42.6149413'), Decimal('9.4376789')), (Decimal('42.6287931'), Decimal('9.4407742')), (Decimal('42.5965026'), Decimal('9.4393246'))];42.615592;9.437756;42.593246;9.426922
Borgo;42.5366124;9.3820091;[];42.559499;9.42927;[(Decimal('42.5328351'), Decimal('9.4474124')), (Decimal('42.6202813'), Decimal('9.4376461')), (Decimal('42.5448840'), Decimal('9.4486466')), (Decimal('42.5627188'), Decimal('9.4466801')), (Decimal('42.6149413'), Decimal('9.4376789')), (Decimal('42.5218272'), Decimal('9.4410912')), (Decimal('42.6287931'), Decimal('9.4407742')), (Decimal('42.5847234'), Decimal('9.4415950')), (Decimal('42.3992635'), Decimal('12.8623289')), (Decimal('41.9023644'), Decimal('12.4603935')), (Decimal('42.5965026'), Decimal('9.4393246')), (Decimal('42.5764479'), Decimal('9.4443865')), (Decimal('42.5504894'), Decimal('9.4418644'))];42.562348;9.442257;42.559597;9.441483
Canale-di-Verde;42.2769615;9.4750187;[];42.261114;9.51534;[(None, None)];42.261114;9.51534;42.261114;9.51534
Furiani;42.658339;9.413806;[];42.658339;9.413806;[(Decimal('42.6515267'), Decimal('9.4411962')), (Decimal('42.6597171'), Decimal('9.4444398')), (Decimal('42.6454048'), Decimal('9.4419382'))];42.658339;9.413806;42.658339;9.413806
Lucciana;42.542645;9.497065;[];42.559273;9.527613;[(Decimal('42.5328351'), Decimal('9.4474124')), (Decimal('42.5448840'), Decimal('9.4486466')), (Decimal('42.5218272'), Decimal('9.4410912')), (Decimal('42.5504894'), Decimal('9.4418644'))];42.521703;9.440891;;
Poggio-Mezzana;42.4006905;9.4906717;[];42.401353;9.527596;[(None, None)];42.394025;9.496702;42.40953;9.531148
Talasani;42.4083318;9.4800358;[];42.40786;9.477586;[(None, None)];42.40786;9.477586;42.418882;9.528417
Anglade;45.2117734;-0.6369870;[];;;[(None, None)];;;;
Braud-et-Saint-Louis;;;[];;;[(None, None)];;;45.249499;-0.630177
Cambes;44.7324005;-0.4618761;[];;;[(None, None)];44.73198;-0.464459;44.731144;-0.463463
Camblanes-et-Meynac;44.764053;-0.481754;[];44.765138;-0.488672;[(None, None)];44.765928;-0.482387;44.771109;-0.507673
Caumont;44.6961182;-0.0075285;[];;;[(None, None)];;;;
Latresne;44.784809;-0.497058;[];44.791107;-0.495604;[(None, None)];;;44.78331;-0.514535
Saint-Androny;45.1901747;-0.6469716;[];45.180269;-0.656601;[(None, None)];;;45.230133;-0.67885
Saint-Ciers-sur-Gironde;45.2846292;-0.5620153;[];45.291639;-0.631137;[(None, None)];45.291861;-0.609715;;
Saint-Hippolyte;47.3439081;6.9942263;[];;;[(None, None)];;;;
Tabanac;;;[];44.72372;-0.40973;[(None, None)];;;44.70551;-0.432682
Tourne;;;[];;;[(None, None)];;;;
Arradon;47.623415;-2.82291;[];47.633837;-2.825238;[(None, None)];47.633041;-2.827571;47.616105;-2.827997
Arzon;47.547462;-2.91491;[(Decimal('47.5622618'), Decimal('-2.9066667'))];;;[(None, None)];47.546448;-2.910472;47.543633;-2.890453
Baden;47.4731015;8.3089606;[];;;[(Decimal('47.9995655'), Decimal('16.2514574')), (Decimal('47.4775621'), Decimal('8.3083013')), (Decimal('53.0077966'), Decimal('9.0814824')), (Decimal('48.0038483'), Decimal('16.2408222')), (Decimal('47.4764076'), Decimal('8.3077761')), (Decimal('47.4921211'), Decimal('8.2529031')), (Decimal('48.0035672'), Decimal('16.2583681')), (Decimal('48.0058422'), Decimal('16.2337804')), (Decimal('48.0040441'), Decimal('16.2427890')), (Decimal('47.9996962'), Decimal('16.2561301'))];47.597398;-2.913538;47.607374;-2.876218
Larmor-Baden;47.571481;-2.899233;[];47.585734;-2.898091;[(None, None)];;;47.585369;-2.900903
Plougoumelen;47.652003;-2.913679;[];47.652514;-2.917705;[(None, None)];47.669111;-2.896504;47.642425;-2.897225
Saint-Armel;47.5723681;-2.7109688;[];47.564674;-2.72531;[(None, None)];;;;
Saint-Gildas-de-Rhuys;47.534571;-2.85307;[];47.493506;-2.82013;[(None, None)];47.502884;-2.832652;47.494321;-2.835256
Sarzeau;47.5414430;-2.8169881;[(Decimal('47.5622618'), Decimal('-2.9066667')), (Decimal('47.5438360'), Decimal('-2.8395150'))];47.497441;-2.771986;[(None, None)];47.534564;-2.848019;47.542079;-2.780523
Theix-Noyalo;47.627945;-2.648803;[];47.630265;-2.65036;[(None, None)];;;47.629082;-2.652881
Tour-du-Parc;47.525952;-2.646056;[];47.522993;-2.648759;[(None, None)];;;;
Jard-sur-Mer;46.416857;-1.576067;[(Decimal('46.4248708'), Decimal('-1.6522090'))];;;[(None, None)];46.419652;-1.592637;46.410379;-1.586197
Saint-Vincent-sur-Jard;46.411134;-1.546414;[];46.4165;-1.530211;[(None, None)];;;;
Talmont-Saint-Hilaire;46.5400830;-1.6160528;[(Decimal('46.4248708'), Decimal('-1.6522090'))];46.4413;-1.664017;[(Decimal('46.6069551'), Decimal('-1.6596414'))];46.449718;-1.670712;;
Pontrieux;48.6940527;-3.2161510;[];48.700078;-3.161006;[(Decimal('48.6980393'), Decimal('-3.1644997')), (Decimal('48.6695517'), Decimal('-3.1965542'))];;;48.704134;-3.159817
Santa-Maria-Poggio;42.3398265;9.5393325;[(Decimal('42.3526624'), Decimal('9.5365423'))];42.350767;9.51586;[(None, None)];42.350767;9.51586;42.351787;9.510576
Andernos-les-Bains;44.7650504;-1.1394883;[(Decimal('44.6602730'), Decimal('-1.2392151')), (Decimal('44.6757446'), Decimal('-1.2566210')), (Decimal('44.6549241'), Decimal('-1.2593940')), (Decimal('44.7988490'), Decimal('-1.2343628')), (Decimal('44.7095954'), Decimal('-1.0593177')), (Decimal('44.7137204'), Decimal('-1.0675047')), (Decimal('44.7192020'), Decimal('-1.0743364')), (Decimal('44.7334298'), Decimal('-1.0921992')), (Decimal('44.7258332'), Decimal('-1.0850044')), (Decimal('44.7386995'), Decimal('-1.0997896')), (Decimal('44.7445299'), Decimal('-1.1184185')), (Decimal('44.6979740'), Decimal('-1.2536291'))];44.743125;-1.105158;[(Decimal('44.6566928'), Decimal('-1.2400756')), (Decimal('44.6551021'), Decimal('-1.2583599')), (Decimal('44.7440903'), Decimal('-1.1088665')), (Decimal('44.6372409'), Decimal('-0.9661780'))];44.75035;-1.082528;44.736174;-1.093187
Arès;44.7650504;-1.1394883;[];44.764584;-1.141275;[(None, None)];44.767276;-1.135801;44.765235;-1.136191
Audenge;44.7650504;-1.1394883;[(Decimal('44.6602730'), Decimal('-1.2392151')), (Decimal('44.6757446'), Decimal('-1.2566210')), (Decimal('44.6549241'), Decimal('-1.2593940')), (Decimal('44.7988490'), Decimal('-1.2343628')), (Decimal('44.7095954'), Decimal('-1.0593177')), (Decimal('44.7137204'), Decimal('-1.0675047')), (Decimal('44.7192020'), Decimal('-1.0743364')), (Decimal('44.7334298'), Decimal('-1.0921992')), (Decimal('44.7258332'), Decimal('-1.0850044')), (Decimal('44.7386995'), Decimal('-1.0997896')), (Decimal('44.7445299'), Decimal('-1.1184185')), (Decimal('44.6979740'), Decimal('-1.2536291'))];44.6981;-0.96155;[(Decimal('44.6566928'), Decimal('-1.2400756')), (Decimal('44.6551021'), Decimal('-1.2583599')), (Decimal('44.7440903'), Decimal('-1.1088665')), (Decimal('44.6372409'), Decimal('-0.9661780')), (Decimal('44.6904210'), Decimal('-0.8537008')), (Decimal('44.6582625'), Decimal('-0.8220599')), (Decimal('44.6583998'), Decimal('-0.8223998'))];44.684214;-1.012843;44.676838;-1.0282
Biganos;44.638199;-0.952417;[];44.64819;-0.949103;[(Decimal('44.6372409'), Decimal('-0.9661780'))];44.637481;-0.967118;44.643413;-0.999109
Bourg;45.0819782;-0.4960701;[];;;[(None, None)];;;;
Cubzac-les-Ponts;44.972181;-0.440282;[];44.97195;-0.456531;[(Decimal('44.9729725'), Decimal('-0.4590937'))];44.97195;-0.456531;44.967596;-0.456939
Lanton;44.7022051;-1.0355407;[(Decimal('44.7095954'), Decimal('-1.0593177')), (Decimal('44.7137204'), Decimal('-1.0675047')), (Decimal('44.7192020'), Decimal('-1.0743364'))];44.702702;-1.041299;[(None, None)];44.72003;-1.068449;44.710649;-1.056418
Lège-Cap-Ferret;44.6977064;-1.2295766;[(Decimal('44.6602730'), Decimal('-1.2392151')), (Decimal('44.6757446'), Decimal('-1.2566210')), (Decimal('44.6549241'), Decimal('-1.2593940')), (Decimal('44.7988490'), Decimal('-1.2343628')), (Decimal('44.6979740'), Decimal('-1.2536291'))];44.655908;-1.241556;[(Decimal('44.6566928'), Decimal('-1.2400756')), (Decimal('44.6551021'), Decimal('-1.2583599'))];44.795696;-1.139891;44.745088;-1.178685
Portets;44.6962255;-0.4243844;[];;;[(Decimal('44.6928657'), Decimal('-0.4253867'))];44.693751;-0.425129;44.699119;-0.425892
Prignac-et-Marcamps;45.0324917;-0.4925572;[];45.036294;-0.499837;[(None, None)];45.029013;-0.499015;45.019349;-0.483307
Saint-André-de-Cubzac;45.0272222;-0.4412712;[];44.99533;-0.439459;[(Decimal('44.9729725'), Decimal('-0.4590937')), (Decimal('45.0152870'), Decimal('-0.4198416')), (Decimal('45.0543754'), Decimal('-0.3992247')), (Decimal('45.0337371'), Decimal('-0.4767372'))];44.992644;-0.442629;45.005774;-0.480049
Saint-Gervais;46.7150305;-70.8861999;[];;;[(None, None)];;;;
Longeville-sur-Mer;46.409313;-1.488065;[];46.400884;-1.506406;[(None, None)];46.423609;-1.492817;46.406754;-1.422306
Algajola;42.608737;8.861894;[];42.608624;8.861694;[(Decimal('42.6083787'), Decimal('8.8603704'))];42.608417;8.860612;42.60887;8.851006
Corbara;42.621664;8.911394;[];42.621664;8.911394;[(Decimal('42.6237919'), Decimal('8.8856153')), (Decimal('42.6276007'), Decimal('8.9131001'))];42.621664;8.911394;42.621664;8.911394
Île-Rousse;;;[];;;[(None, None)];;;;
Monticello;45.3025000;-93.7986111;[];;;[(Decimal('42.6315967'), Decimal('8.9573650'))];;;;
Occhiatana;42.5746864;9.0094744;[];42.600175;9.001631;[(Decimal('42.5823935'), Decimal('9.0051035'))];42.600175;9.001631;42.600175;9.001631
Patrimonio;42.6971932;9.3622291;[(Decimal('42.7151385'), Decimal('9.3231851')), (Decimal('42.7051577'), Decimal('9.3226930'))];42.697945;9.365233;[(None, None)];42.697945;9.365233;42.697483;9.360484
Saint-Florent;46.3116763;-0.4654490;[];42.668924;9.28651;[(Decimal('42.6791809'), Decimal('9.3004042'))];;;;
Santo-Pietro-di-Tenda;42.6050946;9.2586878;[];42.604636;9.257164;[(None, None)];42.604636;9.257164;42.657507;9.231404
Ville-di-Pietrabugno;42.709352;9.433176;[];42.713553;9.431018;[(None, None)];42.709579;9.453649;42.709424;9.454548
Bénouville;49.7174619;0.2511382;[];;;[(None, None)];;;;
Étretat;49.70977;0.218206;[];49.706484;0.207513;[(None, None)];49.708848;0.217112;;
Heuqueville;49.6161998;0.1461671;[];49.6197;0.160439;[(None, None)];;;;
Poterie-Cap-d'Antifer;49.671817;0.189065;[];49.676981;0.177379;[(None, None)];49.676981;0.177379;49.676981;0.177379
Saint-Jouin-Bruneval;49.642531;0.197884;[];49.637159;0.182447;[(None, None)];;;49.650981;0.1588
Tilleul;;;[];;;[(None, None)];;;;
Ploëzal;48.713921;-3.205529;[];48.705654;-3.159571;[(None, None)];48.718607;-3.202721;48.708415;-3.201231
Saint-Samson-sur-Rance;48.491796;-2.028271;[];48.491583;-2.01871;[(Decimal('48.4961040'), Decimal('-2.0042138'))];48.491583;-2.01871;48.495329;-2.003641
Clohars-Carnoët;47.770616;-3.532197;[];47.76737;-3.55403;[(Decimal('47.7713520'), Decimal('-3.5317104')), (Decimal('47.7714397'), Decimal('-3.6095398'))];47.775009;-3.608148;47.770901;-3.53754
Concarneau;47.8709468;-3.9193230;[(Decimal('47.8149990'), Decimal('-3.8714576')), (Decimal('47.8218286'), Decimal('-3.8795042'))];47.851271;-3.909186;[(Decimal('47.8779798'), Decimal('-3.9205332')), (Decimal('47.8774501'), Decimal('-3.9204260')), (Decimal('47.9604456'), Decimal('-3.8326856'))];47.878506;-3.91951;47.876616;-3.910473
Moëlan-sur-Mer;47.8554775;-3.7442667;[(Decimal('47.8149990'), Decimal('-3.8714576')), (Decimal('47.8218286'), Decimal('-3.8795042'))];47.81127;-3.633552;[(None, None)];47.775128;-3.644358;47.782021;-3.643265
Névez;47.8190635;-3.7934356;[];47.80261;-3.742121;[(None, None)];;;47.800496;-3.743183
Pont-Aven;47.8554775;-3.7442667;[];;;[(None, None)];47.857141;-3.743377;47.854637;-3.748324
Quimperlé;47.8581354;-3.6044201;[];47.859379;-3.564224;[(Decimal('47.7713520'), Decimal('-3.5317104')), (Decimal('47.7714397'), Decimal('-3.6095398')), (Decimal('47.8694696'), Decimal('-3.5530139'))];47.867696;-3.549663;47.847818;-3.547918
Riec-sur-Bélon;47.8428770;-3.6935074;[];47.852994;-3.680678;[(None, None)];47.845024;-3.688733;47.844083;-3.688527
Trégunc;47.85476;-3.852407;[(Decimal('47.8149990'), Decimal('-3.8714576')), (Decimal('47.8218286'), Decimal('-3.8795042'))];47.835357;-3.89111;[(None, None)];47.856863;-3.85013;47.794484;-3.852296
Caudan;47.8104040;-3.3400496;[];;;[(None, None)];;;47.784899;-3.351183
Cléguer;47.8533075;-3.3846505;[];;;[(None, None)];47.868939;-3.388646;;
Gâvres;47.6965078;-3.3530302;[];47.693751;-3.354431;[(None, None)];;;47.699412;-3.350945
Guidel;47.8438061;-3.2664434;[];47.741731;-3.500861;[(Decimal('47.7717726'), Decimal('-3.5295534')), (Decimal('47.8570331'), Decimal('-3.2141432')), (Decimal('47.8029641'), Decimal('-3.4431612'))];47.79786;-3.488443;47.772436;-3.526841
Hennebont;47.8438061;-3.2664434;[];47.825097;-3.249034;[(Decimal('47.7822090'), Decimal('-3.1941808')), (Decimal('47.7050271'), Decimal('-3.3462488')), (Decimal('47.7991635'), Decimal('-3.2858029')), (Decimal('47.8570331'), Decimal('-3.2141432'))];47.799595;-3.285553;47.799667;-3.275698
Lanester;47.7635301;-3.3473037;[];47.768752;-3.330799;[(None, None)];47.755457;-3.337051;47.769348;-3.35873
Larmor-Plage;47.7061002;-3.3834256;[];47.713823;-3.373927;[(None, None)];47.707038;-3.402921;;
Locmiquélic;47.7260564;-3.3411351;[];47.729833;-3.345496;[(None, None)];47.726973;-3.32971;47.724044;-3.347994
Lorient;47.5699253;-2.9453491;[(Decimal('47.6175568'), Decimal('-3.1848329')), (Decimal('47.3428410'), Decimal('-3.1472483')), (Decimal('47.6229851'), Decimal('-3.4561170')), (Decimal('47.2994049'), Decimal('-3.1822098')), (Decimal('47.5647172'), Decimal('-3.0975466')), (Decimal('47.6288584'), Decimal('-3.1982318')), (Decimal('47.6490553'), Decimal('-3.4790716')), (Decimal('47.6110780'), Decimal('-3.1692650')), (Decimal('47.5959035'), Decimal('-3.1506295')), (Decimal('47.5926912'), Decimal('-3.1486121')), (Decimal('47.5816670'), Decimal('-3.1418686')), (Decimal('47.5765510'), Decimal('-3.1400660'))];47.74131;-3.361112;[(Decimal('47.5755984'), Decimal('-3.1324467')), (Decimal('47.5679932'), Decimal('-2.9366408')), (Decimal('47.5208871'), Decimal('-3.1386904')), (Decimal('47.5580242'), Decimal('-3.1330890')), (Decimal('47.6524660'), Decimal('-3.0721919')), (Decimal('47.5862096'), Decimal('-3.0257021')), (Decimal('47.6045616'), Decimal('-3.1180189')), (Decimal('47.3470847'), Decimal('-3.1535660')), (Decimal('47.6642689'), Decimal('-2.9780792')), (Decimal('47.5369503'), Decimal('-3.1363774')), (Decimal('47.5465128'), Decimal('-3.1337184')), (Decimal('47.7294405'), Decimal('-3.3594471')), (Decimal('47.7357333'), Decimal('-3.0857436')), (Decimal('47.7822090'), Decimal('-3.1941808')), (Decimal('47.7595780'), Decimal('-3.1251313')), (Decimal('47.7717726'), Decimal('-3.5295534')), (Decimal('47.4854404'), Decimal('-3.1182611')), (Decimal('47.7442631'), Decimal('-3.3567310')), (Decimal('47.7050271'), Decimal('-3.3462488')), (Decimal('47.7991635'), Decimal('-3.2858029')), (Decimal('47.6442497'), Decimal('-3.4466221')), (Decimal('47.6441348'), Decimal('-3.4466186')), (Decimal('47.8570331'), Decimal('-3.2141432')), (Decimal('47.8328203'), Decimal('-3.0335730')), (Decimal('47.8029641'), Decimal('-3.4431612')), (Decimal('47.7551130'), Decimal('-3.3669499'))];47.745072;-3.378678;;
Ploemeur;47.7061002;-3.3834256;[];47.728238;-3.432572;[(None, None)];47.704398;-3.455984;47.702105;-3.456169
Pont-Scorff;47.8533075;-3.3846505;[];47.835169;-3.419352;[(Decimal('47.7717726'), Decimal('-3.5295534')), (Decimal('47.8029641'), Decimal('-3.4431612'))];47.831932;-3.415078;;
Port-Louis;47.6974894;-3.2520118;[];;;[(Decimal('47.7050271'), Decimal('-3.3462488')), (Decimal('16.4178460'), Decimal('-61.5166290'))];47.705088;-3.352978;;
Quéven;47.777988;-3.391739;[];47.794262;-3.437142;[(None, None)];47.790361;-3.413127;;
Riantec;47.7119243;-3.3100488;[];;;[(None, None)];47.71314;-3.312271;47.709311;-3.335855
Île-d'Yeu;46.724469;-2.348405;[];46.72335;-2.34326;[(None, None)];46.718146;-2.379248;46.726701;-2.353776
Créhen;48.53167;-2.202748;[];;;[(None, None)];;;48.570231;-2.212962
Binic-Étables-sur-Mer;48.601902;-2.82771;[];48.633639;-2.831564;[(None, None)];48.60059;-2.829969;48.642739;-2.829711
Hillion;48.5134178;-2.6676699;[];48.48096;-2.645824;[(None, None)];48.500448;-2.656008;;
Langrolay-sur-Rance;48.552212;-2.004242;[];48.55316;-2.012997;[(None, None)];48.55316;-2.012997;48.554861;-2.00199
Langueux;48.5134178;-2.6676699;[];48.510653;-2.707105;[(Decimal('48.4702292'), Decimal('-2.6524691'))];48.495249;-2.708262;48.500767;-2.717469
Lanvallay;48.4091428;-2.0286899;[];48.438633;-2.015069;[(Decimal('48.4995066'), Decimal('-1.9617299'))];;;48.454376;-2.029876
Matignon;48.6275722;-2.2635819;[];;;[(None, None)];;;;
Paimpol;48.7693702;-3.0255543;[];48.774748;-3.041297;[(Decimal('48.7276078'), Decimal('-3.1285063')), (Decimal('48.7769669'), Decimal('-3.0460582')), (Decimal('48.7485926'), Decimal('-3.1348799')), (Decimal('48.7618730'), Decimal('-3.1181396'))];48.783408;-3.090704;48.780152;-3.045022
Plancoët;48.5471924;-2.2310014;[];48.51932;-2.222257;[(Decimal('48.4960574'), Decimal('-2.1414331')), (Decimal('48.5074301'), Decimal('-2.3313750')), (Decimal('48.5215859'), Decimal('-2.2289039'))];48.521612;-2.229411;48.520609;-2.238901
Pléboulle;48.600426;-2.33081;[];48.591723;-2.353831;[(None, None)];48.603897;-2.335521;48.618126;-2.335705
Fréhel;48.6278311;-2.3652432;[];48.651584;-2.364239;[(None, None)];;;48.649247;-2.357375
Plérin;48.5237968;-2.8480390;[];48.548967;-2.732997;[(None, None)];;;48.529588;-2.733192
Pleudihen-sur-Rance;48.513423;-1.949744;[];48.509559;-1.949174;[(Decimal('48.4995066'), Decimal('-1.9617299'))];48.500143;-1.961171;48.503767;-1.974261
Plévenon;48.6551388;-2.3314190;[];48.656402;-2.339705;[(None, None)];48.684178;-2.318774;;
Ploubazlanec;48.8018000;-3.0297436;[];48.791543;-3.046377;[(None, None)];48.796077;-3.034771;48.797038;-3.02954
Plouër-sur-Rance;48.51196;-2.025552;[];48.51196;-2.025552;[(None, None)];48.528144;-2.001839;48.51196;-2.025552
Plouézec;48.7497808;-2.9843285;[];48.715568;-2.984311;[(None, None)];48.749965;-2.978271;48.76158;-2.962501
Plourivo;48.7454501;-3.0705168;[];48.7375;-3.111102;[(Decimal('48.7276078'), Decimal('-3.1285063')), (Decimal('48.7485926'), Decimal('-3.1348799')), (Decimal('48.7618730'), Decimal('-3.1181396'))];48.75917;-3.118208;48.720627;-3.086957
Pordic;48.559072;-2.809544;[];48.570185;-2.772916;[(None, None)];48.57145;-2.813473;48.581758;-2.7847
Quemper-Guézennec;48.7040008;-3.1071867;[];48.70732;-3.153454;[(None, None)];48.695278;-3.151614;48.705628;-3.110789
Saint-Brieuc;48.5573590;-2.5329618;[];48.508238;-2.766074;[(Decimal('48.4658798'), Decimal('-2.5112218')), (Decimal('48.1803249'), Decimal('-2.7631652')), (Decimal('48.3767009'), Decimal('-2.3545934')), (Decimal('48.4256614'), Decimal('-2.4425462')), (Decimal('48.4702292'), Decimal('-2.6524691')), (Decimal('48.5073171'), Decimal('-2.7649010')), (Decimal('48.4996966'), Decimal('-2.8440974')), (Decimal('48.3871267'), Decimal('-2.3341488')), (Decimal('48.2047426'), Decimal('-2.5010928')), (Decimal('48.2008001'), Decimal('-2.5263026'))];48.509392;-2.763192;48.517037;-2.759472
Saint-Cast-le-Guildo;48.6275722;-2.2635819;[];48.623226;-2.243666;[(None, None)];48.638294;-2.258557;48.638583;-2.255116
Saint-Hélen;48.4714093;-1.9593185;[];;;[(None, None)];;;;
Saint-Jacut-de-la-Mer;;;[];48.599206;-2.191884;[(None, None)];48.585628;-2.193198;;
Saint-Lormel;48.5471924;-2.2310014;[];48.548138;-2.233004;[(None, None)];48.548138;-2.233004;48.548138;-2.233004
Saint-Quay-Portrieux;48.6519210;-2.8312803;[];48.6546;-2.835717;[(None, None)];48.656263;-2.839711;48.658832;-2.845294
Taden;48.468272;-2.048165;[];48.500117;-2.048782;[(None, None)];;;48.47121;-2.013353
Tréveneuc;48.6635390;-2.8717165;[];48.670826;-2.862477;[(None, None)];;;48.668968;-2.861846
Vicomté-sur-Rance;48.487136;-1.98276;[];48.48965;-1.984366;[(None, None)];48.48965;-1.984366;48.489371;-2.000361
Yffiniac;48.484554;-2.676957;[];48.472187;-2.650218;[(Decimal('48.4702292'), Decimal('-2.6524691'))];48.468844;-2.652323;48.484767;-2.670818
Saint-Gilles;43.8258684;4.2605811;[];;;[(Decimal('43.7324117'), Decimal('4.3434045')), (Decimal('43.7885662'), Decimal('4.3032442'))];;;;
Favières;48.4638889;5.9573207;[];;;[(Decimal('50.2171629'), Decimal('1.6592668'))];;;;
Poilley;48.6184543;-1.3101591;[];;;[(None, None)];;;;
Aregno;42.5810895;8.8947281;[];42.584858;8.882059;[(Decimal('42.6106534'), Decimal('8.8736794'))];42.585466;8.893324;42.585466;8.893324
Belgodère;42.5863875;9.0179163;[];42.584387;9.018189;[(Decimal('42.6106534'), Decimal('8.8736794')), (Decimal('42.6083787'), Decimal('8.8603704')), (Decimal('42.5999473'), Decimal('8.9661378')), (Decimal('42.5823935'), Decimal('9.0051035')), (Decimal('42.5934287'), Decimal('9.0484850')), (Decimal('42.5990549'), Decimal('9.0207376')), (Decimal('42.5807506'), Decimal('9.1105579'))];;;;
Calenzana;42.3652948;8.7950110;[];42.534559;8.817297;[(None, None)];42.489318;8.79663;42.507579;8.856114
Calvi;42.5863875;9.0179163;[(Decimal('42.7151385'), Decimal('9.3231851')), (Decimal('42.7051577'), Decimal('9.3226930'))];;;[(Decimal('42.6106534'), Decimal('8.8736794')), (Decimal('42.6083787'), Decimal('8.8603704')), (Decimal('42.6015543'), Decimal('8.8388322')), (Decimal('42.5979681'), Decimal('8.8260414')), (Decimal('42.5561914'), Decimal('8.7650356')), (Decimal('42.5646305'), Decimal('8.7559822')), (Decimal('42.6237919'), Decimal('8.8856153')), (Decimal('42.5900346'), Decimal('8.8135484')), (Decimal('42.5768570'), Decimal('8.8075718')), (Decimal('42.5999473'), Decimal('8.9661378')), (Decimal('42.5823935'), Decimal('9.0051035')), (Decimal('42.5934287'), Decimal('9.0484850')), (Decimal('42.5990549'), Decimal('9.0207376')), (Decimal('42.5807506'), Decimal('9.1105579')), (Decimal('42.6370782'), Decimal('8.9352622')), (Decimal('42.5594243'), Decimal('8.7981117')), (Decimal('42.5561016'), Decimal('8.7926998')), (Decimal('42.5599968'), Decimal('8.7578089')), (Decimal('42.5534385'), Decimal('8.7762295')), (Decimal('42.5553716'), Decimal('8.7718470')), (Decimal('42.6315967'), Decimal('8.9573650')), (Decimal('42.6276007'), Decimal('8.9131001')), (Decimal('42.5698552'), Decimal('8.8051385')), (Decimal('42.6791809'), Decimal('9.3004042'))];;;42.561657;8.753878
Galéria;42.430518;8.758756;[];;;[(None, None)];;;;
Lumio;42.5777587;8.8329421;[];;;[(Decimal('42.6015543'), Decimal('8.8388322')), (Decimal('42.5979681'), Decimal('8.8260414')), (Decimal('42.5900346'), Decimal('8.8135484')), (Decimal('42.5768570'), Decimal('8.8075718')), (Decimal('42.5698552'), Decimal('8.8051385'))];;;;
Banyuls-sur-Mer;42.472592;3.124387;[];42.468493;3.130786;[(Decimal('42.4830177'), Decimal('3.1248805'))];42.482851;3.126141;;
Cerbère;42.4419513;3.1654297;[];42.442724;3.167037;[(Decimal('42.4415596'), Decimal('3.1635147'))];;;42.442329;3.166331
Saint-Raphaël;46.7943212;-70.7557845;[(Decimal('43.4106566'), Decimal('6.7922617')), (Decimal('43.4795321'), Decimal('6.9311887'))];;;[(Decimal('43.4227841'), Decimal('6.7702261')), (Decimal('43.4313633'), Decimal('6.8565322')), (Decimal('43.4163393'), Decimal('6.8082767')), (Decimal('43.4746600'), Decimal('6.9243397')), (Decimal('43.4178109'), Decimal('6.8442115')), (Decimal('43.4350044'), Decimal('6.8921035')), (Decimal('43.4240090'), Decimal('6.7695665'))];;;;
Loupian;43.4492489;3.6143135;[];43.44961;3.610279;[(None, None)];43.447948;3.614948;43.440083;3.628065
Marseillan;43.4880953;0.3164775;[(Decimal('43.3206289'), Decimal('3.5598392'))];43.348312;3.52556;[(Decimal('43.3181806'), Decimal('3.5355290'))];43.317775;3.536291;43.318232;3.555658
Mèze;43.5120478;3.4074825;[];;;[(Decimal('43.5160182'), Decimal('3.6837988')), (Decimal('43.5167058'), Decimal('3.6111942')), (Decimal('43.5159965'), Decimal('3.6840082')), (Decimal('43.5114172'), Decimal('3.7050872')), (Decimal('43.5166733'), Decimal('3.6111774')), (Decimal('43.5167226'), Decimal('3.6111898')), (Decimal('43.5167771'), Decimal('3.6112057'))];;;43.424875;3.607749
Sète;43.3930017;3.6750528;[];43.413192;3.710404;[(Decimal('43.4002400'), Decimal('3.7029087')), (Decimal('43.4005997'), Decimal('3.7036156')), (Decimal('43.4128440'), Decimal('3.6965300'))];43.41151;3.696999;;
Argelès-sur-Mer;42.5490325;3.0211107;[(Decimal('42.5930429'), Decimal('3.0442965'))];42.554125;3.045734;[(Decimal('42.5437752'), Decimal('3.0221185'))];42.545123;3.021775;42.542202;3.047482
Bages;42.6058547;2.8920568;[];;;[(Decimal('41.5924361'), Decimal('1.8394195')), (Decimal('41.5929154'), Decimal('1.8384162')), (Decimal('41.7324011'), Decimal('1.6985293')), (Decimal('41.6103837'), Decimal('1.8490323')), (Decimal('41.7388594'), Decimal('1.6236549')), (Decimal('41.7246669'), Decimal('1.8340881')), (Decimal('41.5924381'), Decimal('1.8366671')), (Decimal('41.6154915'), Decimal('1.8433146')), (Decimal('41.7202649'), Decimal('1.8266326')), (Decimal('41.6679378'), Decimal('1.8595694')), (Decimal('41.6688601'), Decimal('1.8623229')), (Decimal('41.6288394'), Decimal('1.8689500')), (Decimal('41.6091192'), Decimal('1.8503095')), (Decimal('41.6405367'), Decimal('1.8547702')), (Decimal('41.7322156'), Decimal('1.8330170')), (Decimal('41.7314552'), Decimal('1.8277403'))];;;;
Collioure;42.5256784;3.0830838;[];42.532946;3.076473;[(Decimal('42.5268832'), Decimal('3.0781015'))];;;42.52371;3.085051
Elne;42.6058547;2.8920568;[];42.601349;2.969602;[(Decimal('42.5971213'), Decimal('2.9635084'))];;;42.600523;2.972853
Port-Vendres;42.511173;3.108537;[];42.511492;3.118801;[(Decimal('42.5135488'), Decimal('3.1025769'))];;;;
Ouessant;;;[];48.456567;-5.089224;[(None, None)];48.474671;-5.056814;;
Saint-Cyprien;44.9361590;1.0122517;[];;;[(Decimal('43.5979747'), Decimal('1.4316655')), (Decimal('44.9411916'), Decimal('1.0081942')), (Decimal('44.8632733'), Decimal('1.0434666')), (Decimal('43.5964448'), Decimal('1.4232466'))];;;;
Saint-Viaud;;;[];47.252088;-1.998141;[(Decimal('47.2616258'), Decimal('-2.0151117'))];47.255955;-2.022078;;
Bretignolles-sur-Mer;46.627303;-1.854234;[];46.627884;-1.861075;[(None, None)];46.648048;-1.861737;46.634246;-1.874935
Fenouiller;46.704926;-1.926599;[];46.716662;-1.899968;[(None, None)];;;46.733692;-1.888735
Coudekerque-Branche;51.0227159;2.4329996;[];51.02148;2.380865;[(Decimal('51.0175188'), Decimal('2.3751331')), (Decimal('50.9689717'), Decimal('2.4256447'))];51.017841;2.378931;51.020163;2.376727
Charron;46.060878;2.561791;[];;;[(None, None)];;;;
Villeneuve;46.0216405;4.8373827;[];;;[(Decimal('45.7065555'), Decimal('7.2134691')), (Decimal('48.0975501'), Decimal('-1.6754519'))];;;;
Mireval;43.50807;3.803601;[];43.50827;3.801645;[(None, None)];43.511699;3.805193;43.506688;3.804239
Asques;43.9885427;0.9488174;[];;;[(None, None)];;;;
Balaruc-les-Bains;43.446667;3.6823;[];43.44001;3.680966;[(None, None)];43.445769;3.688597;43.441108;3.681009
Balaruc-le-Vieux;43.4597571;3.6850931;[];43.460801;3.685246;[(Decimal('43.4639849'), Decimal('3.6893430'))];43.460891;3.685675;43.471253;3.700629
Bouzigues;;;[];43.45196;3.653323;[(None, None)];43.45196;3.653323;43.446904;3.659453
Frontignan;43.4597571;3.6850931;[(Decimal('43.4713330'), Decimal('3.8306140')), (Decimal('43.4631888'), Decimal('3.8222663')), (Decimal('43.4265958'), Decimal('3.7556394')), (Decimal('43.4302657'), Decimal('3.7701984')), (Decimal('43.4337795'), Decimal('3.7807019')), (Decimal('43.4438601'), Decimal('3.8007971')), (Decimal('43.4622176'), Decimal('3.8214715'))];43.427444;3.753665;[(Decimal('43.4448978'), Decimal('3.7589574')), (Decimal('43.5437372'), Decimal('3.8498862')), (Decimal('43.5007099'), Decimal('3.7993824')), (Decimal('43.4639849'), Decimal('3.6893430'))];43.445364;3.75796;43.44559;3.757876
Poussan;43.486908;3.667145;[];43.478944;3.69342;[(None, None)];43.49014;3.679626;;
Vic-la-Gardiole;43.490588;3.797836;[];43.491414;3.797597;[(Decimal('43.5007099'), Decimal('3.7993824'))];;;;
Sainte-Marie-du-Mont;49.3790225;-1.2261154;[];;;[(None, None)];;;;
Bray-Dunes;51.07742;2.520264;[];51.077723;2.517022;[(None, None)];;;51.077704;2.513997
Cappelle-la-Grande;50.998669;2.365446;[];;;[(None, None)];50.997749;2.365443;51.00141;2.37919
Leffrinckoucke;51.0504697;2.4380349;[];51.058574;2.436777;[(None, None)];;;;
Montagne;44.9302697;-0.1291616;[];;;[(Decimal('45.4953736'), Decimal('-73.5798383')), (Decimal('45.4897865'), Decimal('-73.5863426'))];;;;
Garde;;;[];;;[(None, None)];;;;
Villeneuve;46.0216405;4.8373827;[];;;[(Decimal('45.7065555'), Decimal('7.2134691')), (Decimal('48.0975501'), Decimal('-1.6754519'))];;;;
Gua;45.021359;5.645204;[];;;[(None, None)];;;;
Rivière;;;[];;;[(None, None)];;;;
Saint-Gervais;46.7150305;-70.8861999;[];;;[(None, None)];;;;
Saint-Gilles;43.8258684;4.2605811;[];;;[(Decimal('43.7324117'), Decimal('4.3434045')), (Decimal('43.7885662'), Decimal('4.3032442'))];;;;
Bastelicaccia;41.941817;8.843299;[];41.930475;8.831363;[(None, None)];41.931375;8.842928;41.920638;8.844144
Calcatoggio;42.0283960;8.7665936;[];42.035894;8.726821;[(None, None)];42.035894;8.726821;42.035894;8.726821
Cargèse;42.1346832;8.5954258;[];42.145976;8.648495;[(None, None)];42.133436;8.594918;42.132537;8.592157
Casaglione;42.0650572;8.7399137;[];42.066948;8.74509;[(None, None)];42.066948;8.74509;42.066948;8.74509
Coggia;42.0941245;8.7109646;[];42.109647;8.726925;[(None, None)];;;;
Osani;42.3241567;8.6324429;[];42.322898;8.631187;[(None, None)];;;42.319904;8.667258
Ota;42.2578887;8.7459738;[];;;[(None, None)];;;;
Partinello;42.306077;8.67833;[];42.306077;8.67833;[(None, None)];42.306077;8.67833;42.306077;8.67833
Piana;42.2377004;8.6377886;[];;;[(None, None)];;;;
Serriera;42.3015733;8.7087840;[];42.301653;8.710229;[(None, None)];;;42.300278;8.708423
Sant'Andréa-d'Orcino;42.057208;8.752343;[];42.057208;8.752343;[(None, None)];42.057208;8.752343;42.057208;8.752343
Vico;42.1145540;8.6965251;[];42.114614;8.696486;[(None, None)];;;;
Sables-d'Olonne;46.496472;-1.786424;[];46.493933;-1.778;[(None, None)];46.491847;-1.772319;;
Heurteauville;49.4423868;0.8111040;[];49.441184;0.808229;[(Decimal('49.4565445'), Decimal('0.8155870')), (Decimal('49.4291178'), Decimal('0.8010035')), (Decimal('49.4287365'), Decimal('0.8010442'))];;;49.433862;0.799485
Lillebonne;49.5325808;0.5995852;[];49.519589;0.534929;[(None, None)];;;;
Arelaune-en-Seine;49.5081250;0.7282628;[];49.508856;0.732069;[(None, None)];49.509102;0.731299;49.481564;0.757752
Norville;49.4758549;0.6354807;[];;;[(None, None)];;;;
Notre-Dame-de-Bliquetuit;49.4930487;0.7638673;[];49.492478;0.749019;[(Decimal('49.4853103'), Decimal('0.7731719'))];49.492478;0.749019;;
Port-Jérôme-sur-Seine;49.5325808;0.5995852;[];49.48816;0.590766;[(None, None)];49.522818;0.613771;49.494167;0.568377
Petiville;49.2423824;-0.1752368;[];49.458893;0.593986;[(None, None)];;;49.445598;0.590343
Saint-Maurice-d'Ételan;49.475085;0.606266;[];49.459365;0.611784;[(None, None)];49.475085;0.606266;49.475085;0.606266
Sotteville-sur-Mer;49.8827904;0.8299868;[];49.880099;0.830158;[(None, None)];;;;
Tancarville;49.4876112;0.4514710;[];49.486594;0.454368;[(None, None)];;;;
Vatteville-la-Rue;49.4901812;0.6845836;[];49.485843;0.679247;[(None, None)];;;49.506488;0.709619
Heuqueville;49.6161998;0.1461671;[];49.286477;1.338864;[(None, None)];49.285489;1.307872;;
Rives-en-Seine;49.5138852;0.6738965;[];49.50141;0.787639;[(Decimal('49.4885333'), Decimal('0.7756653'))];49.499555;0.789761;;
Criquebeuf-en-Caux;49.7390367;0.3307035;[];49.739383;0.335424;[(None, None)];49.739383;0.335424;49.738039;0.333156
Életot;49.7878116;0.4518718;[];49.789547;0.456367;[(None, None)];;;;
Fécamp;49.7391465;0.4244024;[(Decimal('49.7380413'), Decimal('0.2908842'))];49.760067;0.363433;[(Decimal('49.7594432'), Decimal('0.3752130'))];49.763225;0.376452;49.757586;0.362372
Ingouville;49.8448209;0.6840371;[];49.842581;0.683213;[(None, None)];;;;
Loges;49.698899;0.280701;[];;;[(None, None)];;;;
Manneville-ès-Plains;49.854064;0.755183;[];49.855921;0.753478;[(None, None)];49.854064;0.755183;49.854064;0.755183
Paluel;49.8322408;0.6292425;[];49.843402;0.626675;[(None, None)];;;;
Saint-Aubin-sur-Mer;49.887948;0.878164;[];;;[(None, None)];;;;
Saint-Jean-de-Folleville;49.5231191;0.5053470;[];49.508271;0.497;[(None, None)];;;49.508271;0.497
Saint-Léonard;49.7391988;0.3580122;[];;;[(Decimal('46.2515098'), Decimal('7.4195382')), (Decimal('45.5997788'), Decimal('-73.6162114'))];;;;
Saint-Martin-aux-Buneaux;49.8238608;0.5518312;[];49.823094;0.547097;[(None, None)];49.823094;0.547097;49.81542;0.531082
Saint-Pierre-en-Port;49.805605;0.495894;[];49.806653;0.494213;[(None, None)];;;49.81084;0.499808
Saint-Sylvain;49.8453744;0.6724089;[];;;[(None, None)];;;;
Saint-Valery-en-Caux;49.8651235;0.8880671;[];49.869854;0.714438;[(Decimal('49.6083271'), Decimal('0.5971375'))];;;49.868883;0.7146
Sassetot-le-Mauconduit;49.8025963;0.5299291;[];49.790953;0.521465;[(None, None)];49.790953;0.521465;49.80383;0.528413
Senneville-sur-Fécamp;49.7731722;0.4149046;[];49.773379;0.415371;[(None, None)];;;49.773379;0.415371
Vattetot-sur-Mer;49.7275055;0.2794345;[(Decimal('49.7380413'), Decimal('0.2908842'))];49.734908;0.290745;[(None, None)];49.727311;0.284892;49.729859;0.286185
Veules-les-Roses;49.874991;0.799371;[];49.871475;0.801573;[(None, None)];;;;
Veulettes-sur-Mer;49.848146;0.586952;[];49.848146;0.586952;[(None, None)];49.847214;0.594933;49.848146;0.586952
Yport;49.739116;0.310519;[];49.736246;0.314351;[(None, None)];;;49.733377;0.318713
Breuillet;48.5666723;2.1731003;[];48.571299;2.166096;[(Decimal('48.5774260'), Decimal('2.1918832')), (Decimal('48.5645094'), Decimal('2.1707596'))];48.577216;2.191729;48.572917;2.189796
Norville;49.4758549;0.6354807;[];48.585432;2.256509;[(None, None)];48.592435;2.265851;;
Escalles;50.917201;1.71347;[];;;[(None, None)];;;;
Corsept;47.278738;-2.057753;[];47.247753;-2.084409;[(None, None)];;;;
Frossay;47.2448317;-1.9333305;[];47.236324;-1.9209;[(None, None)];47.255552;-1.916875;47.209491;-1.881377
Paimbœuf;;;[];47.285666;-2.02862;[(None, None)];;;;
Saint-Brevin-les-Pins;47.2019039;-1.7544191;[];47.228371;-2.172695;[(Decimal('47.2031259'), Decimal('-1.7550298')), (Decimal('47.2057549'), Decimal('-1.7519331')), (Decimal('47.2616258'), Decimal('-2.0151117'))];;;47.266493;-2.165623
Saint-Gilles-Croix-de-Vie;46.7203193;-1.9459198;[];46.691063;-1.937014;[(Decimal('46.7166470'), Decimal('-1.9495624')), (Decimal('46.6972692'), Decimal('-1.9474304')), (Decimal('46.6965989'), Decimal('-1.9419542'))];46.696353;-1.941218;46.694738;-1.930157
Saint-Hilaire-de-Riez;46.7203193;-1.9459198;[];46.722042;-1.980331;[(Decimal('46.7166470'), Decimal('-1.9495624')), (Decimal('46.6972692'), Decimal('-1.9474304')), (Decimal('46.6965989'), Decimal('-1.9419542'))];46.716578;-1.949235;46.702245;-1.97012
Haye;;;[];;;[(None, None)];;;;
Leucate;42.858712;3.041581;[(Decimal('42.9520840'), Decimal('3.0394170')), (Decimal('42.8583418'), Decimal('3.0460438'))];42.90316;3.052472;[(Decimal('42.9327732'), Decimal('3.0128704'))];42.910548;3.055779;42.855775;3.03702
Rochelle;;;[];;;[(None, None)];;;;
Île-de-Bréhat;;;[];48.83714;-3.002132;[(None, None)];;;48.841224;-3.004113
Bangor;54.6563995;-5.6693978;[(Decimal('47.2994049'), Decimal('-3.1822098'))];47.318031;-3.237124;[(Decimal('44.8161790'), Decimal('-68.8093879')), (Decimal('54.6586507'), Decimal('-5.6718411')), (Decimal('54.6660686'), Decimal('-5.7056262')), (Decimal('54.6661883'), Decimal('-5.7403130')), (Decimal('54.6593720'), Decimal('-5.6927850')), (Decimal('53.2226448'), Decimal('-4.1355180')), (Decimal('42.3147760'), Decimal('-86.1114541')), (Decimal('53.2231263'), Decimal('-4.1357426')), (Decimal('53.2274896'), Decimal('-4.1259877'))];47.310866;-3.227413;47.304274;-3.228029
Locmaria;47.2940467;-3.0837876;[];;;[(None, None)];;;;
Palais;47.347143;-3.156599;[];;;[(Decimal('50.4148326'), Decimal('4.4429532'))];;;47.330939;-3.150131
Sauzon;;;[];47.378625;-3.236142;[(None, None)];;;47.377196;-3.226782
Bandol;43.1360341;5.7545572;[];43.133742;5.750873;[(Decimal('43.1403720'), Decimal('5.7501474')), (Decimal('43.1350501'), Decimal('5.7541457'))];;;43.135531;5.757808
Carqueiranne;43.0947935;6.0744842;[];43.096346;6.071765;[(None, None)];;;43.087405;6.084436
Garde;43.111851;5.989579;[];;;[(None, None)];;;;
Hyères;43.0004460;6.2025325;[(Decimal('43.1151010'), Decimal('6.2207260')), (Decimal('43.0019142'), Decimal('6.3730119')), (Decimal('42.9923375'), Decimal('6.2194056'))];43.086073;6.157346;[(Decimal('43.0032981'), Decimal('6.1996410')), (Decimal('43.0097900'), Decimal('6.3815533')), (Decimal('43.1087620'), Decimal('6.1241092'))];;;43.031618;6.146721
Ollioules;43.1179464;5.8018969;[(Decimal('43.1326192'), Decimal('5.7802263'))];43.123578;5.834834;[(Decimal('43.1403720'), Decimal('5.7501474')), (Decimal('43.1350501'), Decimal('5.7541457')), (Decimal('43.1175584'), Decimal('5.8019400')), (Decimal('43.1224693'), Decimal('5.8249942'))];43.123686;5.830912;43.138875;5.878364
Pradet;;;[];;;[(None, None)];;;43.084503;6.022255
Saint-Cyr-sur-Mer;43.1765260;5.7730688;[];43.17418;5.694398;[(Decimal('43.1853928'), Decimal('5.7037699'))];43.192364;5.709732;43.180378;5.683948
Sanary-sur-Mer;43.1179464;5.8018969;[(Decimal('43.1326192'), Decimal('5.7802263'))];43.128859;5.780931;[(Decimal('43.1175584'), Decimal('5.8019400'))];43.12079;5.816617;43.132388;5.794786
Seyne-sur-Mer;;;[];;;[(None, None)];;;43.087095;5.87743
Six-Fours-les-Plages;43.0746349;5.8030547;[(Decimal('43.0675548'), Decimal('5.8068092'))];43.096903;5.833996;[(Decimal('43.0788929'), Decimal('5.7846120')), (Decimal('43.0790405'), Decimal('5.7853210'))];43.110079;5.831324;43.096903;5.833996
Toulon;43.1021406;5.8810600;[(Decimal('43.0741109'), Decimal('5.8838953')), (Decimal('43.0675548'), Decimal('5.8068092')), (Decimal('43.0581400'), Decimal('5.8631290')), (Decimal('43.0610204'), Decimal('5.8661124')), (Decimal('43.1151010'), Decimal('6.2207260')), (Decimal('43.1326192'), Decimal('5.7802263')), (Decimal('43.0019142'), Decimal('6.3730119')), (Decimal('42.9923375'), Decimal('6.2194056'))];43.137492;5.913651;[(Decimal('43.0032981'), Decimal('6.1996410')), (Decimal('43.1373005'), Decimal('5.9345286')), (Decimal('43.1492254'), Decimal('5.9301869')), (Decimal('43.0097900'), Decimal('6.3815533')), (Decimal('43.1403720'), Decimal('5.7501474')), (Decimal('43.1350501'), Decimal('5.7541457')), (Decimal('43.1169934'), Decimal('5.8767567')), (Decimal('43.0788929'), Decimal('5.7846120')), (Decimal('43.1175584'), Decimal('5.8019400')), (Decimal('43.1172156'), Decimal('5.9293695')), (Decimal('43.1171658'), Decimal('5.9334852')), (Decimal('43.1164478'), Decimal('5.9307604')), (Decimal('43.1286420'), Decimal('5.9295212')), (Decimal('43.0790405'), Decimal('5.7853210')), (Decimal('43.1367644'), Decimal('6.3710321')), (Decimal('43.1159412'), Decimal('5.9299693')), (Decimal('43.1206705'), Decimal('6.3633561')), (Decimal('43.1363226'), Decimal('6.0349896')), (Decimal('43.1186996'), Decimal('6.0100814')), (Decimal('43.2364251'), Decimal('6.0857023')), (Decimal('43.1908050'), Decimal('6.0464257')), (Decimal('43.1224693'), Decimal('5.8249942')), (Decimal('43.1165878'), Decimal('6.2486790')), (Decimal('43.1250283'), Decimal('5.9718868')), (Decimal('43.1087620'), Decimal('6.1241092')), (Decimal('43.1853928'), Decimal('5.7037699')), (Decimal('43.1449984'), Decimal('6.0686284'))];;;;
Saint-Mandrier-sur-Mer;43.0768295;5.9287044;[];43.075613;5.921411;[(None, None)];;;43.076447;5.933234
Île-de-Sein;48.0356851;-4.8507519;[];;;[(Decimal('48.0354193'), Decimal('-4.8488392'))];;;;
Épine;;;[];;;[(None, None)];;;;
Lancieux;48.602375;-2.150564;[];48.607765;-2.152543;[(None, None)];48.614332;-2.151719;48.616604;-2.150543
Beaussais-sur-Mer;48.573983;-2.141375;[];48.563453;-2.146454;[(None, None)];48.5806;-2.144844;48.563453;-2.146454
Cancale;48.5949623;-1.8438521;[];;;[(Decimal('48.5936849'), Decimal('-1.8432766')), (Decimal('48.6145311'), Decimal('-1.9058839'))];;;48.674359;-1.852675
Cherrueix;48.6052753;-1.7097519;[];48.606433;-1.708441;[(None, None)];;;;
Dinard;48.616076;-2.054486;[];48.637356;-2.056963;[(None, None)];48.630654;-2.062882;48.635524;-2.074615
Hirel;48.6060038;-1.8007035;[];;;[(None, None)];;;;
Minihic-sur-Rance;48.575885;-2.010563;[];48.575885;-2.010563;[(None, None)];48.575885;-2.010563;48.583398;-2.016398
Mont-Dol;48.5700456;-1.7687960;[];48.574918;-1.756721;[(None, None)];;;;
Pleurtuit;48.584584;-2.066098;[];48.581579;-2.069766;[(None, None)];48.580056;-2.062207;;
Richardais;;;[];;;[(None, None)];;;48.605419;-2.032116
Roz-sur-Couesnon;48.571089;-1.612133;[];48.582248;-1.5708;[(None, None)];48.567305;-1.614266;48.583458;-1.593907
Saint-Benoît-des-Ondes;48.624096;-1.85822;[];48.624096;-1.85822;[(None, None)];48.620076;-1.853757;48.620076;-1.853757
Saint-Briac-sur-Mer;48.618745;-2.132606;[];48.633866;-2.124938;[(None, None)];48.634228;-2.127133;48.631286;-2.142389
Saint-Broladre;48.58694;-1.65608;[];48.591019;-1.662504;[(None, None)];48.590184;-1.662017;48.584285;-1.661639
Saint-Coulomb;48.676031;-1.912226;[];48.692079;-1.943123;[(None, None)];48.695758;-1.935751;48.691108;-1.931535
Saint-Jouan-des-Guérets;48.5989011;-1.9721953;[(Decimal('48.5933749'), Decimal('-1.9787783'))];48.605041;-1.969861;[(None, None)];48.596347;-1.969246;48.597881;-1.987956
Saint-Lunaire;48.618494;-2.102554;[];48.634939;-2.105822;[(None, None)];48.635779;-2.113155;48.633495;-2.092824
Saint-Malo;48.4497378;-1.6641708;[(Decimal('48.5933749'), Decimal('-1.9787783'))];48.664133;-1.988808;[(Decimal('48.6455148'), Decimal('-2.0271604')), (Decimal('48.4764049'), Decimal('-1.7654125')), (Decimal('48.5314637'), Decimal('-1.8505895')), (Decimal('48.6422640'), Decimal('-2.0259997')), (Decimal('48.5297585'), Decimal('-1.5660572')), (Decimal('48.6466038'), Decimal('-2.0039808')), (Decimal('48.6411502'), Decimal('-2.0277292')), (Decimal('48.5439622'), Decimal('-1.7501691')), (Decimal('48.5936849'), Decimal('-1.8432766')), (Decimal('48.5314643'), Decimal('-1.9148958')), (Decimal('48.4161835'), Decimal('-1.7277174')), (Decimal('48.3507721'), Decimal('-1.6859830')), (Decimal('48.6145311'), Decimal('-1.9058839'))];;;48.640193;-2.016863
Saint-Méloir-des-Ondes;48.6377720;-1.9050523;[];48.645628;-1.896467;[(Decimal('48.6145311'), Decimal('-1.9058839'))];48.634929;-1.903583;48.657912;-1.902189
Saint-Père;47.4592317;3.7650871;[];48.584068;-1.923014;[(None, None)];;;;
Saint-Suliac;48.5689028;-1.9711430;[];48.568875;-1.971413;[(None, None)];48.570632;-1.968534;48.572871;-1.969889
Ville-ès-Nonais;48.545946;-1.950595;[];48.545946;-1.950595;[(None, None)];48.554911;-1.955313;48.537;-1.967915
Vivier-sur-Mer;48.602203;-1.771736;[];48.603352;-1.775583;[(None, None)];48.601337;-1.778214;48.601418;-1.770889
Fleury;48.8477706;-1.2754988;[(Decimal('43.1971360'), Decimal('3.2148250')), (Decimal('43.1914356'), Decimal('3.2078971'))];;;[(None, None)];;;;
Saint-Pierre-du-Mont;43.8820960;-0.5198813;[];;;[(None, None)];43.874636;-0.514302;;
Villeneuve;46.0216405;4.8373827;[];;;[(Decimal('45.7065555'), Decimal('7.2134691')), (Decimal('48.0975501'), Decimal('-1.6754519'))];;;;
Bages;42.6058547;2.8920568;[];;;[(Decimal('41.5924361'), Decimal('1.8394195')), (Decimal('41.5929154'), Decimal('1.8384162')), (Decimal('41.7324011'), Decimal('1.6985293')), (Decimal('41.6103837'), Decimal('1.8490323')), (Decimal('41.7388594'), Decimal('1.6236549')), (Decimal('41.7246669'), Decimal('1.8340881')), (Decimal('41.5924381'), Decimal('1.8366671')), (Decimal('41.6154915'), Decimal('1.8433146')), (Decimal('41.7202649'), Decimal('1.8266326')), (Decimal('41.6679378'), Decimal('1.8595694')), (Decimal('41.6688601'), Decimal('1.8623229')), (Decimal('41.6288394'), Decimal('1.8689500')), (Decimal('41.6091192'), Decimal('1.8503095')), (Decimal('41.6405367'), Decimal('1.8547702')), (Decimal('41.7322156'), Decimal('1.8330170')), (Decimal('41.7314552'), Decimal('1.8277403'))];;;;
Fleury;48.8477706;-1.2754988;[(Decimal('43.1971360'), Decimal('3.2148250')), (Decimal('43.1914356'), Decimal('3.2078971'))];43.182961;3.193366;[(None, None)];;;;
Gruissan;43.103672;3.095341;[(Decimal('43.0794370'), Decimal('3.0987450')), (Decimal('43.1223241'), Decimal('3.1350488')), (Decimal('43.1265582'), Decimal('3.1379077'))];43.102038;3.115871;[(Decimal('43.1390540'), Decimal('3.1450673'))];;;43.105395;3.096908
Palme;;;[];42.972278;3;[(None, None)];;;;
Narbonne;43.0069251;2.7339477;[(Decimal('43.1971360'), Decimal('3.2148250')), (Decimal('42.9520840'), Decimal('3.0394170')), (Decimal('43.0794370'), Decimal('3.0987450')), (Decimal('43.1223241'), Decimal('3.1350488')), (Decimal('42.9932400'), Decimal('3.0541470')), (Decimal('42.8583418'), Decimal('3.0460438')), (Decimal('43.1541299'), Decimal('3.1639296')), (Decimal('43.1454490'), Decimal('3.1552314')), (Decimal('42.8631539'), Decimal('2.5882667')), (Decimal('43.1914356'), Decimal('3.2078971')), (Decimal('43.1265582'), Decimal('3.1379077'))];43.164812;3.173623;[(Decimal('43.1999015'), Decimal('2.7694408')), (Decimal('43.1906285'), Decimal('3.0056203')), (Decimal('42.9327732'), Decimal('3.0128704')), (Decimal('43.2337430'), Decimal('3.0509129')), (Decimal('43.0199491'), Decimal('3.0387850')), (Decimal('43.1390540'), Decimal('3.1450673'))];43.166072;2.990954;43.184543;2.998847
Port-la-Nouvelle;43.021677;3.04294;[(Decimal('42.9932400'), Decimal('3.0541470'))];43.007532;3.056849;[(Decimal('43.0199491'), Decimal('3.0387850'))];;;;
Peyriac-de-Mer;43.08681;2.959638;[];43.112376;2.932766;[(None, None)];43.100277;2.941029;;
Salles-d'Aude;43.238871;3.118629;[];;;[(None, None)];;;;
Sigean;43.0564340;2.9223727;[(Decimal('42.9520840'), Decimal('3.0394170')), (Decimal('42.9932400'), Decimal('3.0541470')), (Decimal('42.8583418'), Decimal('3.0460438'))];43.035697;2.965158;[(Decimal('42.9327732'), Decimal('3.0128704')), (Decimal('43.0199491'), Decimal('3.0387850'))];43.017291;2.976601;43.058841;3.002818
Lespignan;43.272645;3.173103;[];43.272701;3.177846;[(None, None)];;;43.276082;3.171032
Vendres;43.2687237;3.2236484;[];;;[(None, None)];;;;
Caumont;44.6961182;-0.0075285;[];;;[(None, None)];;;;
Conteville;49.6928117;1.6371145;[];;;[(None, None)];;;;
Haye;;;[];;;[(None, None)];;;;
Mondeville;48.4901359;2.4160826;[];;;[(None, None)];48.492956;2.413586;;
Bénodet;47.874696;-4.092176;[];47.874096;-4.109709;[(None, None)];47.87384;-4.111828;47.881379;-4.115157
Clohars-Fouesnant;47.897167;-4.064369;[];47.896789;-4.088228;[(None, None)];;;47.892678;-4.062334
Combrit;47.8870559;-4.1551635;[];47.86968;-4.121958;[(None, None)];47.909867;-4.195776;47.887205;-4.162793
Forêt-Fouesnant;47.901068;-3.980581;[];47.902325;-3.956997;[(None, None)];;;47.905328;-3.979379
Fouesnant;47.9084027;-3.9788134;[(Decimal('47.8509519'), Decimal('-4.0114040')), (Decimal('47.8502683'), Decimal('-4.0261676')), (Decimal('47.8483123'), Decimal('-4.0345320'))];47.847389;-4.040889;[(None, None)];47.852903;-4.041502;47.889991;-3.98551
Gouesnach;47.902996;-4.097052;[];47.916022;-4.111843;[(None, None)];47.921609;-4.085391;47.90439;-4.126325
Guilvinec;47.8000738;-4.2148295;[];47.799741;-4.285489;[(None, None)];47.800489;-4.27919;47.802101;-4.278726
Île-Tudy;47.8424093;-4.1675941;[];47.847863;-4.16677;[(Decimal('47.8410194'), Decimal('-4.1710060'))];;;47.841519;-4.169044
Kerlaz;48.09085;-4.272102;[];48.10656;-4.284173;[(None, None)];48.093299;-4.271309;;
Loctudy;47.838645;-4.190084;[];;;[(None, None)];47.832748;-4.163267;47.834066;-4.168964
Pleuven;47.9069367;-4.0437928;[];47.911262;-4.052178;[(None, None)];47.906378;-4.052711;;
Plobannalec-Lesconil;47.8000738;-4.2148295;[];47.823482;-4.230577;[(None, None)];47.823482;-4.230577;47.797931;-4.214356
Plomeur;47.8416402;-4.2829760;[];47.834749;-4.294628;[(Decimal('47.8402439'), Decimal('-4.2849445'))];47.840505;-4.281494;47.826081;-4.329971
Pont-l'Abbé;47.8000738;-4.2148295;[];47.855316;-4.211611;[(Decimal('47.8410194'), Decimal('-4.1710060')), (Decimal('47.8402439'), Decimal('-4.2849445'))];47.871068;-4.224293;47.867977;-4.221634
Saint-Jean-Trolimon;47.8657987;-4.2808245;[];47.870636;-4.303568;[(None, None)];47.887393;-4.315474;;
Tréguennec;47.8921850;-4.3317140;[];47.887427;-4.334018;[(None, None)];;;;
Douarnenez;48.0365987;-4.6677409;[];48.082744;-4.325157;[(Decimal('48.0367561'), Decimal('-4.6670465')), (Decimal('48.0354193'), Decimal('-4.8488392'))];48.093185;-4.339728;48.096576;-4.339942
Plomelin;;;[];47.945306;-4.146903;[(None, None)];47.917697;-4.14944;47.908062;-4.175791
Quimper;47.8581354;-3.6044201;[(Decimal('47.8509519'), Decimal('-4.0114040')), (Decimal('47.8502683'), Decimal('-4.0261676')), (Decimal('47.8483123'), Decimal('-4.0345320')), (Decimal('47.8149990'), Decimal('-3.8714576')), (Decimal('47.8218286'), Decimal('-3.8795042')), (Decimal('47.9703943'), Decimal('-4.4354322')), (Decimal('47.9834539'), Decimal('-4.4589254'))];47.984073;-4.117247;[(Decimal('47.8410194'), Decimal('-4.1710060')), (Decimal('47.7713520'), Decimal('-3.5317104')), (Decimal('47.7714397'), Decimal('-3.6095398')), (Decimal('47.8779798'), Decimal('-3.9205332')), (Decimal('47.8402439'), Decimal('-4.2849445')), (Decimal('48.0367561'), Decimal('-4.6670465')), (Decimal('47.8774501'), Decimal('-3.9204260')), (Decimal('47.9604456'), Decimal('-3.8326856')), (Decimal('47.9946982'), Decimal('-4.0922114')), (Decimal('47.9987253'), Decimal('-4.2713198')), (Decimal('47.8694696'), Decimal('-3.5530139')), (Decimal('48.0354193'), Decimal('-4.8488392'))];47.994463;-4.094637;47.99552;-4.084849
Treffiagat;47.807079;-4.259938;[];47.793294;-4.272384;[(None, None)];;;47.79463;-4.275954
Loges;47.784189;5.490081;[];;;[(None, None)];;;;
Marseillan;43.4880953;0.3164775;[(Decimal('43.3206289'), Decimal('3.5598392'))];;;[(Decimal('43.3181806'), Decimal('3.5355290'))];;;;
Saint-Hippolyte;47.3439081;6.9942263;[];;;[(None, None)];;;;
Pluneret;47.6751135;-2.9581333;[];47.67653;-2.95919;[(None, None)];47.67653;-2.95919;47.698483;-2.973544
Lampaul-Ploudalmézeau;48.5614012;-4.6558435;[];48.563986;-4.659052;[(None, None)];48.553527;-4.641403;48.553527;-4.641403
Lion-sur-Mer;49.3010184;-0.3136146;[];;;[(None, None)];;;;
Landéda;48.586454;-4.569377;[];48.587422;-4.572465;[(None, None)];48.594368;-4.572993;48.59774;-4.561323
Landunvez;48.525344;-4.752786;[];48.519999;-4.759818;[(None, None)];48.521148;-4.751281;48.52268;-4.756495
Ploudalmézeau;48.5251231;-4.5984021;[(Decimal('48.4768099'), Decimal('-4.7123573')), (Decimal('48.5606746'), Decimal('-4.7031038')), (Decimal('48.5704071'), Decimal('-4.7015905'))];48.537387;-4.668231;[(None, None)];48.553101;-4.692784;48.554724;-4.69953
Plouguin;48.5251231;-4.5984021;[];48.529282;-4.595704;[(None, None)];48.522995;-4.590665;;
Porspoder;48.5089159;-4.7658316;[];48.500245;-4.754416;[(None, None)];48.502494;-4.769769;48.484308;-4.770275
Saint-Pabu;;;[];;;[(None, None)];48.570619;-4.611682;;
Tréglonou;48.550559;-4.538962;[];48.54368;-4.550501;[(None, None)];;;48.549842;-4.540035
Saint-Martin-des-Champs;48.8814582;1.7194218;[];;;[(None, None)];48.77993;3.33801;;
Beaulieu-sur-Mer;43.705945;7.335465;[];43.703146;7.330267;[(Decimal('43.7066449'), Decimal('7.3317117'))];43.707104;7.331629;43.707411;7.334016
Èze;43.729314;7.361411;[];43.727863;7.361634;[(Decimal('43.7222004'), Decimal('7.3568809'))];;;;
Nice;43.7252272;7.2564403;[(Decimal('43.7812092'), Decimal('7.5102456')), (Decimal('43.9434372'), Decimal('7.1947915')), (Decimal('43.6871280'), Decimal('7.3226097')), (Decimal('43.9553277'), Decimal('6.8598036'))];43.700949;7.288737;[(Decimal('43.6684958'), Decimal('7.2106118')), (Decimal('43.7205284'), Decimal('7.3943381')), (Decimal('43.7222004'), Decimal('7.3568809')), (Decimal('43.7069401'), Decimal('7.3141855')), (Decimal('43.7047452'), Decimal('7.2615981')), (Decimal('43.7427854'), Decimal('7.3114604')), (Decimal('43.7642195'), Decimal('7.3388726')), (Decimal('44.1809797'), Decimal('7.1519214')), (Decimal('44.1754791'), Decimal('7.1499036')), (Decimal('44.1894589'), Decimal('7.1497645')), (Decimal('44.1755864'), Decimal('7.1495795')), (Decimal('44.1892924'), Decimal('7.1511011')), (Decimal('44.1970080'), Decimal('7.1713696')), (Decimal('44.1894198'), Decimal('7.1508296')), (Decimal('44.2030662'), Decimal('7.1525693')), (Decimal('44.1889608'), Decimal('7.1515099')), (Decimal('44.1858481'), Decimal('7.1568269')), (Decimal('44.1853230'), Decimal('7.1564870')), (Decimal('44.1807309'), Decimal('7.1630742')), (Decimal('44.1832951'), Decimal('7.1601969')), (Decimal('44.1829648'), Decimal('7.1707289')), (Decimal('44.1831430'), Decimal('7.1602377')), (Decimal('44.1775836'), Decimal('7.1765198')), (Decimal('44.1911599'), Decimal('7.1363750')), (Decimal('44.1752525'), Decimal('7.1457520')), (Decimal('44.1847195'), Decimal('7.1596018')), (Decimal('44.1930804'), Decimal('7.1326038')), (Decimal('44.1902724'), Decimal('7.1184773')), (Decimal('44.1866756'), Decimal('7.1346943')), (Decimal('44.1796456'), Decimal('7.1246284')), (Decimal('44.1728290'), Decimal('7.1292902')), (Decimal('44.1732177'), Decimal('7.1245367')), (Decimal('44.1821051'), Decimal('7.1392469')), (Decimal('44.1748338'), Decimal('7.1614340')), (Decimal('44.1716832'), Decimal('7.1611070')), (Decimal('43.7919666'), Decimal('7.3799934')), (Decimal('43.7066449'), Decimal('7.3317117')), (Decimal('43.8208014'), Decimal('7.1881859')), (Decimal('43.8708222'), Decimal('7.1973628')), (Decimal('44.2194631'), Decimal('6.9270648')), (Decimal('44.2221527'), Decimal('6.9208656')), (Decimal('44.2126714'), Decimal('6.9078072')), (Decimal('44.2387345'), Decimal('6.8830750')), (Decimal('44.1800279'), Decimal('7.1625903')), (Decimal('44.1741681'), Decimal('7.1570569')), (Decimal('43.7084426'), Decimal('7.2319363')), (Decimal('43.7747030'), Decimal('7.4931157')), (Decimal('43.7606052'), Decimal('7.4573490')), (Decimal('43.7619604'), Decimal('7.4815261')), (Decimal('43.9544796'), Decimal('6.8914749')), (Decimal('43.9435731'), Decimal('7.0392380')), (Decimal('43.9464583'), Decimal('7.0048045')), (Decimal('43.9361736'), Decimal('7.0867002')), (Decimal('43.9496371'), Decimal('6.9876830')), (Decimal('43.9536794'), Decimal('6.9309813')), (Decimal('44.2464006'), Decimal('6.9086800')), (Decimal('44.2468691'), Decimal('6.9088384')), (Decimal('44.2564763'), Decimal('6.9220927')), (Decimal('43.8878906'), Decimal('7.1892241')), (Decimal('43.7599931'), Decimal('7.3169148')), (Decimal('44.0625669'), Decimal('7.6056235')), (Decimal('44.0900602'), Decimal('7.5940687')), (Decimal('43.9966378'), Decimal('7.5516262')), (Decimal('43.7025211'), Decimal('7.3120822')), (Decimal('44.0722233'), Decimal('7.0287799')), (Decimal('43.9893065'), Decimal('7.4023293')), (Decimal('43.8574069'), Decimal('7.1965165')), (Decimal('44.0765539'), Decimal('7.0242524')), (Decimal('44.0804803'), Decimal('7.0288899')), (Decimal('44.1125214'), Decimal('7.5628813')), (Decimal('43.9440390'), Decimal('7.5163276')), (Decimal('44.2155465'), Decimal('6.9261375')), (Decimal('43.7852801'), Decimal('7.5172360')), (Decimal('43.9891595'), Decimal('7.4010522')), (Decimal('43.9883545'), Decimal('7.3998437')), (Decimal('44.0724243'), Decimal('7.0283248')), (Decimal('44.0669522'), Decimal('7.0239576')), (Decimal('43.7545718'), Decimal('7.4485727')), (Decimal('44.0655902'), Decimal('7.2269732')), (Decimal('43.9892517'), Decimal('7.4023451')), (Decimal('43.9899111'), Decimal('7.4062422')), (Decimal('43.7343809'), Decimal('7.3026146')), (Decimal('44.2226540'), Decimal('6.9224226')), (Decimal('44.2263877'), Decimal('6.9279938')), (Decimal('44.1730775'), Decimal('7.1300091')), (Decimal('43.7545430'), Decimal('7.4484487')), (Decimal('44.0731545'), Decimal('6.9412517')), (Decimal('44.0700941'), Decimal('6.9393360')), (Decimal('44.0683703'), Decimal('6.9457070')), (Decimal('44.0640568'), Decimal('6.9384724')), (Decimal('44.2202906'), Decimal('6.9225644')), (Decimal('44.2197491'), Decimal('6.9246060')), (Decimal('44.2211067'), Decimal('6.9206725')), (Decimal('44.2258467'), Decimal('6.8914728')), (Decimal('44.2342963'), Decimal('6.8784276')), (Decimal('44.2361023'), Decimal('6.9026603')), (Decimal('44.2126298'), Decimal('6.8983595')), (Decimal('44.2141490'), Decimal('6.9124538')), (Decimal('44.2455823'), Decimal('6.9087361')), (Decimal('44.2462280'), Decimal('6.9087727')), (Decimal('44.2045389'), Decimal('6.9099886')), (Decimal('44.2144368'), Decimal('6.9133251')), (Decimal('44.2077316'), Decimal('6.9280830')), (Decimal('44.2085833'), Decimal('6.9136265')), (Decimal('44.2194306'), Decimal('6.9283020')), (Decimal('44.2198969'), Decimal('6.9297300')), (Decimal('44.2202028'), Decimal('6.9260097')), (Decimal('44.2202538'), Decimal('6.9260521')), (Decimal('44.0499362'), Decimal('6.9240191')), (Decimal('44.0530902'), Decimal('6.9319439')), (Decimal('44.0605361'), Decimal('6.9209483')), (Decimal('44.0604031'), Decimal('6.9208512')), (Decimal('44.0638540'), Decimal('6.9374948')), (Decimal('44.0802721'), Decimal('6.9358801')), (Decimal('44.0827924'), Decimal('6.9318603')), (Decimal('44.0900556'), Decimal('6.9273438')), (Decimal('44.0758829'), Decimal('6.9679959')), (Decimal('44.0813735'), Decimal('6.9559866')), (Decimal('44.0830534'), Decimal('6.9313343')), (Decimal('44.0836899'), Decimal('6.9563614')), (Decimal('44.0838907'), Decimal('6.9715630')), (Decimal('44.0870236'), Decimal('6.9695308')), (Decimal('43.8397416'), Decimal('7.3519161')), (Decimal('44.1872100'), Decimal('7.1595757')), (Decimal('44.0930506'), Decimal('6.9824823')), (Decimal('44.0914878'), Decimal('6.9777215')), (Decimal('44.0930211'), Decimal('6.9826501')), (Decimal('44.0913571'), Decimal('6.9783499')), (Decimal('44.0919881'), Decimal('6.9833602')), (Decimal('44.0851692'), Decimal('6.9802876')), (Decimal('44.1762572'), Decimal('7.1554118')), (Decimal('44.2247617'), Decimal('6.9308874')), (Decimal('43.7058196'), Decimal('7.2904984')), (Decimal('44.0871091'), Decimal('6.9693518')), (Decimal('44.0875969'), Decimal('6.9407026')), (Decimal('44.2151146'), Decimal('6.8971926')), (Decimal('44.0917883'), Decimal('6.9261989')), (Decimal('44.0919118'), Decimal('6.9263444')), (Decimal('44.0806525'), Decimal('6.9558716')), (Decimal('44.0830156'), Decimal('6.9308052')), (Decimal('44.0748633'), Decimal('6.9411202')), (Decimal('44.0838506'), Decimal('6.9713547')), (Decimal('44.0878469'), Decimal('6.9407447')), (Decimal('44.0833065'), Decimal('6.9566784')), (Decimal('43.7222662'), Decimal('7.2914241')), (Decimal('44.0823624'), Decimal('7.0412324')), (Decimal('44.0823793'), Decimal('7.0407565')), (Decimal('44.0811778'), Decimal('7.0397454')), (Decimal('43.9309886'), Decimal('7.1171401')), (Decimal('43.7060398'), Decimal('7.2508200')), (Decimal('43.7102893'), Decimal('7.2556092')), (Decimal('43.7100840'), Decimal('7.2072807')), (Decimal('43.7118093'), Decimal('7.1972505')), (Decimal('43.7309638'), Decimal('7.1846239')), (Decimal('43.7444565'), Decimal('7.1858650')), (Decimal('43.7635671'), Decimal('7.2044584')), (Decimal('43.7716272'), Decimal('7.2131595')), (Decimal('43.7892380'), Decimal('7.2151911')), (Decimal('43.8467902'), Decimal('7.1973789')), (Decimal('44.0583665'), Decimal('6.9377020')), (Decimal('44.0586232'), Decimal('7.2187397')), (Decimal('44.0693823'), Decimal('7.2345985')), (Decimal('44.0695393'), Decimal('7.2346205')), (Decimal('44.0706161'), Decimal('7.2247688')), (Decimal('44.1912202'), Decimal('7.1649524')), (Decimal('44.2264233'), Decimal('6.9029543')), (Decimal('44.2156380'), Decimal('6.9298343')), (Decimal('44.2076029'), Decimal('6.9282935')), (Decimal('43.7029860'), Decimal('7.2451272')), (Decimal('44.1913575'), Decimal('7.1664483')), (Decimal('44.0700790'), Decimal('6.9393981')), (Decimal('44.0731048'), Decimal('6.9413050')), (Decimal('44.0825438'), Decimal('7.0407593')), (Decimal('44.0823359'), Decimal('7.0403040')), (Decimal('43.7089508'), Decimal('7.2596054')), (Decimal('43.7205255'), Decimal('7.1882302')), (Decimal('43.8470021'), Decimal('7.3642659')), (Decimal('43.8764203'), Decimal('7.4536189')), (Decimal('43.7679243'), Decimal('7.3668656')), (Decimal('43.8376165'), Decimal('7.1939758')), (Decimal('44.0556825'), Decimal('7.5835191')), (Decimal('44.1858658'), Decimal('7.1594111')), (Decimal('44.2362533'), Decimal('6.9027678')), (Decimal('43.7226831'), Decimal('7.2906403')), (Decimal('43.7227682'), Decimal('7.2907231'))];;;;
Saint-Laurent-du-Var;;;[];43.673423;7.187657;[(Decimal('43.6623911'), Decimal('7.1945888'))];43.661741;7.19315;;
Villefranche-sur-Mer;43.7013870;7.3110011;[(Decimal('43.6871280'), Decimal('7.3226097'))];;;[(Decimal('43.7205284'), Decimal('7.3943381')), (Decimal('43.7222004'), Decimal('7.3568809')), (Decimal('43.7069401'), Decimal('7.3141855')), (Decimal('43.7066449'), Decimal('7.3317117')), (Decimal('43.7025211'), Decimal('7.3120822'))];43.707801;7.31369;;
Marennes;45.6194062;4.9133949;[];45.62069;4.910888;[(None, None)];;;;
Beauvoir;48.5965183;-1.5041645;[];;;[(None, None)];;;;
Conteville;49.6928117;1.6371145;[];;;[(None, None)];;;;
Fleury;48.8477706;-1.2754988;[(Decimal('43.1971360'), Decimal('3.2148250')), (Decimal('43.1914356'), Decimal('3.2078971'))];;;[(None, None)];;;;
Sainte-Hélène;44.5192412;3.6032955;[];;;[(None, None)];;;;
Étaules;45.7334148;-1.1004222;[];;;[(None, None)];;;;
Bourg;45.0819782;-0.4960701;[];;;[(None, None)];;;;
Loges;;;[];;;[(None, None)];;;;
Flamanville;49.540127;-1.859359;[];49.548677;-1.866165;[(None, None)];;;49.550474;-1.861628
Moitiers-d'Allonne;49.399299;-1.796356;[];49.399299;-1.796356;[(None, None)];49.399299;-1.796356;49.404666;-1.780231
Pieux;49.507071;-1.844213;[];49.507883;-1.849869;[(None, None)];;;;
Rozel;;;[];49.475704;-1.838311;[(None, None)];;;;
Siouville-Hague;49.5584081;-1.8397713;[];49.56044;-1.8267;[(None, None)];49.568482;-1.837196;;
Surtainville;49.4584171;-1.8132860;[];49.45783;-1.794302;[(None, None)];;;;
Tréauville;49.5311356;-1.8116669;[];49.547138;-1.84916;[(None, None)];;;49.552386;-1.856243
Villeneuve;46.0216405;4.8373827;[];;;[(Decimal('45.7065555'), Decimal('7.2134691')), (Decimal('48.0975501'), Decimal('-1.6754519'))];;;;
Épine;;;[];;;[(None, None)];;;;
Vitrolles;43.4584611;5.2496686;[];;;[(Decimal('43.4412293'), Decimal('5.2371148'))];;;;
Locquénolé;48.6245884;-3.8605415;[];48.621583;-3.859555;[(None, None)];48.621745;-3.857033;48.621745;-3.857033
Carry-le-Rouet;43.335677;5.140439;[];43.329636;5.159389;[(Decimal('43.3366765'), Decimal('5.1535981'))];43.335588;5.150091;43.333447;5.158171
Martigues;43.4054122;5.0488697;[];43.336455;5.069115;[(Decimal('43.4057603'), Decimal('5.0498484')), (Decimal('43.4040551'), Decimal('5.0505803')), (Decimal('43.4031040'), Decimal('5.0585408')), (Decimal('43.4088984'), Decimal('5.0196687')), (Decimal('43.3929443'), Decimal('5.0256298')), (Decimal('43.3399417'), Decimal('5.0517193'))];;;43.411544;5.025319
Port-Saint-Louis-du-Rhône;43.3879317;4.8032082;[];43.386766;4.848993;[(Decimal('43.4195762'), Decimal('4.7478082'))];43.388585;4.802592;;
Sausset-les-Pins;43.332478;5.108844;[];43.341798;5.113519;[(Decimal('43.3329833'), Decimal('5.1100682'))];43.331976;5.109844;43.331622;5.108074
Plurien;48.6265626;-2.4013876;[];48.622423;-2.407552;[(None, None)];48.628193;-2.400601;48.621909;-2.407323
Pléneuf-Val-André;48.5573590;-2.5329618;[];48.592005;-2.537581;[(None, None)];48.581203;-2.563464;48.580243;-2.558004
Favières;48.4638889;5.9573207;[];;;[(Decimal('50.2171629'), Decimal('1.6592668'))];;;;
Caumont;44.6961182;-0.0075285;[];;;[(None, None)];;;;
Gouy;49.3544647;1.1477716;[];;;[(None, None)];50.002294;3.250043;;
Erquy;48.62875;-2.465713;[];48.619114;-2.474384;[(None, None)];48.620403;-2.47382;48.636196;-2.469592
Lanmodez;48.841804;-3.106988;[];48.841804;-3.106988;[(None, None)];48.85369;-3.094346;48.838879;-3.092431
Lézardrieux;48.8280385;-3.1842927;[];48.804908;-3.107645;[(None, None)];48.782866;-3.10935;48.788427;-3.103042
Pleubian;48.84983;-3.149227;[];48.863656;-3.109243;[(None, None)];48.859909;-3.108288;48.84394;-3.144708
Pleudaniel;48.769279;-3.142184;[];48.76004;-3.126279;[(None, None)];;;48.766762;-3.144861
Plouha;48.6635390;-2.8717165;[];48.687573;-2.931222;[(None, None)];48.670007;-2.923678;48.675451;-2.909899
Saillans;44.6978352;5.1970963;[];44.696276;5.18397;[(Decimal('44.7111906'), Decimal('5.2658699'))];44.695093;5.195967;;
Honfleur;49.4022497;0.1396860;[];49.424677;0.230753;[(None, None)];49.420784;0.237249;49.39418;0.2409
Aizier;49.4300242;0.6261490;[];;;[(None, None)];;;;
Berville-sur-Mer;;;[];49.431184;0.36085;[(None, None)];49.42697;0.362362;49.434181;0.366222
Landin;;;[];;;[(None, None)];;;;
Marais-Vernier;49.4620160;0.5260800;[];49.411285;0.460394;[(None, None)];49.414557;0.459142;49.414557;0.459142
Quillebeuf-sur-Seine;49.3903090;0.6213054;[];49.472615;0.527087;[(None, None)];49.47295;0.525487;49.469052;0.528135
Saint-Aubin-sur-Quillebeuf;49.4620160;0.5260800;[];49.450732;0.536739;[(None, None)];49.450732;0.536739;49.450732;0.536739
Saint-Samson-de-la-Roque;49.4279233;0.4301256;[];49.405645;0.428787;[(None, None)];49.436083;0.431567;49.419131;0.44738
Trouville-la-Haule;49.418508;0.577775;[];49.418586;0.579498;[(None, None)];;;49.418796;0.575836
Vieux-Port;;;[];;;[(Decimal('11.7831990'), Decimal('42.8813227'))];;;;
Saint-Gilles;43.8258684;4.2605811;[];;;[(Decimal('43.7324117'), Decimal('4.3434045')), (Decimal('43.7885662'), Decimal('4.3032442'))];;;;
Anneville-Ambourville;49.452696;0.887153;[];49.467857;0.924052;[(None, None)];49.460347;0.902166;49.452696;0.887153
Cerlangue;49.508161;0.41553;[];49.47575;0.405742;[(None, None)];;;;
Flamanville;49.63366;0.838245;[];;;[(None, None)];;;;
Gonfreville-l'Orcher;49.5027759;0.2333356;[];49.508785;0.219858;[(None, None)];49.508533;0.233506;49.511164;0.230453
Mauny;49.3800522;0.8855994;[];;;[(None, None)];;;;
Mesnil-sous-Jumièges;49.422067;0.859982;[];49.428096;0.860592;[(None, None)];49.422067;0.859982;49.422067;0.859982
Moulineaux;49.344823;0.933223;[];49.342757;0.953144;[(None, None)];;;;
Rogerville;49.5036506;0.2671690;[];49.503427;0.270627;[(None, None)];49.503427;0.270627;49.503427;0.270627
Saint-Vigor-d'Ymonville;49.493494;0.361827;[];49.495171;0.359675;[(None, None)];49.493494;0.361827;49.493494;0.361827
Yainville;;;[];49.456202;0.830921;[(Decimal('49.4575208'), Decimal('0.8196150'))];;;49.448339;0.830635
Yville-sur-Seine;49.3997686;0.8815680;[];49.412183;0.873926;[(None, None)];;;49.39872;0.870407
Barneville-sur-Seine;49.3799870;0.8494650;[];49.387278;0.848593;[(None, None)];;;;
Caumont;44.6961182;-0.0075285;[];;;[(None, None)];;;49.364413;0.896492
Conteville;49.6928117;1.6371145;[];49.406962;0.38747;[(None, None)];;;;
Foulbec;49.407446;0.416779;[];49.399161;0.425045;[(None, None)];;;;
Bardouville;49.440506;0.924245;[];49.412539;0.926257;[(None, None)];49.429662;0.923035;49.429662;0.923035
Berville-sur-Seine;;;[];49.472624;0.887011;[(Decimal('49.4791810'), Decimal('0.8767075'))];;;49.472333;0.900403
Bouille;49.348731;0.932656;[];49.350676;0.933207;[(None, None)];;;49.351563;0.931488
Duclair;49.4119355;0.8579641;[];49.465819;0.85815;[(Decimal('49.4291572'), Decimal('0.8038517')), (Decimal('49.4575208'), Decimal('0.8196150')), (Decimal('49.4807247'), Decimal('0.8754147')), (Decimal('49.4791810'), Decimal('0.8767075')), (Decimal('49.4285945'), Decimal('0.8039566'))];;;;
Hénouville;49.476576;0.959005;[];49.476576;0.959005;[(None, None)];49.479464;0.959618;;
Jumièges;49.432725;0.818917;[];49.421621;0.826187;[(Decimal('49.4291572'), Decimal('0.8038517')), (Decimal('49.4285945'), Decimal('0.8039566'))];49.431988;0.817689;;
Oudalle;49.507688;0.303417;[];49.49325;0.286062;[(None, None)];49.501488;0.286462;;
Quevillon;49.4187659;0.9530900;[];49.422565;0.954074;[(None, None)];;;;
Sahurs;49.3585640;0.9432717;[];;;[(None, None)];;;;
Saint-Pierre-de-Manneville;49.392186;0.932292;[];49.382031;0.919508;[(None, None)];49.382746;0.929956;;
Saint-Pierre-de-Varengeville;49.50318;0.929963;[];49.50086;0.921484;[(None, None)];49.502961;0.925974;;
Sandouville;49.4967272;0.3192402;[];49.495421;0.311691;[(None, None)];;;;
Trait;;;[];49.47742;0.806445;[(None, None)];;;;
Barfleur;49.666362;-1.259043;[];49.669253;-1.264305;[(None, None)];;;49.671032;-1.264266
Hague;49.662908;-1.837602;[];49.675312;-1.737231;[(None, None)];;;49.715734;-1.944742
Bretteville;49.6563118;-1.5196739;[];;;[(None, None)];;;;
Cherbourg-en-Cotentin;49.6490430;-1.6539054;[];49.666568;-1.69688;[(Decimal('49.6474313'), Decimal('-1.6103588')), (Decimal('49.6437759'), Decimal('-1.6153703')), (Decimal('49.6492705'), Decimal('-1.6128939')), (Decimal('49.6467094'), Decimal('-1.6167389')), (Decimal('49.6444910'), Decimal('-1.6050689')), (Decimal('49.6295602'), Decimal('-1.6365547')), (Decimal('49.6492644'), Decimal('-1.6129412'))];49.654921;-1.651268;49.640304;-1.622195
Vicq-sur-Mer;49.6944644;-1.4090923;[];;;[(None, None)];;;;
Digosville;49.6306336;-1.5266292;[];49.622587;-1.505128;[(None, None)];49.633238;-1.522003;49.653897;-1.547961
Fermanville;49.676022;-1.454536;[];49.691258;-1.456045;[(None, None)];49.689378;-1.46337;49.693836;-1.462405
Gatteville-le-Phare;49.671675;-1.281573;[];49.684526;-1.284344;[(None, None)];49.684526;-1.284344;49.68174;-1.288412
Héauville;49.5801687;-1.7980309;[(Decimal('49.5815130'), Decimal('-1.8421380'))];49.569802;-1.804283;[(None, None)];;;;
Maupertus-sur-Mer;49.662428;-1.489605;[];49.667776;-1.488002;[(None, None)];49.662428;-1.489605;49.65497;-1.486963
Montfarville;49.6537589;-1.2689246;[];49.653872;-1.25055;[(None, None)];49.655089;-1.255979;49.654617;-1.258529
Pernelle;49.618708;-1.299295;[];;;[(None, None)];;;;
Quettehou;49.6353554;-1.2878416;[];49.5794;-1.300378;[(None, None)];;;;
Réville;;;[];;;[(None, None)];49.620354;-1.264864;;
Saint-Vaast-la-Hougue;49.584205;-1.266714;[];49.584694;-1.26608;[(None, None)];49.584694;-1.26608;49.586888;-1.265276
Plounéour-Brignogan-plages;48.650666;-4.318095;[];48.656923;-4.301953;[(None, None)];48.646176;-4.328458;48.662669;-4.302611
Carantec;48.666342;-3.914918;[];48.669048;-3.910489;[(Decimal('48.6752530'), Decimal('-3.8841720')), (Decimal('48.6706757'), Decimal('-3.9108013'))];48.636779;-3.885363;48.673359;-3.922784
Cléder;48.664148;-4.104835;[];48.67053;-4.098148;[(None, None)];48.662488;-4.105357;48.687081;-4.098027
Goulven;48.6282503;-4.3010692;[];;;[(None, None)];48.632766;-4.303278;;
Guiclan;48.552509;-3.958219;[];48.534634;-3.973075;[(None, None)];48.552912;-3.959703;48.547389;-3.965394
Guissény;48.634905;-4.399004;[];48.61604;-4.407234;[(None, None)];48.63843;-4.426297;48.636716;-4.444075
Henvic;48.63148;-3.926373;[];48.623518;-3.92787;[(None, None)];;;48.638729;-3.938578
Île-de-Batz;;;[];48.745509;-4.012819;[(None, None)];48.745339;-4.027117;48.744497;-4.011801
Kerlouan;48.65647;-4.386964;[(Decimal('48.6739421'), Decimal('-4.3549406'))];48.652504;-4.416961;[(None, None)];48.674123;-4.351812;48.647396;-4.41711
Lannilis;48.570006;-4.520426;[];48.570764;-4.527265;[(None, None)];48.569893;-4.512132;48.571907;-4.586852
Plouénan;48.592527;-3.961497;[];48.629113;-4.001102;[(None, None)];48.639177;-3.970085;;
Plouescat;48.65736;-4.173913;[(Decimal('48.6412352'), Decimal('-4.2919385')), (Decimal('48.6500285'), Decimal('-4.2418695'))];48.679257;-4.193979;[(None, None)];48.680817;-4.19219;48.667036;-4.211787
Plougoulm;48.66698;-4.044114;[];48.673215;-4.044489;[(None, None)];48.670124;-4.042872;48.681056;-4.050826
Plouguerneau;;;[];48.602129;-4.498391;[(None, None)];48.61657;-4.505217;48.621301;-4.497176
Plouider;48.6083584;-4.2989284;[];48.609717;-4.298593;[(None, None)];48.608098;-4.294965;48.593198;-4.265772
Plounévez-Lochrist;48.617309;-4.21134;[(Decimal('48.6500285'), Decimal('-4.2418695'))];48.620269;-4.215132;[(None, None)];48.614752;-4.215273;48.619382;-4.210332
Plouvien;48.5298258;-4.4513614;[];48.531533;-4.474334;[(None, None)];48.53094;-4.449119;48.554063;-4.422904
Roscoff;48.719135;-3.986672;[(Decimal('48.7246162'), Decimal('-3.9728197'))];48.712051;-3.988098;[(None, None)];48.720442;-3.98086;48.719783;-3.96796
Saint-Martin-des-Champs;48.8814582;1.7194218;[];;;[(None, None)];;;;
Saint-Pol-de-Léon;48.6277920;-4.0963801;[(Decimal('48.7246162'), Decimal('-3.9728197')), (Decimal('48.6412352'), Decimal('-4.2919385')), (Decimal('48.6500285'), Decimal('-4.2418695')), (Decimal('48.6899279'), Decimal('-4.0780704'))];48.687745;-3.977655;[(Decimal('48.6768486'), Decimal('-3.9872929'))];;;48.680701;-3.9761
Santec;48.711256;-4.016718;[];48.700372;-4.032371;[(None, None)];48.70064;-4.050422;48.706862;-4.011188
Sibiril;48.664691;-4.063745;[(Decimal('48.6899279'), Decimal('-4.0780704'))];48.688326;-4.07941;[(None, None)];48.665739;-4.072261;48.689737;-4.081192
Taulé;48.6245884;-3.8605415;[];;;[(Decimal('48.6752530'), Decimal('-3.8841720')), (Decimal('48.6706757'), Decimal('-3.9108013'))];48.615072;-3.896804;48.603832;-3.897707
Tréflez;48.622429;-4.261096;[(Decimal('48.6412352'), Decimal('-4.2919385'))];48.640704;-4.271176;[(None, None)];48.621888;-4.256457;;
Troguéry;48.757221;-3.230254;[];48.758246;-3.229674;[(None, None)];;;;
Bouée;47.3203178;-1.9102317;[];;;[(None, None)];;;;
Villeneuve-en-Retz;47.0261111;-1.8784385;[];47.027091;-1.876129;[(Decimal('47.0471487'), Decimal('-1.9523504'))];47.027091;-1.876129;47.030195;-1.899526
Indre;46.8111948;1.6913746;[];;;[(Decimal('47.1956501'), Decimal('-1.6755942')), (Decimal('47.1974746'), Decimal('-1.6741121')), (Decimal('46.9486016'), Decimal('1.9854698')), (Decimal('47.0799970'), Decimal('1.3575749')), (Decimal('47.2550746'), Decimal('1.6459907')), (Decimal('46.9388318'), Decimal('1.4411791')), (Decimal('46.9580092'), Decimal('1.4330416')), (Decimal('47.0147232'), Decimal('1.4140350')), (Decimal('46.9819771'), Decimal('1.4206270')), (Decimal('46.8500886'), Decimal('1.7939094')), (Decimal('47.1330004'), Decimal('1.4358238')), (Decimal('47.1398181'), Decimal('1.4915354')), (Decimal('47.2144095'), Decimal('1.6145221')), (Decimal('46.9440813'), Decimal('1.3147588')), (Decimal('46.8987358'), Decimal('1.4944862')), (Decimal('46.8291619'), Decimal('1.5644331')), (Decimal('47.1631601'), Decimal('1.5584373')), (Decimal('46.5923091'), Decimal('1.5185314')), (Decimal('47.0858319'), Decimal('2.0474290')), (Decimal('46.8826588'), Decimal('1.8626822')), (Decimal('47.0028432'), Decimal('2.0301466')), (Decimal('46.7357607'), Decimal('1.5901218')), (Decimal('46.6264951'), Decimal('1.5076427')), (Decimal('46.6947812'), Decimal('1.5630082')), (Decimal('46.8094504'), Decimal('1.6994314')), (Decimal('46.4800804'), Decimal('2.0307070'))];47.200239;-1.669334;47.193768;-1.64967
Montoir-de-Bretagne;47.3513716;-2.1788348;[];47.319879;-2.150234;[(Decimal('47.3209456'), Decimal('-2.1616062')), (Decimal('47.3150702'), Decimal('-2.0736623'))];;;;
Moutiers-en-Retz;47.058642;-2.001174;[];47.063325;-2.007205;[(None, None)];47.062316;-2.001521;47.055217;-1.995496
Pornichet;47.242674;-2.308508;[];47.262978;-2.342407;[(Decimal('47.2705207'), Decimal('-2.3447637'))];47.270204;-2.343217;47.25854;-2.34163
Saint-Herblain;47.219644;-1.620668;[];47.227082;-1.625284;[(None, None)];47.207995;-1.658881;47.210949;-1.653625
Saint-Nazaire;47.0814249;-2.0382504;[(Decimal('47.2350436'), Decimal('-2.2937448'))];47.254024;-2.253734;[(Decimal('47.2904432'), Decimal('-2.1655544')), (Decimal('47.2854118'), Decimal('-2.2113694')), (Decimal('47.2836505'), Decimal('-2.3648123')), (Decimal('47.2904897'), Decimal('-2.2008463')), (Decimal('47.3209456'), Decimal('-2.1616062')), (Decimal('47.5166443'), Decimal('-2.0439761')), (Decimal('47.2866383'), Decimal('-2.2111634')), (Decimal('47.5499299'), Decimal('-2.0727691')), (Decimal('47.4353259'), Decimal('-2.0885109')), (Decimal('47.3003329'), Decimal('-2.1934283')), (Decimal('47.2705207'), Decimal('-2.3447637')), (Decimal('47.3584359'), Decimal('-1.9507757')), (Decimal('47.2616258'), Decimal('-2.0151117')), (Decimal('47.3658329'), Decimal('-1.9395367')), (Decimal('47.4823703'), Decimal('-2.0500625')), (Decimal('47.0471487'), Decimal('-1.9523504')), (Decimal('47.0618825'), Decimal('-2.0009581')), (Decimal('47.0831649'), Decimal('-2.0338614')), (Decimal('47.1145045'), Decimal('-2.0977051')), (Decimal('47.1057842'), Decimal('-1.8651876')), (Decimal('47.3150702'), Decimal('-2.0736623')), (Decimal('47.2898097'), Decimal('-2.5069508'))];47.28567;-2.21132;47.27623;-2.204033
Fleury;48.8477706;-1.2754988;[(Decimal('43.1971360'), Decimal('3.2148250')), (Decimal('43.1914356'), Decimal('3.2078971'))];;;[(None, None)];;;;
Marsilly;46.2295060;-1.1346480;[];;;[(None, None)];;;;
Barbâtre;46.948953;-2.183582;[];46.941748;-2.180298;[(None, None)];46.944235;-2.17785;;
Bouin;46.9744971;-1.9990231;[];46.933278;-2.062655;[(None, None)];;;46.978102;-1.982045
Noirmoutier-en-l'Île;46.9676671;-2.2335486;[(Decimal('47.0010281'), Decimal('-2.2981658'))];47.015189;-2.224678;[(None, None)];47.000311;-2.248822;47.022183;-2.300341
Notre-Dame-de-Monts;46.831348;-2.130616;[];;;[(None, None)];;;;
Audierne;48.0214342;-4.5378877;[];48.011622;-4.565603;[(None, None)];48.015319;-4.545955;48.00526;-4.558343
Beuzec-Cap-Sizun;48.075084;-4.512276;[];48.076661;-4.511773;[(None, None)];48.069679;-4.532717;48.084264;-4.528149
Cléden-Cap-Sizun;48.0489818;-4.6483891;[];48.048041;-4.647948;[(None, None)];48.054598;-4.658686;48.060362;-4.671174
Goulien;48.055601;-4.592307;[];48.041356;-4.605166;[(None, None)];;;48.072324;-4.603494
Penmarch;;;[];47.825793;-4.365548;[(None, None)];47.809378;-4.339614;47.803525;-4.350033
Plogoff;48.0365987;-4.6677409;[];48.029236;-4.6359;[(Decimal('48.0367561'), Decimal('-4.6670465'))];48.031668;-4.66773;48.039167;-4.706571
Plouhinec;47.6974894;-3.2520118;[];48.008216;-4.513599;[(None, None)];;;;
Plovan;47.9159456;-4.3612916;[];47.916097;-4.370346;[(None, None)];47.919015;-4.367742;47.917003;-4.364625
Plozévet;47.9879502;-4.4251731;[(Decimal('47.9703943'), Decimal('-4.4354322')), (Decimal('47.9834539'), Decimal('-4.4589254'))];47.980575;-4.416072;[(None, None)];47.988001;-4.421287;47.984876;-4.456639
Pont-Croix;48.0365987;-4.6677409;[];;;[(Decimal('48.0367561'), Decimal('-4.6670465')), (Decimal('48.0354193'), Decimal('-4.8488392'))];48.044681;-4.48815;;
Pouldreuzic;47.9532696;-4.3584039;[];47.962894;-4.367339;[(None, None)];47.951882;-4.366198;47.942022;-4.404172
Poullan-sur-Mer;48.081114;-4.41551;[];48.0716;-4.399202;[(None, None)];48.085273;-4.413672;;
Primelin;48.025266;-4.610137;[];48.028522;-4.629591;[(None, None)];48.021245;-4.607416;48.027575;-4.629863
Tréogat;47.9179197;-4.3236840;[];;;[(None, None)];47.921182;-4.32637;;
Bernerie-en-Retz;47.084814;-2.041447;[];47.084814;-2.032509;[(None, None)];47.084814;-2.032509;47.071128;-2.027226
Bouguenais;47.183689;-1.584915;[];47.181289;-1.632493;[(None, None)];47.1775;-1.620008;47.18095;-1.631459
Cordemais;47.293306;-1.871927;[];47.299837;-1.827164;[(Decimal('47.3022303'), Decimal('-1.8465953'))];47.302457;-1.845353;47.28279;-1.885104
Couëron;47.210414;-1.730652;[];47.215538;-1.713541;[(Decimal('47.2219523'), Decimal('-1.7236247'))];47.222178;-1.725735;47.217359;-1.744212
Lavau-sur-Loire;47.3062862;-1.9675599;[];;;[(None, None)];;;47.305609;-1.965695
Montagne;44.9302697;-0.1291616;[];;;[(Decimal('45.4953736'), Decimal('-73.5798383')), (Decimal('45.4897865'), Decimal('-73.5863426'))];;;;
Nantes;47.2019039;-1.7544191;[(Decimal('47.2439678'), Decimal('-1.4745251'))];47.220101;-1.508539;[(Decimal('47.1956501'), Decimal('-1.6755942')), (Decimal('47.1974746'), Decimal('-1.6741121')), (Decimal('47.1971055'), Decimal('-1.5943591')), (Decimal('46.9906287'), Decimal('-1.8226619')), (Decimal('47.2031259'), Decimal('-1.7550298')), (Decimal('47.1381112'), Decimal('-1.6810992')), (Decimal('47.0505288'), Decimal('-1.1828139')), (Decimal('47.2057549'), Decimal('-1.7519331')), (Decimal('47.1615433'), Decimal('-1.3922123')), (Decimal('47.1003270'), Decimal('-1.3061145')), (Decimal('47.2651143'), Decimal('-1.4409626')), (Decimal('47.2170954'), Decimal('-1.5414230')), (Decimal('47.1164915'), Decimal('-1.7393069')), (Decimal('47.2588443'), Decimal('-1.5449720')), (Decimal('47.2830277'), Decimal('-1.5446771')), (Decimal('47.1904456'), Decimal('-1.4956837')), (Decimal('47.2068980'), Decimal('-1.5109800')), (Decimal('47.2976040'), Decimal('-1.5480222')), (Decimal('47.3022303'), Decimal('-1.8465953')), (Decimal('47.2748178'), Decimal('-1.7856867')), (Decimal('47.2219523'), Decimal('-1.7236247')), (Decimal('47.2941137'), Decimal('-1.5289637')), (Decimal('47.1932254'), Decimal('-1.5493838')), (Decimal('47.2920482'), Decimal('-1.5358122')), (Decimal('47.1956514'), Decimal('-1.5886441')), (Decimal('47.1990647'), Decimal('-1.5727494')), (Decimal('47.3085846'), Decimal('-1.5415082')), (Decimal('47.1054412'), Decimal('-1.8139605')), (Decimal('47.0859421'), Decimal('-1.2865506'))];;;47.278477;-1.512391
Pellerin;47.20467;-1.779724;[];;;[(None, None)];;;;
Plaine-sur-Mer;47.158355;-2.168682;[];47.155259;-2.195129;[(None, None)];47.137501;-2.194317;47.155145;-2.180463
Pornic;47.0814249;-2.0382504;[];47.103866;-2.081423;[(Decimal('47.0618825'), Decimal('-2.0009581')), (Decimal('47.0831649'), Decimal('-2.0338614')), (Decimal('47.1145045'), Decimal('-2.0977051'))];47.114241;-2.098143;47.112345;-1.970798
Préfailles;47.1283311;-2.2163623;[];47.12824;-2.219376;[(None, None)];;;47.124713;-2.199647
Rouans;47.186205;-1.859284;[];47.174034;-1.832138;[(None, None)];;;47.185936;-1.880217
Saint-Étienne-de-Montluc;47.3267650;-1.7359606;[];47.272362;-1.783189;[(Decimal('47.3022303'), Decimal('-1.8465953')), (Decimal('47.2748178'), Decimal('-1.7856867')), (Decimal('47.2219523'), Decimal('-1.7236247'))];;;;
Saint-Jean-de-Boiseau;47.18963;-1.70844;[];47.193147;-1.71105;[(None, None)];47.199711;-1.734654;47.200331;-1.736751
Saint-Michel-Chef-Chef;47.185135;-2.151187;[];47.176064;-2.161061;[(None, None)];47.175307;-2.153889;47.174952;-2.161082
Grand-Quevilly;49.416851;1.033479;[];49.412739;1.044635;[(None, None)];49.427644;1.037641;;
Barre-de-Monts;;;[];46.891496;-2.134573;[(None, None)];46.890987;-2.136215;;
Beauvoir-sur-Mer;46.9744971;-1.9990231;[];46.934637;-2.073694;[(None, None)];;;46.926188;-2.050436
Épine;46.977401;-2.265554;[];;;[(None, None)];;;;
Guérinière;;;[];46.966439;-2.230315;[(None, None)];;;46.961872;-2.210968
Saint-Gervais;46.7150305;-70.8861999;[];;;[(None, None)];;;;
Saint-Jean-de-Monts;46.9676671;-2.2335486;[(Decimal('47.0010281'), Decimal('-2.2981658')), (Decimal('46.8131958'), Decimal('-2.1334756'))];46.792243;-2.063216;[(Decimal('46.8933104'), Decimal('-2.1388100')), (Decimal('46.8932607'), Decimal('-2.1387451'))];;;;
Kerbors;48.8280385;-3.1842927;[];48.841153;-3.179184;[(None, None)];48.830464;-3.183505;48.827086;-3.191987
Langoat;48.7484;-3.282065;[];;;[(None, None)];;;48.747599;-3.318555
Lannion;48.7944277;-3.4127161;[(Decimal('48.8468923'), Decimal('-3.2068652'))];48.739123;-3.470798;[(Decimal('48.7274303'), Decimal('-3.4602605')), (Decimal('48.8076312'), Decimal('-3.4416085')), (Decimal('48.7318708'), Decimal('-3.4652408')), (Decimal('48.5816732'), Decimal('-3.5680551')), (Decimal('48.6062088'), Decimal('-3.4667489'))];48.725251;-3.461599;48.735744;-3.455062
Louannec;48.7944277;-3.4127161;[];48.777581;-3.414178;[(None, None)];48.791697;-3.414856;48.796026;-3.4273
Minihy-Tréguier;48.778143;-3.230365;[];48.769334;-3.258863;[(None, None)];;;;
Penvénan;48.812261;-3.297915;[];48.817627;-3.303195;[(None, None)];48.804496;-3.295278;;
Perros-Guirec;48.7944277;-3.4127161;[];48.812705;-3.45979;[(Decimal('48.8076312'), Decimal('-3.4416085'))];;;48.829289;-3.485413
Plestin-les-Grèves;48.6498480;-3.5640142;[];48.649747;-3.634837;[(Decimal('48.5816732'), Decimal('-3.5680551')), (Decimal('48.6062088'), Decimal('-3.4667489'))];48.674427;-3.619636;48.682276;-3.623733
Pleumeur-Bodou;48.779687;-3.526614;[];48.814839;-3.537445;[(None, None)];;;48.799625;-3.579383
Ploubezre;48.7039913;-3.4479765;[];48.694765;-3.457422;[(None, None)];48.659104;-3.444891;48.710049;-3.4547
Plougrescant;48.842419;-3.22849;[(Decimal('48.8468923'), Decimal('-3.2068652'))];48.839082;-3.234967;[(None, None)];48.849775;-3.234946;48.856365;-3.222772
Plouguiel;48.828326;-3.206804;[];48.821735;-3.205863;[(None, None)];48.795223;-3.256952;48.824164;-3.20601
Ploulec'h;48.7184093;-3.5041212;[];48.720708;-3.500284;[(None, None)];48.720708;-3.500284;48.728982;-3.534492
Ploumilliau;;;[];48.718343;-3.524712;[(None, None)];48.682012;-3.525104;48.655303;-3.485123
Roche-Derrien;;;[];;;[(None, None)];;;;
Saint-Michel-en-Grève;48.6847011;-3.5650768;[];48.678354;-3.556139;[(None, None)];;;48.672538;-3.553225
Trébeurden;48.7690891;-3.5660497;[];48.770014;-3.571181;[(None, None)];;;48.771504;-3.581274
Trédarzec;48.787295;-3.202256;[];48.789323;-3.19943;[(None, None)];48.786435;-3.197025;48.790115;-3.221387
Trédrez-Locquémeau;48.6985032;-3.5666645;[];48.706721;-3.564773;[(None, None)];48.706721;-3.564773;;
Trégastel;48.8171194;-3.5138031;[];;;[(None, None)];;;48.82693;-3.492768
Tréguier;48.7428193;-3.1977131;[(Decimal('48.8468923'), Decimal('-3.2068652'))];;;[(None, None)];48.781188;-3.238112;48.789945;-3.22742
Trélévern;48.80882;-3.372576;[];48.808754;-3.371838;[(None, None)];48.813324;-3.38554;48.814213;-3.381024
Trévou-Tréguignec;48.818817;-3.346267;[];48.815148;-3.358203;[(None, None)];48.821545;-3.349573;48.819785;-3.361337
Crasville;49.5524112;-1.3383484;[];;;[(None, None)];;;;
Guimaëc;48.693098;-3.708278;[];48.688635;-3.712311;[(None, None)];48.688635;-3.712311;48.667449;-3.682067
Locquirec;48.6909586;-3.6483119;[];48.682578;-3.671385;[(None, None)];;;48.691299;-3.646504
Morlaix;48.4392167;-3.8914947;[(Decimal('48.7246162'), Decimal('-3.9728197')), (Decimal('48.6412352'), Decimal('-4.2919385')), (Decimal('48.6500285'), Decimal('-4.2418695')), (Decimal('48.6899279'), Decimal('-4.0780704'))];48.595775;-3.809272;[(Decimal('48.6768486'), Decimal('-3.9872929')), (Decimal('48.5797411'), Decimal('-3.8298440')), (Decimal('48.6752530'), Decimal('-3.8841720')), (Decimal('48.6706757'), Decimal('-3.9108013')), (Decimal('48.7129698'), Decimal('-3.8250347')), (Decimal('48.5780713'), Decimal('-3.8328533')), (Decimal('48.4944920'), Decimal('-3.9478523')), (Decimal('48.4852532'), Decimal('-3.9995974')), (Decimal('48.4958044'), Decimal('-4.0822030')), (Decimal('48.5078137'), Decimal('-3.8825457')), (Decimal('48.5647139'), Decimal('-3.7102279'))];;;48.611462;-3.841271
Plouezoc'h;48.670785;-3.859477;[];48.643012;-3.820511;[(None, None)];;;48.629698;-3.845435
Plougasnou;48.6953760;-3.7901655;[];48.699655;-3.788723;[(Decimal('48.7129698'), Decimal('-3.8250347'))];48.693764;-3.79319;48.707977;-3.831256
Saint-Jean-du-Doigt;48.687363;-3.745554;[];48.696087;-3.773855;[(None, None)];48.686449;-3.775681;48.629504;-3.765833
Belz;47.6415920;-3.1565152;[(Decimal('47.6175568'), Decimal('-3.1848329')), (Decimal('47.6288584'), Decimal('-3.1982318')), (Decimal('47.6110780'), Decimal('-3.1692650'))];;;[(Decimal('47.6524660'), Decimal('-3.0721919'))];;;47.674565;-3.197686
Brech;47.720124;-2.996585;[];;;[(None, None)];47.690656;-3.003029;;
Kervignac;47.764286;-3.240714;[];47.764281;-3.290875;[(None, None)];;;47.764166;-3.256169
Landaul;47.7485591;-3.0760770;[];47.733993;-3.086092;[(Decimal('47.7357333'), Decimal('-3.0857436'))];47.733993;-3.086092;47.750989;-3.073927
Landévant;47.765066;-3.121676;[];47.76743;-3.126474;[(Decimal('47.7595780'), Decimal('-3.1251313'))];47.76004;-3.126286;47.780457;-3.116001
Locoal-Mendon;47.712781;-3.110792;[];47.716995;-3.158156;[(None, None)];;;47.703647;-3.066381
Merlevenez;47.7364319;-3.2343141;[];47.724905;-3.24687;[(None, None)];47.734575;-3.237387;47.735364;-3.237431
Nostang;47.749129;-3.178265;[];47.756119;-3.178384;[(None, None)];;;;
Plouhinec;47.6974894;-3.2520118;[];47.693989;-3.24097;[(None, None)];47.70035;-3.252189;47.672142;-3.211482
Sainte-Hélène;44.5192412;3.6032955;[];;;[(None, None)];;;;
Amfreville-la-Mi-Voie;49.4065260;1.1221807;[];49.405816;1.132614;[(None, None)];49.4161;1.119355;49.405816;1.132614
Grand-Couronne;49.3585640;0.9432717;[];49.349594;1.001793;[(None, None)];49.354292;1.010315;;
Hautot-sur-Seine;;;[];49.364138;0.975076;[(None, None)];;;;
Oissel;49.338661;1.090088;[];49.340621;1.098398;[(None, None)];49.342026;1.101597;;
Petit-Couronne;;;[];;;[(None, None)];49.383032;1.023462;;
Saint-Étienne-du-Rouvray;49.392441;1.066238;[];49.369858;1.118987;[(Decimal('49.3771726'), Decimal('1.1095372'))];49.39004;1.105067;49.38518;1.087631
Saint-Martin-de-Boscherville;49.448031;0.964616;[];49.442486;0.959619;[(None, None)];49.442486;0.959619;49.442486;0.959619
Sotteville-lès-Rouen;49.410663;1.083617;[];49.421649;1.109421;[(None, None)];49.412794;1.099961;49.411681;1.093507
Val-de-la-Haye;;;[];;;[(None, None)];;;;
Authieux-sur-le-Port-Saint-Ouen;49.337968;1.133609;[];49.340744;1.130816;[(None, None)];49.340744;1.130816;49.350851;1.128407
Belbeuf;49.386161;1.144571;[];49.389771;1.145982;[(None, None)];;;;
Bonsecours;49.4222945;1.1265620;[];49.42405;1.124212;[(None, None)];;;;
Canteleu;49.3585640;0.9432717;[];49.432852;1.028056;[(Decimal('49.4221919'), Decimal('1.0196308'))];;;;
Gouy;49.3544647;1.1477716;[];;;[(None, None)];;;;
Rouen;49.4445870;1.0784253;[];49.438732;1.093889;[(Decimal('49.3771726'), Decimal('1.1095372')), (Decimal('49.4291572'), Decimal('0.8038517')), (Decimal('49.4221070'), Decimal('1.0227475')), (Decimal('49.4575208'), Decimal('0.8196150')), (Decimal('49.4565445'), Decimal('0.8155870')), (Decimal('49.4807247'), Decimal('0.8754147')), (Decimal('49.4791810'), Decimal('0.8767075')), (Decimal('49.4221919'), Decimal('1.0196308')), (Decimal('49.4492443'), Decimal('1.0942235')), (Decimal('49.5990768'), Decimal('1.1062777')), (Decimal('49.5511165'), Decimal('1.0698113')), (Decimal('49.6367741'), Decimal('0.8498715')), (Decimal('49.4386825'), Decimal('1.0887555')), (Decimal('49.4291178'), Decimal('0.8010035')), (Decimal('49.5566781'), Decimal('1.2762275')), (Decimal('49.5229124'), Decimal('1.2475191')), (Decimal('49.3026780'), Decimal('1.0101801')), (Decimal('49.5640283'), Decimal('0.9505129')), (Decimal('49.3245722'), Decimal('1.0984776')), (Decimal('49.5492665'), Decimal('0.9537533')), (Decimal('49.4799360'), Decimal('1.0507607')), (Decimal('49.5133277'), Decimal('1.0396001')), (Decimal('49.6218901'), Decimal('0.7507239')), (Decimal('49.4287365'), Decimal('0.8010442')), (Decimal('49.4285945'), Decimal('0.8039566')), (Decimal('49.6169657'), Decimal('0.7692322')), (Decimal('49.4313868'), Decimal('1.1049462')), (Decimal('49.4885333'), Decimal('0.7756653')), (Decimal('49.4853103'), Decimal('0.7731719')), (Decimal('49.4469208'), Decimal('1.1055124'))];;;;
Tourville-la-Rivière;49.3283012;1.1054108;[];49.328712;1.093722;[(Decimal('49.3245722'), Decimal('1.0984776'))];49.328712;1.093722;49.332993;1.095265
Jullouville;48.7708893;-1.5671932;[];48.76125;-1.57009;[(None, None)];48.77395;-1.567171;;
Carolles;48.750113;-1.557524;[];48.755332;-1.565554;[(None, None)];;;;
Champeaux;48.7389565;-1.5268231;[];;;[(None, None)];;;;
Donville-les-Bains;48.8471046;-1.5803394;[];48.848396;-1.584858;[(None, None)];48.844612;-1.58358;48.846106;-1.574043
Fleury;48.8477706;-1.2754988;[(Decimal('43.1971360'), Decimal('3.2148250')), (Decimal('43.1914356'), Decimal('3.2078971'))];;;[(None, None)];;;;
Geffosses;49.130633;-1.560638;[];49.116343;-1.535724;[(None, None)];;;;
Genêts;;;[];;;[(None, None)];;;;
Gouville sur Mer;;;[];49.097643;-1.601428;[(None, None)];49.092521;-1.594082;;
Heugueville-sur-Sienne;49.031783;-1.51353;[];49.031783;-1.51353;[(None, None)];49.031783;-1.51353;49.031783;-1.51353
Saint-Jean-le-Thomas;;;[];48.724724;-1.524239;[(None, None)];;;;
Saint-Martin-des-Champs;48.8814582;1.7194218;[];;;[(None, None)];;;;
Saint-Pair-sur-Mer;48.814135;-1.568038;[];48.815287;-1.571588;[(None, None)];48.813302;-1.566595;;
Vains;48.6818703;-1.4126699;[];;;[(None, None)];48.676902;-1.422707;48.672579;-1.455077
Val-Saint-Père;;;[];;;[(None, None)];48.641692;-1.35359;;
Agon-Coutainville;49.0924576;-1.5392406;[];49.052741;-1.578401;[(None, None)];49.044274;-1.580856;49.039089;-1.564631
Blainville-sur-Mer;49.069327;-1.552379;[];49.069347;-1.570875;[(None, None)];49.071522;-1.585413;49.069347;-1.570875
Bréhal;48.9129536;-1.5215511;[(Decimal('48.8753080'), Decimal('-1.5743986'))];48.898498;-1.513845;[(Decimal('48.8298633'), Decimal('-1.4073765'))];48.897079;-1.512039;48.896916;-1.567485
Bréville-sur-Mer;48.8640319;-1.5560473;[(Decimal('48.8753080'), Decimal('-1.5743986'))];48.86731;-1.562905;[(None, None)];48.867655;-1.555377;;
Bricqueville-sur-Mer;48.9129536;-1.5215511;[];48.911087;-1.513342;[(None, None)];48.91581;-1.51807;48.91581;-1.51807
Dragey-Ronthon;48.71185;-1.494272;[];48.709503;-1.513845;[(None, None)];48.708107;-1.47858;48.711413;-1.495443
Granville;42.0669588;-72.8806100;[];;;[(Decimal('-33.8359746'), Decimal('151.0170660')), (Decimal('-33.8330942'), Decimal('151.0124059'))];48.841454;-1.585724;48.835799;-1.605418
Hauteville-sur-Mer;48.975945;-1.53869;[];48.970757;-1.545948;[(None, None)];48.979077;-1.559481;48.973577;-1.556391
Lingreville;48.944636;-1.556391;[];48.944995;-1.541015;[(None, None)];48.945048;-1.529299;48.945048;-1.529299
Marcey-les-Grèves;48.6974240;-1.3905478;[];48.683507;-1.385137;[(None, None)];48.696507;-1.385563;48.696507;-1.385563
Montmartin-sur-Mer;48.9943474;-1.4684522;[];48.990574;-1.532808;[(None, None)];48.988932;-1.534752;48.988932;-1.534752
Orval sur Sienne;49.005323;-1.498848;[];49.021204;-1.454348;[(None, None)];49.021069;-1.463974;49.005303;-1.4768
Regnéville-sur-Mer;49.024518;-1.521886;[];49.021036;-1.537648;[(None, None)];49.005233;-1.549675;49.009593;-1.555132
Tourville-sur-Sienne;49.0456171;-1.5452670;[];49.041562;-1.549036;[(None, None)];49.041562;-1.549036;49.041775;-1.556743
Dunkerque;51.0276640;2.3438776;[];51.048457;2.383567;[(Decimal('50.7250661'), Decimal('2.5423180')), (Decimal('51.0304157'), Decimal('2.3685474')), (Decimal('50.6968385'), Decimal('2.8290540')), (Decimal('50.8319071'), Decimal('2.2094965')), (Decimal('51.0205479'), Decimal('2.1921465')), (Decimal('50.7127915'), Decimal('2.7867302')), (Decimal('50.7875984'), Decimal('2.4601935')), (Decimal('50.8315156'), Decimal('2.4084679')), (Decimal('50.8897660'), Decimal('2.4123212')), (Decimal('51.0175188'), Decimal('2.3751331')), (Decimal('50.9787459'), Decimal('2.1233976')), (Decimal('51.0201742'), Decimal('2.1897608')), (Decimal('51.0387072'), Decimal('2.3760955')), (Decimal('50.6813149'), Decimal('2.5107521')), (Decimal('51.0023618'), Decimal('2.3120588')), (Decimal('50.7320336'), Decimal('2.3713651')), (Decimal('50.7306754'), Decimal('2.4091533')), (Decimal('50.7134992'), Decimal('2.6310647')), (Decimal('50.9689717'), Decimal('2.4256447')), (Decimal('50.9524005'), Decimal('2.1943640')), (Decimal('50.7289713'), Decimal('2.7348941')), (Decimal('50.6524494'), Decimal('2.4730423'))];51.030743;2.369893;51.039745;2.37641
Grande-Synthe;51.0210488;2.2497180;[];51.014223;2.289975;[(Decimal('51.0205479'), Decimal('2.1921465')), (Decimal('50.9787459'), Decimal('2.1233976')), (Decimal('51.0201742'), Decimal('2.1897608')), (Decimal('51.0023618'), Decimal('2.3120588')), (Decimal('50.9524005'), Decimal('2.1943640'))];51.006732;2.308411;51.007203;2.310814
Grand-Fort-Philippe;50.997753;2.109307;[];50.997484;2.106017;[(None, None)];50.997484;2.106017;50.997506;2.109887
Gravelines;;;[];50.991058;2.132934;[(Decimal('51.0205479'), Decimal('2.1921465')), (Decimal('50.9787459'), Decimal('2.1233976')), (Decimal('51.0201742'), Decimal('2.1897608'))];50.980049;2.123503;50.988376;2.122592
Loon-Plage;50.98766;2.217651;[];50.989805;2.2362;[(Decimal('51.0205479'), Decimal('2.1921465')), (Decimal('51.0201742'), Decimal('2.1897608'))];50.993876;2.229136;50.995945;2.214112
Oye-Plage;50.977722;2.042143;[];50.982483;2.036977;[(Decimal('50.9975297'), Decimal('2.0561908'))];50.974963;2.045783;50.977262;2.045328
Arromanches-les-Bains;49.3388850;-0.6224512;[];49.336422;-0.622423;[(None, None)];49.33768;-0.623426;49.335734;-0.627639
Asnelles;49.3385951;-0.5858856;[];49.341482;-0.579703;[(None, None)];;;;
Colleville-sur-Mer;;;[];49.347916;-0.849775;[(None, None)];49.347916;-0.849775;;
Commes;;;[];49.335014;-0.739082;[(None, None)];;;49.32952;-0.757755
Courseulles-sur-Mer;49.3385951;-0.5858856;[];49.332412;-0.445941;[(None, None)];;;;
Cricqueville-en-Bessin;49.3776642;-0.9987976;[];49.377317;-0.994364;[(None, None)];49.376721;-1.0011;49.376721;-1.0011
Englesqueville-la-Percée;49.3763632;-0.9508660;[];49.376776;-0.951138;[(None, None)];49.376776;-0.951138;49.376776;-0.951138
Géfosse-Fontenay;49.366473;-1.093;[];49.366473;-1.093;[(None, None)];49.368561;-1.092013;49.368561;-1.092013
Grandcamp-Maisy;49.380508;-1.056213;[];49.374461;-1.037543;[(None, None)];;;49.383722;-1.044109
Graye-sur-Mer;49.336398;-0.490233;[];;;[(None, None)];;;;
Isigny-sur-Mer;49.2070767;-1.0203258;[];49.312504;-1.100652;[(None, None)];49.319241;-1.098447;49.314383;-1.099987
Longues-sur-Mer;49.3368;-0.696962;[];;;[(None, None)];;;49.336513;-0.709445
Manvieux;49.337353;-0.656491;[];49.337353;-0.656491;[(None, None)];;;49.337353;-0.656491
Meuvaines;;;[];49.326216;-0.570009;[(None, None)];;;;
Osmanville;49.327956;-1.081273;[];49.339525;-1.099363;[(None, None)];49.323292;-1.078381;49.331059;-1.082248
Port-en-Bessin-Huppain;49.3414024;-0.7722186;[];49.349146;-0.757009;[(None, None)];49.348741;-0.758775;49.343641;-0.762775
Saint-Côme-de-Fresné;49.3330924;-0.6057651;[];49.335262;-0.606135;[(None, None)];49.331446;-0.603301;49.331446;-0.603301
Aure sur Mer;49.3303397;-0.8157952;[];49.34873;-0.817056;[(None, None)];49.346615;-0.800085;49.34777;-0.802161
Saint-Laurent-sur-Mer;;;[];;;[(None, None)];49.361897;-0.87666;49.358774;-0.877391
Saint-Marcouf;49.2531358;-0.9952043;[];;;[(None, None)];;;;
Saint-Pierre-du-Mont;43.8820960;-0.5198813;[];;;[(None, None)];;;;
Tracy-sur-Mer;49.332095;-0.646032;[];49.332095;-0.646032;[(None, None)];49.332095;-0.646032;49.33651;-0.642233
Ver-sur-Mer;;;[];49.344629;-0.512696;[(None, None)];49.344681;-0.519029;;
Vierville-sur-Mer;49.374186;-0.904358;[];49.377664;-0.904048;[(None, None)];49.371706;-0.899307;49.371706;-0.899307
Saint-Hippolyte;47.3439081;6.9942263;[];;;[(None, None)];47.320783;6.815278;47.322956;6.814426
Carentan les Marais;49.3030796;-1.2458723;[];49.291588;-1.256098;[(None, None)];49.335042;-1.187662;49.334776;-1.191497
Fours;46.8698347;3.6455036;[];;;[(Decimal('46.8578816'), Decimal('3.6452029'))];46.824364;3.722202;;
Formigny La Bataille;49.3329614;-0.8998408;[];49.336895;-0.920872;[(None, None)];49.336895;-0.920872;49.336895;-0.920872
Baubigny;46.970207;4.682555;[];;;[(None, None)];;;;
Messanges;47.1626476;4.8729736;[];;;[(None, None)];;;;
Saint-Martin-des-Champs;48.8814582;1.7194218;[];;;[(None, None)];;;;
Saint-Gilles;43.8258684;4.2605811;[];;;[(Decimal('43.7324117'), Decimal('4.3434045')), (Decimal('43.7885662'), Decimal('4.3032442'))];;;;
Chapelle-Launay;47.338534;-1.980409;[];;;[(None, None)];47.389245;-1.966589;;
Donges;47.3188197;-2.0746185;[];47.360085;-2.111259;[(Decimal('47.3150702'), Decimal('-2.0736623'))];47.317265;-2.074239;;
Baule-Escoublac;47.288754;-2.363461;[];47.279221;-2.414927;[(None, None)];47.278376;-2.419406;47.288754;-2.363461
Saint-Joachim;47.0541541;-70.8435820;[];47.339696;-2.208111;[(None, None)];47.406907;-2.200046;47.361656;-2.312788
Trignac;47.3178312;-2.1876577;[];;;[(None, None)];47.313392;-2.18386;47.323262;-2.225781
Férel;47.4824315;-2.3428114;[];47.488083;-2.33407;[(None, None)];;;47.511863;-2.307489
Marzan;47.540701;-2.326428;[];47.517973;-2.354835;[(None, None)];47.53761;-2.324039;;
Nivillac;47.517321;-2.222116;[];47.54339;-2.292027;[(None, None)];47.546604;-2.291355;47.569857;-2.275771
Péaule;;;[];47.562728;-2.289957;[(None, None)];;;;
Roche-Bernard;;;[];;;[(None, None)];;;47.518314;-2.306949
Saint-Gervais;46.7150305;-70.8861999;[];;;[(None, None)];;;;
Champagné-les-Marais;46.3807976;-1.1235240;[];46.375454;-1.133152;[(None, None)];46.384898;-1.131446;46.354385;-1.162092
Grues;46.3974697;-1.3042147;[];;;[(None, None)];;;;
Sainte-Radégonde-des-Noyers;46.3772962;-1.0592320;[];46.377937;-1.066851;[(None, None)];;;46.324447;-1.086404
Triaize;46.3935756;-1.2014354;[];46.368548;-1.22679;[(None, None)];46.395289;-1.193587;46.36101;-1.219154
Saint-Florent;46.3116763;-0.4654490;[];;;[(Decimal('42.6791809'), Decimal('9.3004042'))];;;;
Saint-Martin-des-Champs;48.8814582;1.7194218;[];;;[(None, None)];;;;
Saint-Père;47.4592317;3.7650871;[];;;[(None, None)];;;;
Saint-Hippolyte;47.3439081;6.9942263;[];;;[(None, None)];;;;
Montagne;44.9302697;-0.1291616;[];;;[(Decimal('45.4953736'), Decimal('-73.5798383')), (Decimal('45.4897865'), Decimal('-73.5863426'))];;;;
Saint-Léonard;49.7391988;0.3580122;[];;;[(Decimal('46.2515098'), Decimal('7.4195382')), (Decimal('45.5997788'), Decimal('-73.6162114'))];48.216724;6.940736;;
Brélès;48.4777626;-4.7134564;[(Decimal('48.4768099'), Decimal('-4.7123573'))];;;[(None, None)];;;;
Brest;48.5251231;-4.5984021;[(Decimal('48.4164655'), Decimal('-4.4903613')), (Decimal('48.4768099'), Decimal('-4.7123573')), (Decimal('48.6667687'), Decimal('-4.3062579')), (Decimal('48.3460547'), Decimal('-4.3309283')), (Decimal('48.6739421'), Decimal('-4.3549406')), (Decimal('48.5606746'), Decimal('-4.7031038')), (Decimal('48.5704071'), Decimal('-4.7015905')), (Decimal('48.3910965'), Decimal('-4.4087200'))];48.394436;-4.528042;[(Decimal('53.4605814'), Decimal('9.3825440')), (Decimal('48.4006459'), Decimal('-4.9593847')), (Decimal('48.3876941'), Decimal('-4.4800927')), (Decimal('48.4974519'), Decimal('-4.4302167')), (Decimal('48.4740841'), Decimal('-4.2050919')), (Decimal('48.4263770'), Decimal('-4.3072630')), (Decimal('48.4096149'), Decimal('-4.3881718')), (Decimal('48.3926243'), Decimal('-4.2855203')), (Decimal('48.4286710'), Decimal('-4.6086992')), (Decimal('48.4538255'), Decimal('-4.2564781')), (Decimal('48.5731723'), Decimal('-4.3201365')), (Decimal('48.4287101'), Decimal('-4.6077221'))];;;;
Camaret-sur-Mer;48.275951;-4.580251;[];48.271557;-4.58517;[(Decimal('48.2756872'), Decimal('-4.5912311'))];48.274372;-4.594347;48.272101;-4.613443
Conquet;48.364248;-4.769097;[];;;[(None, None)];;;48.356441;-4.764299
Crozon;48.1256231;-4.2220311;[(Decimal('48.2090393'), Decimal('-4.5522639'))];48.24031;-4.433216;[(Decimal('48.2756872'), Decimal('-4.5912311')), (Decimal('48.1250855'), Decimal('-4.2201221')), (Decimal('48.2017255'), Decimal('-4.0942853'))];48.247705;-4.49204;48.239977;-4.4858
Guipavas;48.43927;-4.398;[(Decimal('48.3910965'), Decimal('-4.4087200'))];48.428236;-4.403555;[(Decimal('48.4096149'), Decimal('-4.3881718'))];48.397447;-4.43387;48.428219;-4.403254
Île-Molène;48.3974328;-4.9568816;[];48.395755;-4.956107;[(Decimal('48.4006459'), Decimal('-4.9593847'))];;;48.396261;-4.955322
Lampaul-Plouarzel;48.448285;-4.763028;[];48.463866;-4.761515;[(None, None)];48.446365;-4.756393;48.465918;-4.757724
Lanildut;48.476618;-4.732467;[];48.474161;-4.745714;[(None, None)];48.476618;-4.732467;48.474618;-4.75995
Lanvéoc;48.286236;-4.462099;[];48.275619;-4.452772;[(None, None)];48.289109;-4.457446;48.278368;-4.495322
Locmaria-Plouzané;48.3747908;-4.6437615;[];48.371834;-4.651104;[(None, None)];;;;
Plouarzel;48.426146;-4.776796;[];48.407912;-4.777515;[(None, None)];48.443694;-4.669663;48.440042;-4.77393
Plougastel-Daoulas;48.373705;-4.369559;[];48.365532;-4.394053;[(None, None)];48.378927;-4.369302;48.327472;-4.390468
Plougonvelin;48.343108;-4.715803;[];48.353677;-4.732475;[(None, None)];;;;
Ploumoguer;48.404141;-4.726147;[];48.394943;-4.710581;[(None, None)];48.416047;-4.731968;;
Plouzané;48.379356;-4.600227;[];48.371873;-4.590113;[(None, None)];48.343667;-4.609728;48.366714;-4.58331
Roscanvel;48.3150612;-4.5469651;[];;;[(None, None)];;;48.314283;-4.546809
Trébabu;48.372645;-4.734287;[];48.369741;-4.734279;[(None, None)];48.369741;-4.734279;;
Favières;48.4638889;5.9573207;[];;;[(Decimal('50.2171629'), Decimal('1.6592668'))];48.463628;5.950319;;
Beauvoir;48.5965183;-1.5041645;[];;;[(None, None)];;;;
Champeaux;48.7389565;-1.5268231;[];;;[(None, None)];;;48.60812;2.811453
Rivière;;;[];;;[(None, None)];;;;
Antibes;43.5716096;7.1088098;[];43.553796;7.134512;[(Decimal('43.5710151'), Decimal('7.1114061')), (Decimal('43.6108843'), Decimal('7.1262561')), (Decimal('43.5857692'), Decimal('7.1192691'))];43.563464;7.131092;;
Cagnes-sur-Mer;43.6668401;7.1454940;[(Decimal('43.6510615'), Decimal('7.1533523')), (Decimal('43.6518628'), Decimal('7.1545025')), (Decimal('43.6514879'), Decimal('7.1539477')), (Decimal('43.6563897'), Decimal('7.1737914'))];43.656504;7.164054;[(Decimal('43.6605589'), Decimal('7.1671312')), (Decimal('43.6577275'), Decimal('7.1484270'))];43.658291;7.147483;43.65707;7.171431
Cannes;43.5491403;6.9815001;[(Decimal('43.5357063'), Decimal('7.0365724'))];43.550035;6.995074;[(Decimal('43.5581039'), Decimal('6.9721190')), (Decimal('43.5510948'), Decimal('7.0120284')), (Decimal('43.5468699'), Decimal('7.0141680')), (Decimal('43.5486667'), Decimal('6.9865537')), (Decimal('43.5510653'), Decimal('6.9819677')), (Decimal('43.5541560'), Decimal('7.0199539'))];;;43.5487;7.011633
Mandelieu-la-Napoule;43.5240603;6.9410949;[(Decimal('43.5029510'), Decimal('6.9545446'))];43.522677;6.941767;[(Decimal('43.5241835'), Decimal('6.9414938')), (Decimal('43.5134914'), Decimal('6.9368260')), (Decimal('43.5328968'), Decimal('6.9457741')), (Decimal('43.5331630'), Decimal('6.9462390'))];43.544471;6.933663;43.52627;6.943896
Saint-Jean-Cap-Ferrat;43.688188;7.333971;[(Decimal('43.6871280'), Decimal('7.3226097'))];43.688188;7.333971;[(None, None)];43.688188;7.333971;43.688408;7.334701
Théoule-sur-Mer;43.506418;6.94;[(Decimal('43.5029510'), Decimal('6.9545446'))];43.501587;6.938129;[(Decimal('43.5134914'), Decimal('6.9368260'))];;;43.50873;6.93907
Vallauris;43.5687119;7.0724954;[];43.577984;7.050429;[(Decimal('43.5664051'), Decimal('7.0736701'))];;;;
Villeneuve-Loubet;43.639175;7.106505;[(Decimal('43.6794713'), Decimal('7.0820383'))];43.632953;7.137415;[(Decimal('43.6292436'), Decimal('7.1340564'))];43.639175;7.106505;;
Fréjus;43.5224419;6.8728422;[];43.391313;6.728691;[(Decimal('43.4319194'), Decimal('6.7329012'))];;;43.390743;6.729817
Roquebrune-sur-Argens;43.3420145;6.6945635;[];43.426919;6.661756;[(None, None)];43.45803;6.638581;43.426919;6.661756
Saint-Raphaël;46.7943212;-70.7557845;[(Decimal('43.4106566'), Decimal('6.7922617')), (Decimal('43.4795321'), Decimal('6.9311887'))];43.421547;6.767876;[(Decimal('43.4227841'), Decimal('6.7702261')), (Decimal('43.4313633'), Decimal('6.8565322')), (Decimal('43.4163393'), Decimal('6.8082767')), (Decimal('43.4746600'), Decimal('6.9243397')), (Decimal('43.4178109'), Decimal('6.8442115')), (Decimal('43.4350044'), Decimal('6.8921035')), (Decimal('43.4240090'), Decimal('6.7695665'))];43.418071;6.807388;;
Saint-Hippolyte;47.3439081;6.9942263;[];;;[(None, None)];;;;
Saint-Léonard;49.7391988;0.3580122;[];;;[(Decimal('46.2515098'), Decimal('7.4195382')), (Decimal('45.5997788'), Decimal('-73.6162114'))];;;;
Camoël;47.48108;-2.397205;[];47.478788;-2.399904;[(None, None)];;;47.496169;-2.384778
Assérac;47.4273861;-2.3923729;[];47.446028;-2.450873;[(None, None)];47.428713;-2.387335;;
Batz-sur-Mer;47.2775012;-2.4779427;[];47.275744;-2.48099;[(None, None)];47.279747;-2.479554;;
Croisic;47.288674;-2.527517;[];47.299898;-2.528251;[(None, None)];;;47.298837;-2.541067
Guérande;47.3996542;-2.4610705;[];;;[(None, None)];;;;
Mesquer;47.3996542;-2.4610705;[];47.406894;-2.483862;[(None, None)];47.410786;-2.437915;47.409257;-2.464053
Piriac-sur-Mer;47.3793103;-2.5457476;[];47.38;-2.547654;[(None, None)];47.382617;-2.525485;47.379987;-2.545618
Pouliguen;;;[];47.274438;-2.425371;[(None, None)];47.280192;-2.430936;47.274644;-2.425311
Saint-Molf;47.388272;-2.425706;[];47.403055;-2.413033;[(None, None)];;;;
Turballe;47.345739;-2.507567;[];47.342386;-2.503923;[(None, None)];47.348239;-2.512173;47.347562;-2.510867
Ambon;47.535085;-2.544162;[(Decimal('-3.7779885'), Decimal('128.1252408'))];47.537661;-2.513028;[(Decimal('-3.6891118'), Decimal('128.1827195')), (Decimal('-3.6933722'), Decimal('128.1766127')), (Decimal('-3.6885513'), Decimal('128.1831309'))];47.553276;-2.558801;;
Arzal;47.533779;-2.400311;[];47.527651;-2.401424;[(None, None)];;;47.502714;-2.380399
Auray;47.5699253;-2.9453491;[];47.674268;-2.999262;[(Decimal('47.5679932'), Decimal('-2.9366408')), (Decimal('47.6642689'), Decimal('-2.9780792'))];;;47.665045;-2.978151
Billiers;;;[];47.521983;-2.491918;[(None, None)];;;47.517856;-2.498686
Carnac;;;[(Decimal('47.5647172'), Decimal('-3.0975466'))];47.572645;-3.067787;[(None, None)];;;;
Crach;47.613915;-2.995552;[];;;[(None, None)];;;47.619248;-2.989642
Damgan;47.520111;-2.578515;[];47.518663;-2.579895;[(None, None)];47.521477;-2.581657;47.511312;-2.620725
Erdeven;47.6415920;-3.1565152;[(Decimal('47.6175568'), Decimal('-3.1848329')), (Decimal('47.6288584'), Decimal('-3.1982318')), (Decimal('47.6110780'), Decimal('-3.1692650'))];47.637493;-3.15609;[(None, None)];47.622401;-3.16399;;
Étel;47.657476;-3.201613;[];47.659788;-3.196898;[(None, None)];;;47.657558;-3.206447
Hœdic;47.3397751;-2.8779520;[];;;[(None, None)];47.343115;-2.864394;47.342765;-2.877676
Île-d'Houat;47.3904544;-2.9556702;[];47.38928;-2.956449;[(None, None)];;;47.390954;-2.959622
Locmariaquer;47.5699253;-2.9453491;[];47.567449;-2.946458;[(Decimal('47.5679932'), Decimal('-2.9366408'))];;;47.570691;-2.945105
Muzillac;47.5538336;-2.4824129;[(Decimal('47.4958342'), Decimal('-2.4843909'))];47.550098;-2.469881;[(None, None)];47.567025;-2.509491;;
Pénestin;47.492507;-2.497001;[(Decimal('47.4958342'), Decimal('-2.4843909'))];47.475268;-2.483349;[(None, None)];;;47.492554;-2.440053
Plouharnel;47.603815;-3.117132;[(Decimal('47.5959035'), Decimal('-3.1506295')), (Decimal('47.5926912'), Decimal('-3.1486121')), (Decimal('47.5816670'), Decimal('-3.1418686')), (Decimal('47.5765510'), Decimal('-3.1400660'))];47.608453;-3.136003;[(Decimal('47.5755984'), Decimal('-3.1324467')), (Decimal('47.6045616'), Decimal('-3.1180189'))];47.60204;-3.117305;47.588848;-3.113332
Quiberon;47.3472137;-3.1570277;[(Decimal('47.6175568'), Decimal('-3.1848329')), (Decimal('47.3428410'), Decimal('-3.1472483')), (Decimal('47.2994049'), Decimal('-3.1822098')), (Decimal('47.5647172'), Decimal('-3.0975466')), (Decimal('47.6288584'), Decimal('-3.1982318')), (Decimal('47.6110780'), Decimal('-3.1692650')), (Decimal('47.5959035'), Decimal('-3.1506295')), (Decimal('47.5926912'), Decimal('-3.1486121')), (Decimal('47.5816670'), Decimal('-3.1418686')), (Decimal('47.5765510'), Decimal('-3.1400660'))];47.47945;-3.121671;[(Decimal('47.5755984'), Decimal('-3.1324467')), (Decimal('47.5208871'), Decimal('-3.1386904')), (Decimal('47.5580242'), Decimal('-3.1330890')), (Decimal('47.6524660'), Decimal('-3.0721919')), (Decimal('47.5862096'), Decimal('-3.0257021')), (Decimal('47.6045616'), Decimal('-3.1180189')), (Decimal('47.3470847'), Decimal('-3.1535660')), (Decimal('47.5369503'), Decimal('-3.1363774')), (Decimal('47.5465128'), Decimal('-3.1337184')), (Decimal('47.4854404'), Decimal('-3.1182611'))];47.485378;-3.119063;47.479078;-3.12363
Saint-Philibert;47.2058533;5.0116971;[];47.579228;-2.999458;[(Decimal('50.6521071'), Decimal('2.9742848'))];47.574852;-3.007715;47.580957;-3.01127
Saint-Pierre-Quiberon;47.5198963;-3.1311461;[];;;[(Decimal('47.5208871'), Decimal('-3.1386904')), (Decimal('47.5580242'), Decimal('-3.1330890')), (Decimal('47.5369503'), Decimal('-3.1363774')), (Decimal('47.5465128'), Decimal('-3.1337184'))];47.509594;-3.13125;47.529884;-3.145477
Trinité-sur-Mer;47.584758;-3.027923;[];;;[(None, None)];47.57257;-3.023695;47.580057;-3.025912
Bormes-les-Mimosas;43.202065;6.424999;[];43.113999;6.358044;[(Decimal('43.1206705'), Decimal('6.3633561'))];43.143745;6.339401;43.102383;6.348948
Cavalaire-sur-Mer;43.1734166;6.5315428;[];43.180534;6.537183;[(None, None)];43.172553;6.5303;43.171048;6.53425
Cogolin;43.2518310;6.5331156;[];43.262832;6.583474;[(None, None)];;;43.26725;6.57658
Croix-Valmer;43.208527;6.568348;[];43.199944;6.575645;[(None, None)];43.189587;6.604937;;
Gassin;43.228653;6.585542;[];43.255326;6.634082;[(None, None)];43.228748;6.584143;43.239417;6.566728
Grimaud;43.2745522;6.5225309;[];43.28148;6.584331;[(Decimal('43.2719796'), Decimal('6.5845769'))];;;43.269859;6.577578
Lavandou;43.139349;6.362871;[];43.151598;6.44603;[(None, None)];43.138871;6.369726;43.138349;6.371141
Londe-les-Maures;43.139041;6.23424;[];43.121168;6.244753;[(None, None)];43.135474;6.237826;43.122862;6.252036
Ramatuelle;43.2151169;6.6115119;[(Decimal('43.2352790'), Decimal('6.6630920')), (Decimal('43.1801724'), Decimal('6.6399266'))];43.24806;6.647044;[(None, None)];;;43.188217;6.647076
Sainte-Maxime;43.2151169;6.6115119;[(Decimal('43.2523380'), Decimal('6.6904120')), (Decimal('43.2352790'), Decimal('6.6630920')), (Decimal('43.1801724'), Decimal('6.6399266'))];43.30834;6.635219;[(Decimal('43.2704347'), Decimal('6.6328561')), (Decimal('43.2719796'), Decimal('6.5845769'))];;;;
Saint-Tropez;43.2151169;6.6115119;[(Decimal('43.2523380'), Decimal('6.6904120')), (Decimal('43.2352790'), Decimal('6.6630920')), (Decimal('43.1801724'), Decimal('6.6399266'))];43.273564;6.639682;[(Decimal('43.2704347'), Decimal('6.6328561'))];;;43.271592;6.636426
Rayol-Canadel-sur-Mer;43.1606332;6.4670890;[];43.156286;6.478008;[(None, None)];43.158829;6.470403;43.160086;6.469591
Boismont;50.1527458;1.6848007;[];49.404236;5.732468;[(None, None)];;;;
Saint-Gilles;43.8258684;4.2605811;[];48.154675;-1.829158;[(Decimal('43.7324117'), Decimal('4.3434045')), (Decimal('43.7885662'), Decimal('4.3032442'))];;;;
Garde;;;[];;;[(None, None)];;;;
Bellegarde;48.0350827;2.4894789;[];47.988622;2.446522;[(Decimal('46.1109056'), Decimal('5.8259584'))];;;;
Moulon;48.017225;2.590229;[];;;[(None, None)];;;;
Saint-Julien-de-Concelles;47.235427;-1.382104;[];47.235427;-1.382104;[(None, None)];47.250204;-1.382306;47.268583;-1.406337
Sainte-Luce-sur-Loire;47.25394;-1.469889;[(Decimal('47.2439678'), Decimal('-1.4745251'))];;;[(None, None)];47.250815;-1.470214;47.261863;-1.471932
Saint-Sébastien-sur-Loire;47.1982371;-1.4313453;[];47.207733;-1.50877;[(Decimal('47.1904456'), Decimal('-1.4956837')), (Decimal('47.2068980'), Decimal('-1.5109800'))];47.206176;-1.506025;;
Touquet-Paris-Plage;50.512202;1.603514;[];50.512202;1.603514;[(None, None)];50.512202;1.603514;50.512202;1.603514
Fleury;48.8477706;-1.2754988;[(Decimal('43.1971360'), Decimal('3.2148250')), (Decimal('43.1914356'), Decimal('3.2078971'))];;;[(None, None)];;;;
Basse-Goulaine;47.20635;-1.458517;[];47.192869;-1.466952;[(None, None)];47.210182;-1.468957;47.215293;-1.47785
Rezé;47.164094;-1.542102;[];;;[(Decimal('47.1932254'), Decimal('-1.5493838'))];47.194017;-1.549019;47.193309;-1.583987
Vertou;47.17701;-1.504563;[];47.153779;-1.467552;[(Decimal('47.1615433'), Decimal('-1.3922123'))];47.181141;-1.475403;47.180337;-1.510817
Barneville-Carteret;49.3722328;-1.7398441;[];49.371917;-1.775128;[(Decimal('49.3802086'), Decimal('-1.7636473')), (Decimal('49.3374458'), Decimal('-1.6924045')), (Decimal('49.3623334'), Decimal('-1.7328742')), (Decimal('49.3762649'), Decimal('-1.7568367')), (Decimal('49.3801073'), Decimal('-1.7842443'))];49.373442;-1.806451;49.373244;-1.790283
Beauvoir;48.5965183;-1.5041645;[];;;[(None, None)];;;;
Bretteville-sur-Ay;49.2604929;-1.6317147;[];49.237797;-1.650244;[(None, None)];;;;
Céaux;48.6315608;-1.3873185;[];;;[(None, None)];;;48.643198;-1.396079
Courtils;48.6270183;-1.4102827;[];48.629477;-1.428611;[(None, None)];;;;
Créances;49.2604929;-1.6317147;[];49.193708;-1.604539;[(None, None)];;;49.200866;-1.584252
Haye;49.295483;-1.554349;[];;;[(None, None)];49.295301;-1.550161;;
Huisnes-sur-Mer;48.6087680;-1.4520061;[];48.609326;-1.450325;[(None, None)];48.610223;-1.456777;48.609326;-1.450325
Lessay;49.2604929;-1.6317147;[];49.22443;-1.525736;[(None, None)];49.21776;-1.530821;;
Mont-Saint-Michel;46.7807775;-75.3354834;[];;;[(None, None)];;;;
Pirou;49.171128;-1.591729;[];49.166715;-1.592839;[(None, None)];;;49.180792;-1.575179
Poilley;48.6184543;-1.3101591;[];48.611648;-1.320136;[(None, None)];;;;
Pontorson;48.6315608;-1.3873185;[];;;[(None, None)];48.552847;-1.50494;48.549019;-1.516421
Portbail;49.357725;-1.714963;[];49.327629;-1.720991;[(Decimal('49.3374458'), Decimal('-1.6924045'))];;;49.341183;-1.687681
Quinéville;49.5120045;-1.2962108;[];49.514964;-1.288004;[(None, None)];;;49.515496;-1.289838
Saint-Georges-de-la-Rivière;;;[];;;[(Decimal('49.3623334'), Decimal('-1.7328742'))];49.364839;-1.728845;;
Saint-Germain-de-Varreville;49.4370143;-1.2586845;[];49.453126;-1.220296;[(None, None)];49.436092;-1.244047;;
Saint-Germain-sur-Ay;49.228403;-1.636889;[];49.229967;-1.643829;[(None, None)];49.231025;-1.644394;;
Saint-Jean-de-la-Rivière;49.3722328;-1.7398441;[];;;[(None, None)];;;;
Sainte-Marie-du-Mont;49.3790225;-1.2261154;[];49.414784;-1.17792;[(None, None)];;;;
Saint-Martin-de-Varreville;49.43813;-1.212076;[];49.43813;-1.212076;[(None, None)];49.427657;-1.235992;;
Saint-Quentin-sur-le-Homme;48.646731;-1.316373;[];48.641046;-1.30104;[(None, None)];48.640647;-1.306853;48.640647;-1.306853
Aumeville-Lestre;49.5394641;-1.3221552;[];49.539274;-1.324053;[(None, None)];49.539478;-1.322994;49.539478;-1.322994
Baubigny;;;[];;;[(None, None)];;;;
Crasville;49.5524112;-1.3383484;[];;;[(None, None)];49.545026;-1.318718;;
Fontenay-sur-Mer;49.4895224;-1.3110226;[];;;[(None, None)];49.498324;-1.311166;;
Lestre;49.534728;-1.30371;[];49.516838;-1.319533;[(None, None)];49.522876;-1.31733;;
Saint-Marcouf;49.2531358;-0.9952043;[];;;[(None, None)];;;;
Berck;50.412814;1.565615;[];50.407329;1.56416;[(Decimal('50.4157503'), Decimal('1.6481625')), (Decimal('50.4663687'), Decimal('1.7690042'))];50.409785;1.591936;;
Bréxent-Énocq;50.507558;1.728847;[];50.507558;1.728847;[(None, None)];50.512305;1.733279;50.500464;1.708029
Calotterie;50.475364;1.728966;[];;;[(None, None)];;;;
Conchil-le-Temple;50.36694;1.665244;[];50.362968;1.662478;[(None, None)];50.362968;1.662478;50.371251;1.668129
Cucq;50.47929;1.621529;[];50.484497;1.608724;[(None, None)];;;50.486041;1.625734
Fleury;48.8477706;-1.2754988;[(Decimal('43.1971360'), Decimal('3.2148250')), (Decimal('43.1914356'), Decimal('3.2078971'))];;;[(None, None)];;;;
Groffliers;50.384418;1.616206;[];50.38295;1.611741;[(None, None)];50.384223;1.618469;;
Merlimont;50.46385;1.577925;[];50.4611;1.584106;[(None, None)];50.459988;1.584341;;
Saint-Josse;50.46953;1.662984;[];50.472676;1.6654;[(None, None)];50.46221;1.649399;;
Waben;;;[];;;[(None, None)];;;;
Boismont;50.1527458;1.6848007;[];50.145153;1.675629;[(None, None)];;;;
Conteville;49.6928117;1.6371145;[];;;[(None, None)];50.174474;2.066137;;
Crotoy;50.225261;1.613386;[];50.215814;1.622463;[(None, None)];50.219974;1.630234;50.214774;1.626744
Favières;48.4638889;5.9573207;[];;;[(Decimal('50.2171629'), Decimal('1.6592668'))];;;;
Fort-Mahon-Plage;50.3413292;1.5686336;[];50.3397;1.560467;[(None, None)];50.338462;1.552305;50.329931;1.566649
Noyelles-sur-Mer;;;[];50.189769;1.723432;[(Decimal('50.1874318'), Decimal('1.7045854'))];50.189769;1.723432;;
Pendé;50.1584421;1.5863849;[];50.157498;1.581044;[(Decimal('50.1728346'), Decimal('1.5883402'))];;;;
Ponthoile;50.233643;1.706389;[];50.218381;1.714003;[(Decimal('50.2094324'), Decimal('1.6798196'))];50.210747;1.683405;;
Quend;50.316416;1.635806;[];50.325001;1.554176;[(None, None)];50.319675;1.648156;;
Saigneville;50.1369038;1.7147370;[];50.13829;1.721842;[(None, None)];;;50.139549;1.749321
Saint-Quentin-en-Tourmont;50.282406;1.596997;[(Decimal('50.2715921'), Decimal('1.5390840'))];50.281316;1.592786;[(None, None)];50.282406;1.596997;50.282406;1.596997
Saint-Valery-sur-Somme;50.1584421;1.5863849;[];;;[(Decimal('50.1768039'), Decimal('1.6512097')), (Decimal('50.1788589'), Decimal('1.6443083')), (Decimal('50.1798106'), Decimal('1.5011290')), (Decimal('50.1666361'), Decimal('1.5643330')), (Decimal('50.1728346'), Decimal('1.5883402')), (Decimal('50.1823888'), Decimal('1.6438806')), (Decimal('50.1724154'), Decimal('1.5371177')), (Decimal('50.1798491'), Decimal('1.5010071'))];50.185485;1.636308;50.184683;1.643645
Sainte-Hélène;44.5192412;3.6032955;[];;;[(None, None)];;;;
Cap-d'Ail;43.728346;7.408595;[];43.721955;7.391885;[(Decimal('43.7205284'), Decimal('7.3943381'))];;;43.725065;7.413445
Menton;43.7755961;7.5028450;[(Decimal('43.7812092'), Decimal('7.5102456'))];43.787781;7.519284;[(Decimal('43.7747030'), Decimal('7.4931157')), (Decimal('43.7606052'), Decimal('7.4573490')), (Decimal('43.7619604'), Decimal('7.4815261')), (Decimal('43.7852801'), Decimal('7.5172360')), (Decimal('43.7545718'), Decimal('7.4485727')), (Decimal('43.7545430'), Decimal('7.4484487'))];43.774411;7.493498;43.783844;7.51705
Roquebrune-Cap-Martin;43.754015;7.482804;[];43.758506;7.480308;[(Decimal('43.7606052'), Decimal('7.4573490')), (Decimal('43.7619604'), Decimal('7.4815261')), (Decimal('43.7545718'), Decimal('7.4485727')), (Decimal('43.7545430'), Decimal('7.4484487'))];43.760923;7.456563;43.763537;7.460686
Langrune-sur-Mer;49.321252;-0.373561;[];49.323581;-0.36405;[(None, None)];49.323581;-0.36405;49.323581;-0.36405
Relecq-Kerhuon;48.407559;-4.395769;[];48.402341;-4.401171;[(None, None)];48.402341;-4.401171;48.405389;-4.390598
Argol;48.2462388;-4.3178655;[];48.244177;-4.310679;[(None, None)];;;;
Châteaulin;48.1256231;-4.2220311;[(Decimal('48.2090393'), Decimal('-4.5522639'))];48.194582;-4.086694;[(Decimal('48.2756872'), Decimal('-4.5912311')), (Decimal('48.1250855'), Decimal('-4.2201221')), (Decimal('48.2544069'), Decimal('-4.0861187')), (Decimal('48.2017255'), Decimal('-4.0942853')), (Decimal('48.2779955'), Decimal('-3.5621984'))];48.199019;-4.091439;48.214454;-4.066946
Daoulas;48.3280407;-4.1609793;[(Decimal('48.3460547'), Decimal('-4.3309283'))];48.355335;-4.265512;[(Decimal('48.3926243'), Decimal('-4.2855203'))];48.361028;-4.256207;48.360378;-4.257469
Dinéault;48.217987;-4.161442;[];48.217527;-4.166813;[(None, None)];48.194575;-4.138555;48.218114;-4.11868
Dirinon;48.397569;-4.270267;[];48.375004;-4.274778;[(None, None)];;;;
Faou;;;[];;;[(None, None)];;;;
Forest-Landerneau;48.427537;-4.315945;[];48.438082;-4.298232;[(None, None)];48.426366;-4.307277;48.438082;-4.298232
Hanvec;48.3280407;-4.1609793;[];48.34158;-4.134755;[(None, None)];48.34158;-4.134755;48.319517;-4.210321
Hôpital-Camfrout;48.327811;-4.24181;[];48.32698;-4.244257;[(None, None)];48.333379;-4.247059;48.31873;-4.263813
Landerneau;48.4723545;-4.2033682;[];48.450764;-4.26042;[(Decimal('48.4740841'), Decimal('-4.2050919')), (Decimal('48.4263770'), Decimal('-4.3072630')), (Decimal('48.4538255'), Decimal('-4.2564781'))];48.453694;-4.256648;48.448787;-4.252735
Landévennec;48.292356;-4.267798;[];48.276246;-4.303966;[(None, None)];48.291738;-4.268904;48.29506;-4.269566
Logonna-Daoulas;48.321617;-4.29671;[];48.328001;-4.295632;[(None, None)];;;48.31348;-4.289887
Loperhet;48.378739;-4.31269;[(Decimal('48.3460547'), Decimal('-4.3309283'))];48.385372;-4.321324;[(Decimal('48.3926243'), Decimal('-4.2855203'))];48.379936;-4.309703;48.345149;-4.330047
Plomodiern;48.202071;-4.234318;[];48.179181;-4.239285;[(None, None)];48.179499;-4.229518;48.169185;-4.289285
Plonévez-Porzay;48.1256231;-4.2220311;[];48.127655;-4.224767;[(Decimal('48.1250855'), Decimal('-4.2201221'))];;;;
Port-Launay;48.2154640;-4.0728782;[];48.212491;-4.095897;[(None, None)];;;48.216866;-4.085697
Rosnoën;;;[];48.270375;-4.216399;[(None, None)];48.256051;-4.163324;;
Saint-Ségal;48.240964;-4.06595;[];48.259133;-4.069871;[(None, None)];;;;
Telgruc-sur-Mer;48.2311696;-4.3550294;[];48.227027;-4.368564;[(None, None)];48.236262;-4.350421;48.207784;-4.347353
Trégarvan;48.242788;-4.224007;[];48.241505;-4.223941;[(None, None)];;;;
Pont-de-Buis-lès-Quimerch;48.3280407;-4.1609793;[(Decimal('48.3460547'), Decimal('-4.3309283'))];48.259191;-4.079995;[(Decimal('48.2544069'), Decimal('-4.0861187')), (Decimal('48.3926243'), Decimal('-4.2855203'))];48.263651;-4.076917;48.271223;-4.10869
Ploéven;48.157206;-4.233406;[];48.163399;-4.20375;[(None, None)];48.161827;-4.176728;48.157808;-4.234939
Saint-Nic;;;[];48.196367;-4.300797;[(None, None)];;;;
Arles;43.7256423;4.7095196;[(Decimal('43.4591833'), Decimal('4.4658557')), (Decimal('43.3447730'), Decimal('4.7997125')), (Decimal('43.4592833'), Decimal('4.4773716'))];43.676977;4.627333;[(Decimal('43.4865187'), Decimal('4.3843685')), (Decimal('43.4180416'), Decimal('4.7440034')), (Decimal('43.4195762'), Decimal('4.7478082')), (Decimal('43.8010557'), Decimal('4.6570560')), (Decimal('43.6848994'), Decimal('4.6322332')), (Decimal('43.6221642'), Decimal('4.8004947')), (Decimal('43.7858539'), Decimal('5.0455446'))];43.645593;4.701951;43.67746;4.623187
Étaples;50.515126;1.636217;[(Decimal('50.5030386'), Decimal('1.5775709'))];50.51441;1.637367;[(Decimal('50.5759249'), Decimal('1.6146399')), (Decimal('50.5168803'), Decimal('1.6423717')), (Decimal('50.5173827'), Decimal('1.6417254'))];50.518067;1.634717;50.513578;1.637321
Sangatte;;;[(Decimal('50.9294010'), Decimal('1.7134430'))];50.959102;1.825204;[(None, None)];;;;
Saint-Père;47.4592317;3.7650871;[];;;[(None, None)];;;;
Ambleteuse;50.809124;1.60157;[];50.810358;1.599033;[(None, None)];50.809124;1.60157;50.807053;1.602652
Audinghen;50.8513896;1.6121721;[];50.868151;1.58952;[(None, None)];50.852234;1.61485;50.869427;1.587945
Audresselles;50.824413;1.596484;[];50.824122;1.594695;[(None, None)];50.824665;1.591219;;
Boulogne-sur-Mer;50.6013592;1.6903852;[(Decimal('50.6426350'), Decimal('1.5764900')), (Decimal('50.6819354'), Decimal('1.5661155'))];;;[(Decimal('50.7643813'), Decimal('1.6136415')), (Decimal('50.8056296'), Decimal('1.7298697')), (Decimal('50.6610274'), Decimal('1.6671067')), (Decimal('50.7155422'), Decimal('1.6101361')), (Decimal('50.6235901'), Decimal('1.6432527')), (Decimal('50.8163381'), Decimal('1.7721973')), (Decimal('50.7273392'), Decimal('1.6092935')), (Decimal('50.6827538'), Decimal('1.6268843'))];50.726747;1.595809;50.727217;1.617557
Calais;50.9398903;2.1033132;[(Decimal('50.9794580'), Decimal('1.9057730')), (Decimal('50.9294010'), Decimal('1.7134430'))];;;[(Decimal('50.9407608'), Decimal('1.8497067')), (Decimal('50.9674698'), Decimal('1.8505055')), (Decimal('50.9673239'), Decimal('1.8577710')), (Decimal('50.9680825'), Decimal('1.8617618')), (Decimal('50.9975297'), Decimal('2.0561908')), (Decimal('50.9019122'), Decimal('1.8114399')), (Decimal('50.9454645'), Decimal('1.8988184')), (Decimal('50.8755693'), Decimal('2.0763275')), (Decimal('50.8620739'), Decimal('2.1576963')), (Decimal('50.9533777'), Decimal('1.8503652')), (Decimal('50.9677625'), Decimal('1.8610206')), (Decimal('50.9671576'), Decimal('1.8566741')), (Decimal('50.9671162'), Decimal('1.8531253')), (Decimal('50.9674749'), Decimal('1.8495688')), (Decimal('50.9667956'), Decimal('1.8487271')), (Decimal('50.8920334'), Decimal('1.9714089')), (Decimal('50.8730127'), Decimal('1.7852649')), (Decimal('50.8829713'), Decimal('2.0231521')), (Decimal('50.8496910'), Decimal('1.8121621'))];50.963235;1.856449;50.945331;1.865133
Camiers;50.568953;1.61321;[];50.578759;1.580255;[(Decimal('50.5759249'), Decimal('1.6146399'))];50.575843;1.613867;;
Dannes;50.589415;1.614274;[];50.588804;1.616129;[(None, None)];;;;
Équihen-Plage;50.674553;1.571901;[(Decimal('50.6819354'), Decimal('1.5661155'))];50.679096;1.571688;[(None, None)];50.669257;1.571645;50.67665;1.574231
Marck;50.9398903;2.1033132;[];50.986097;1.972152;[(Decimal('50.9975297'), Decimal('2.0561908')), (Decimal('50.8755693'), Decimal('2.0763275')), (Decimal('50.8620739'), Decimal('2.1576963')), (Decimal('50.8829713'), Decimal('2.0231521'))];;;;
Neufchâtel-Hardelot;50.620731;1.637827;[];50.617963;1.643647;[(Decimal('50.6235901'), Decimal('1.6432527'))];50.623083;1.645943;50.626667;1.615241
Outreau;50.706965;1.587559;[(Decimal('50.6426350'), Decimal('1.5764900')), (Decimal('50.6819354'), Decimal('1.5661155'))];50.698287;1.576497;[(Decimal('50.6610274'), Decimal('1.6671067')), (Decimal('50.6235901'), Decimal('1.6432527')), (Decimal('50.6827538'), Decimal('1.6268843'))];;;;
Portel;-1.9389675;-50.8238941;[];50.712174;1.57873;[(Decimal('38.3082294'), Decimal('-7.7069284')), (Decimal('-1.9369687'), Decimal('-50.8247456'))];;;50.720054;1.578991
Saint-Étienne-au-Mont;;;[(Decimal('50.6426350'), Decimal('1.5764900'))];;;[(Decimal('50.6827538'), Decimal('1.6268843'))];50.682816;1.627114;;
Saint-Léonard;49.7391988;0.3580122;[];;;[(Decimal('46.2515098'), Decimal('7.4195382')), (Decimal('45.5997788'), Decimal('-73.6162114'))];;;50.696006;1.634409
Saint-Martin-Boulogne;50.729599;1.628686;[];;;[(None, None)];50.708085;1.613556;;
Tardinghen;50.863383;1.634527;[];50.863383;1.634527;[(None, None)];50.863383;1.634527;50.863383;1.634527
Tubersent;50.526657;1.698299;[];50.51777;1.701244;[(None, None)];;;;
Wimereux;50.769807;1.611427;[];50.766144;1.613166;[(None, None)];50.776521;1.60974;;
Wimille;;;[];50.758617;1.637614;[(Decimal('50.7643813'), Decimal('1.6136415'))];50.764645;1.614472;;
Wissant;50.885323;1.662116;[];50.887472;1.660598;[(None, None)];;;;
Ault;50.0409503;1.4638404;[];50.089085;1.423686;[(None, None)];;;;
Cayeux-sur-Mer;50.186878;1.499147;[];50.177793;1.489677;[(Decimal('50.1798106'), Decimal('1.5011290')), (Decimal('50.1798491'), Decimal('1.5010071'))];50.177793;1.489677;50.172126;1.52509
Lanchères;;;[];50.157445;1.548981;[(Decimal('50.1666361'), Decimal('1.5643330')), (Decimal('50.1724154'), Decimal('1.5371177'))];;;;
Saint-Quentin-la-Motte-Croix-au-Bailly;50.071891;1.454339;[];50.071891;1.454339;[(None, None)];50.071891;1.454339;50.072732;1.449294
Woignarue;50.109581;1.4945;[];50.109971;1.457047;[(None, None)];50.113228;1.49824;;
Amfreville;49.2484616;-0.2347834;[];49.242832;-0.235741;[(None, None)];49.250867;-0.227159;49.242832;-0.235741
Benerville-sur-Mer;49.34558;0.043995;[];49.345155;0.042826;[(None, None)];49.348134;0.05282;49.345155;0.042826
Bénouville;49.7174619;0.2511382;[];49.246769;-0.274629;[(None, None)];;;49.246769;-0.274629
Bernières-sur-Mer;;;[];;;[(None, None)];49.330041;-0.415407;;
Blainville-sur-Orne;49.224172;-0.307393;[];49.228809;-0.302187;[(None, None)];;;;
Blonville-sur-Mer;49.324495;0.0386;[];49.338221;0.033693;[(Decimal('49.3314071'), Decimal('0.0357103'))];49.336051;0.033425;49.336748;0.03522
Cabourg;49.2040158;-0.2972249;[(Decimal('49.2885645'), Decimal('-0.1245297'))];49.288514;-0.129595;[(Decimal('49.2865082'), Decimal('-0.1075936')), (Decimal('49.3001439'), Decimal('-0.0771571')), (Decimal('49.2911356'), Decimal('-0.1008598'))];;;49.291991;-0.109303
Caen;49.0418980;-0.1283865;[];49.21294;-0.377549;[(Decimal('48.8928014'), Decimal('-0.1954143')), (Decimal('49.2034044'), Decimal('-0.5127472')), (Decimal('49.0856561'), Decimal('-0.4394187')), (Decimal('49.1412513'), Decimal('-0.2603789')), (Decimal('49.1112103'), Decimal('-0.1864231')), (Decimal('49.1767625'), Decimal('-0.3474663')), (Decimal('48.9172846'), Decimal('-0.4793490'))];49.176803;-0.352169;;
Colombelles;49.2040158;-0.2972249;[];49.194563;-0.294056;[(None, None)];;;49.183938;-0.304169
Cricquebœuf;49.4022497;0.1396860;[];49.40223;0.142925;[(None, None)];;;;
Deauville;;;[];49.354629;0.073016;[(Decimal('49.3598418'), Decimal('0.0836555')), (Decimal('49.3593843'), Decimal('0.0847189'))];49.356337;0.085673;49.364768;0.073048
Gonneville-sur-Mer;49.28288;-0.039145;[];49.291223;-0.037817;[(None, None)];49.288215;-0.008239;;
Hermanville-sur-Mer;49.282189;-0.314455;[];49.289972;-0.315197;[(None, None)];49.293471;-0.292534;49.280153;-0.315326
Hérouville-Saint-Clair;49.2035892;-0.3336616;[];49.202956;-0.331751;[(None, None)];49.190086;-0.327735;49.203723;-0.334757
Houlgate;49.298615;-0.058869;[];49.29759;-0.066937;[(Decimal('49.3001439'), Decimal('-0.0771571'))];49.300513;-0.078324;;
Luc-sur-Mer;;;[];;;[(None, None)];;;;
Merville-Franceville-Plage;49.2780701;-0.2033431;[];49.284669;-0.201488;[(None, None)];49.269069;-0.192608;49.269069;-0.192608
Mondeville;48.4901359;2.4160826;[];49.179819;-0.329228;[(None, None)];;;;
Ouistreham;49.2324658;-0.3846267;[];49.284281;-0.255722;[(None, None)];49.284061;-0.256638;;
Pennedepie;49.4075323;0.1764693;[];49.397892;0.160146;[(None, None)];49.397892;0.160146;49.397892;0.160146
Périers-en-Auge;49.26442;-0.092071;[];49.26442;-0.092071;[(None, None)];49.26442;-0.092071;49.26442;-0.092071
Petiville;49.2423824;-0.1752368;[];;;[(None, None)];;;;
Ranville;49.2320599;-0.2570580;[];49.229077;-0.265276;[(None, None)];;;;
Saint-Aubin-sur-Mer;;;[];;;[(None, None)];49.327966;-0.391942;;
Sallenelles;49.264424;-0.226984;[];49.262196;-0.23033;[(None, None)];49.264297;-0.229284;;
Touques;;;[];;;[(None, None)];;;;
Trouville-sur-Mer;49.3657486;0.0811587;[];49.367193;0.079157;[(Decimal('49.3314071'), Decimal('0.0357103')), (Decimal('49.3598418'), Decimal('0.0836555')), (Decimal('49.3160921'), Decimal('0.0100223')), (Decimal('49.3593843'), Decimal('0.0847189'))];49.36487;0.083356;;
Varaville;49.2846491;-0.1544237;[];49.261146;-0.134603;[(None, None)];;;;
Villers-sur-Mer;;;[];49.323178;-0.006219;[(Decimal('49.3160921'), Decimal('0.0100223'))];49.31643;0.009945;;
Villerville;;;[];49.400904;0.128447;[(None, None)];49.400904;0.128447;;
Saint-Pierre-du-Mont;43.8820960;-0.5198813;[];;;[(None, None)];;;;
Cauville-sur-Mer;49.593522;0.13016;[];49.595195;0.126175;[(None, None)];49.602062;0.137199;49.595157;0.144103
Harfleur;49.506703;0.192448;[];49.511852;0.199942;[(None, None)];49.505915;0.197248;49.505213;0.195775
Havre;49.510713;0.089818;[];49.518455;0.099105;[(Decimal('48.5546093'), Decimal('-109.6782847'))];;;;
Octeville-sur-Mer;49.6391416;0.2227419;[];49.558463;0.121508;[(Decimal('49.5820461'), Decimal('0.2157828')), (Decimal('49.7008699'), Decimal('0.2338658')), (Decimal('49.5952457'), Decimal('0.2665745'))];49.558463;0.121508;;
Sainte-Adresse;49.5050913;0.0858399;[];49.506175;0.071844;[(None, None)];49.50858;0.08192;;
Dives-sur-Mer;49.284889;-0.098218;[];49.295082;-0.096682;[(Decimal('49.2865082'), Decimal('-0.1075936')), (Decimal('49.2911356'), Decimal('-0.1008598'))];49.281582;-0.106799;49.291463;-0.093334
Rivière;;;[];;;[(None, None)];;;;
Criel-sur-Mer;50.0174911;1.3157128;[];50.020046;1.311695;[(None, None)];50.033665;1.323211;;
Flocques;50.0371646;1.3629210;[];50.037859;1.36399;[(None, None)];;;;
Hautot-sur-Mer;49.895979;1.034331;[];49.902596;1.037821;[(None, None)];49.899564;1.052681;;
Martin-Église;49.9014321;1.1402262;[];;;[(None, None)];;;49.912312;1.10387
Rouxmesnil-Bouteilles;49.9044209;1.0922022;[];49.898491;1.107137;[(None, None)];49.898491;1.107137;49.895959;1.103015
Petit-Caux;49.9399889;1.1422641;[];49.967789;1.198607;[(None, None)];;;49.941995;1.145059
Tréport;50.060739;1.37198;[];50.062708;1.368162;[(None, None)];50.052962;1.375323;50.058756;1.37119
Varengeville-sur-Mer;49.904983;0.992898;[];49.907564;0.998491;[(None, None)];49.907564;0.998491;49.909227;0.972914
Mers-les-Bains;50.0659275;1.3893946;[];;;[(None, None)];;;;
Dieppe;49.9014321;1.1402262;[(Decimal('49.9249655'), Decimal('1.0624234'))];49.929323;1.082587;[(Decimal('49.6770293'), Decimal('1.1097247')), (Decimal('49.6294857'), Decimal('1.4357363')), (Decimal('50.0628408'), Decimal('1.3761266')), (Decimal('49.6315873'), Decimal('1.5392934')), (Decimal('49.7917558'), Decimal('1.1103434')), (Decimal('49.7650371'), Decimal('1.7560425')), (Decimal('49.9336051'), Decimal('1.0880888')), (Decimal('49.6030872'), Decimal('1.3343993')), (Decimal('49.8708348'), Decimal('1.0667322')), (Decimal('49.4816892'), Decimal('1.7378732')), (Decimal('50.0592187'), Decimal('1.3672353')), (Decimal('49.7159255'), Decimal('1.0982645')), (Decimal('50.0604631'), Decimal('1.3673821')), (Decimal('49.9324313'), Decimal('1.6257486')), (Decimal('50.0543230'), Decimal('1.4168470')), (Decimal('49.9819378'), Decimal('1.5527449'))];49.924255;1.073796;49.925126;1.071709
Eu;50.0410502;1.4433579;[];;;[(Decimal('50.0628408'), Decimal('1.3761266')), (Decimal('50.0592187'), Decimal('1.3672353')), (Decimal('50.0604631'), Decimal('1.3673821')), (Decimal('49.9324313'), Decimal('1.6257486')), (Decimal('50.0543230'), Decimal('1.4168470')), (Decimal('49.9819378'), Decimal('1.5527449'))];;;;
Quiberville;49.896611;0.917879;[];;;[(None, None)];;;49.897815;0.916045
Sainte-Marguerite-sur-Mer;;;[];;;[(None, None)];49.909559;0.956202;;
Champeaux;48.7389565;-1.5268231;[];;;[(None, None)];;;;
Saint-Armel;47.5723681;-2.7109688;[];;;[(None, None)];48.013492;-1.595084;;
Saint-Philibert;47.2058533;5.0116971;[];;;[(Decimal('50.6521071'), Decimal('2.9742848'))];;;;
Saint-Sylvain;49.8453744;0.6724089;[];;;[(None, None)];;;;
Saint-Martin-des-Champs;48.8814582;1.7194218;[];;;[(None, None)];;;47.153274;2.942734
Champeaux;48.7389565;-1.5268231;[];;;[(None, None)];;;;
Châteauneuf-les-Martigues;43.3828908;5.1646645;[];43.40358;5.145477;[(None, None)];43.385029;5.179618;43.40313;5.116148
Ensuès-la-Redonne;43.355694;5.202834;[];43.355694;5.202834;[(Decimal('43.3343581'), Decimal('5.1975594'))];43.334174;5.198789;43.331318;5.21071
Marignane;43.3828908;5.1646645;[];43.428454;5.208589;[(Decimal('43.4096625'), Decimal('5.2539909')), (Decimal('43.3401363'), Decimal('5.2570243')), (Decimal('43.3343581'), Decimal('5.1975594')), (Decimal('43.3366765'), Decimal('5.1535981')), (Decimal('43.3329833'), Decimal('5.1100682'))];43.40899;5.251659;43.409512;5.204426
Rove;;;[];;;[(None, None)];43.339157;5.256819;;
Vitrolles;43.4584611;5.2496686;[];43.464377;5.230806;[(Decimal('43.4412293'), Decimal('5.2371148'))];43.459208;5.24808;;
Berre-l'Étang;43.5919147;5.1239847;[];43.509274;5.162227;[(Decimal('43.4866432'), Decimal('5.2308485')), (Decimal('43.5511053'), Decimal('5.0401037')), (Decimal('43.5009682'), Decimal('5.1790503'))];;;43.472217;5.165102
Fos-sur-Mer;43.4545602;4.9434292;[];43.430035;4.946557;[(None, None)];43.42689;4.973088;43.429996;4.942125
Istres;43.4584611;5.2496686;[(Decimal('43.4963674'), Decimal('4.9997479'))];43.477462;5.000376;[(Decimal('43.4057603'), Decimal('5.0498484')), (Decimal('43.4195762'), Decimal('4.7478082')), (Decimal('43.4040551'), Decimal('5.0505803')), (Decimal('43.4096625'), Decimal('5.2539909')), (Decimal('43.4866432'), Decimal('5.2308485')), (Decimal('43.4031040'), Decimal('5.0585408')), (Decimal('43.5810466'), Decimal('4.9993667')), (Decimal('43.5511053'), Decimal('5.0401037')), (Decimal('43.3401363'), Decimal('5.2570243')), (Decimal('43.5009682'), Decimal('5.1790503')), (Decimal('43.4412293'), Decimal('5.2371148')), (Decimal('43.3343581'), Decimal('5.1975594')), (Decimal('43.3366765'), Decimal('5.1535981')), (Decimal('43.4088984'), Decimal('5.0196687')), (Decimal('43.3929443'), Decimal('5.0256298')), (Decimal('43.3329833'), Decimal('5.1100682')), (Decimal('43.3399417'), Decimal('5.0517193'))];43.516524;4.980784;43.496411;4.99887
Miramas;43.5803698;5.0013015;[];43.58259;5.011803;[(Decimal('43.5810466'), Decimal('4.9993667'))];43.568966;5.011373;43.568966;5.011373
Port-de-Bouc;43.418442;4.977092;[];43.412611;4.975209;[(None, None)];43.407701;4.982889;;
Rognac;43.489629;5.229129;[];43.483659;5.226414;[(Decimal('43.4866432'), Decimal('5.2308485'))];;;;
Saint-Chamas;;;[];43.542334;5.056816;[(Decimal('43.5511053'), Decimal('5.0401037'))];43.550927;5.040023;43.54834;5.030688
Saint-Mitre-les-Remparts;43.4518932;5.0141552;[];43.468391;5.019169;[(None, None)];43.453017;5.018587;43.453017;5.018587
Villelongue-de-la-Salanque;42.7272203;2.9853469;[];42.726269;2.98184;[(None, None)];42.725696;2.983679;42.727617;2.973778
Belvédère-Campomoro;41.634836;8.842147;[];41.634836;8.842147;[(None, None)];41.634836;8.842147;41.634836;8.842147
Coti-Chiavari;41.7727660;8.7715955;[];41.796465;8.722381;[(None, None)];41.769189;8.754008;41.775245;8.738413
Olmeto;41.6993929;9.0021151;[];41.703943;8.833741;[(Decimal('41.6772597'), Decimal('8.8986156'))];41.685569;8.925284;41.710999;8.914369
Propriano;;;[];41.674124;8.897745;[(Decimal('41.6772597'), Decimal('8.8986156'))];;;41.675976;8.903456
Serra-di-Ferro;41.72444;8.78229;[];41.732143;8.825071;[(None, None)];41.758231;8.816625;41.732143;8.825071
Conca;;;[];;;[(Decimal('45.7076382'), Decimal('11.4854232'))];;;;
Figari;41.510497;9.128562;[];41.480909;9.110748;[(None, None)];41.479376;9.111454;41.523513;9.153788
Lecci;41.660015;9.326608;[];;;[(None, None)];;;;
Monacia-d'Aullène;41.511002;9.011687;[];41.514125;9.012932;[(None, None)];41.514125;9.012932;41.514125;9.012932
Pianottoli-Caldarello;41.482114;9.052395;[];41.482114;9.052395;[(None, None)];41.482114;9.052395;41.482114;9.052395
Porto-Vecchio;41.8592057;9.3961000;[];41.591047;9.27509;[(None, None)];41.616124;9.284637;41.611516;9.293556
Sartène;41.8153493;9.0250015;[];41.59826;8.988099;[(Decimal('41.3886414'), Decimal('9.1562118')), (Decimal('41.6772597'), Decimal('8.8986156')), (Decimal('41.3890055'), Decimal('9.1651182')), (Decimal('41.7875124'), Decimal('8.9742098'))];;;;
Zonza;41.6989779;9.3496093;[];41.709644;9.373397;[(None, None)];41.699859;9.341222;41.709644;9.373397
Sainte-Hélène;44.5192412;3.6032955;[];;;[(None, None)];;;;
Beaucaire;43.8272136;4.5632703;[];43.786319;4.601599;[(Decimal('43.8022132'), Decimal('4.6471462'))];;;;
Saint-Gervais;46.7150305;-70.8861999;[];;;[(None, None)];;;;
Saint-Nazaire;47.0814249;-2.0382504;[(Decimal('47.2350436'), Decimal('-2.2937448'))];;;[(Decimal('47.2904432'), Decimal('-2.1655544')), (Decimal('47.2854118'), Decimal('-2.2113694')), (Decimal('47.2836505'), Decimal('-2.3648123')), (Decimal('47.2904897'), Decimal('-2.2008463')), (Decimal('47.3209456'), Decimal('-2.1616062')), (Decimal('47.5166443'), Decimal('-2.0439761')), (Decimal('47.2866383'), Decimal('-2.2111634')), (Decimal('47.5499299'), Decimal('-2.0727691')), (Decimal('47.4353259'), Decimal('-2.0885109')), (Decimal('47.3003329'), Decimal('-2.1934283')), (Decimal('47.2705207'), Decimal('-2.3447637')), (Decimal('47.3584359'), Decimal('-1.9507757')), (Decimal('47.2616258'), Decimal('-2.0151117')), (Decimal('47.3658329'), Decimal('-1.9395367')), (Decimal('47.4823703'), Decimal('-2.0500625')), (Decimal('47.0471487'), Decimal('-1.9523504')), (Decimal('47.0618825'), Decimal('-2.0009581')), (Decimal('47.0831649'), Decimal('-2.0338614')), (Decimal('47.1145045'), Decimal('-2.0977051')), (Decimal('47.1057842'), Decimal('-1.8651876')), (Decimal('47.3150702'), Decimal('-2.0736623')), (Decimal('47.2898097'), Decimal('-2.5069508'))];;;;
Fitou;42.8944120;2.9825648;[];42.890997;2.946326;[(None, None)];42.897243;2.998719;42.876495;2.997222
Agde;43.3131586;3.4180032;[(Decimal('43.2709233'), Decimal('3.3473562')), (Decimal('43.3206289'), Decimal('3.5598392')), (Decimal('43.2806828'), Decimal('3.5198842'))];43.283282;3.44772;[(Decimal('43.3157582'), Decimal('3.4253620')), (Decimal('43.3174530'), Decimal('3.4661026')), (Decimal('43.3181806'), Decimal('3.5355290'))];43.283464;3.519821;43.296312;3.521869
Béziers;43.6945944;3.1646245;[(Decimal('43.2709233'), Decimal('3.3473562')), (Decimal('43.2680350'), Decimal('3.3410232')), (Decimal('43.2597165'), Decimal('3.3228334')), (Decimal('43.2806828'), Decimal('3.5198842')), (Decimal('43.2407518'), Decimal('3.2827170'))];43.325192;3.246014;[(Decimal('43.2955523'), Decimal('3.1167080')), (Decimal('43.6912698'), Decimal('3.1690801')), (Decimal('43.7095814'), Decimal('3.1948986')), (Decimal('43.4675801'), Decimal('3.2295143')), (Decimal('43.3157582'), Decimal('3.4253620')), (Decimal('43.2499376'), Decimal('3.2980416')), (Decimal('43.2498902'), Decimal('3.2969083')), (Decimal('43.3174530'), Decimal('3.4661026')), (Decimal('43.6086201'), Decimal('3.1497435')), (Decimal('43.3360992'), Decimal('3.2187759')), (Decimal('43.4434669'), Decimal('3.4018892'))];43.353191;3.247962;43.334507;3.219221
Cers;;;[];;;[(None, None)];;;;
Portiragnes;43.274127;3.345822;[(Decimal('43.2709233'), Decimal('3.3473562'))];43.277724;3.361188;[(None, None)];;;43.291453;3.372569
Sauvian;43.294725;3.263967;[];43.292623;3.254779;[(None, None)];;;;
Sérignan;43.2414513;3.2716566;[(Decimal('43.2680350'), Decimal('3.3410232')), (Decimal('43.2597165'), Decimal('3.3228334'))];43.279423;3.282646;[(None, None)];43.282192;3.301418;43.258054;3.302935
Valras-Plage;43.235669;3.271557;[(Decimal('43.2407518'), Decimal('3.2827170'))];43.253634;3.286813;[(Decimal('43.2499376'), Decimal('3.2980416')), (Decimal('43.2498902'), Decimal('3.2969083'))];43.250781;3.294922;43.252664;3.296491
Vias;43.3131586;3.4180032;[];43.292599;3.411933;[(Decimal('43.3157582'), Decimal('3.4253620'))];;;;
Villeneuve-lès-Béziers;43.315048;3.27957;[];43.320641;3.272494;[(None, None)];43.321405;3.283183;43.314022;3.278021
Rochefort;46.0504101;-0.7068383;[(Decimal('46.0051561'), Decimal('-1.3914498')), (Decimal('45.8336863'), Decimal('-1.1984852')), (Decimal('45.8287093'), Decimal('-1.1955975')), (Decimal('45.9306158'), Decimal('-1.3570868')), (Decimal('45.9414358'), Decimal('-1.3710645'))];;;[(Decimal('45.9472690'), Decimal('-0.9637060')), (Decimal('45.8378948'), Decimal('-1.2086128')), (Decimal('46.0043866'), Decimal('-1.1190049')), (Decimal('46.0071934'), Decimal('-1.1741253')), (Decimal('45.9689307'), Decimal('-1.2364769')), (Decimal('46.9599174'), Decimal('6.7749714')), (Decimal('46.9672516'), Decimal('6.8125105')), (Decimal('45.9660197'), Decimal('-0.8731059')), (Decimal('46.0938943'), Decimal('-0.9520020')), (Decimal('46.0076849'), Decimal('-1.1745082')), (Decimal('45.8119584'), Decimal('-1.2234039')), (Decimal('50.1599751'), Decimal('5.2671586')), (Decimal('45.9671186'), Decimal('-1.2399071')), (Decimal('45.8074846'), Decimal('-1.2368142')), (Decimal('45.6259067'), Decimal('-1.0164955')), (Decimal('45.6261627'), Decimal('-1.0166940')), (Decimal('46.0078933'), Decimal('-1.1746726')), (Decimal('45.9168059'), Decimal('-0.9607608')), (Decimal('45.9925893'), Decimal('-1.0268753')), (Decimal('45.9433848'), Decimal('-0.8980505')), (Decimal('46.1133407'), Decimal('-0.7620913'))];;;;
Sari-Solenzara;41.8592057;9.3961000;[];41.818779;9.402111;[(None, None)];41.818779;9.402111;41.818779;9.402111
Aléria;;;[];42.103442;9.499871;[(None, None)];;;;
Ghisonaccia;42.1062593;9.4170613;[];42.004688;9.432016;[(None, None)];42.018862;9.406378;42.043497;9.407257
Prunelli-di-Fiumorbo;41.9996638;9.3977292;[];42.00744;9.367301;[(None, None)];42.00744;9.367301;41.997928;9.381563
Serra-di-Fiumorbo;41.983343;9.340715;[];41.983343;9.340715;[(None, None)];41.983343;9.340715;41.983343;9.340715
Solaro;45.6169033;9.0795104;[];41.884322;9.397363;[(None, None)];41.884322;9.397363;41.901396;9.330284
Tallone;42.2307695;9.4128437;[];42.206274;9.436562;[(None, None)];;;;
Ventiseri;41.9173944;9.3837324;[];41.917898;9.378066;[(None, None)];41.917898;9.378066;41.954345;9.39587
Bassens;44.8998270;-0.5164931;[];;;[(Decimal('44.9012933'), Decimal('-0.5223144'))];;;;
Barrettali;42.8767769;9.3548892;[];42.875024;9.358715;[(None, None)];42.874006;9.356139;42.874006;9.356139
Brando;42.7746370;9.4749310;[];42.776256;9.476951;[(None, None)];;;;
Cagnano;42.8752948;9.4302808;[];42.861096;9.48078;[(None, None)];42.869891;9.435772;42.875751;9.430849
Canari;;;[];42.841419;9.329016;[(None, None)];;;;
Centuri;42.9655342;9.3538351;[];42.963649;9.355411;[(None, None)];;;42.966235;9.352411
Ersa;42.9765413;9.3780233;[];42.975885;9.389669;[(None, None)];43.007696;9.386846;43.006151;9.401912
Luri;;;[];;;[(None, None)];;;;
Meria;;;[];;;[(None, None)];;;;
Morsiglia;42.9443958;9.3662377;[];42.948388;9.362999;[(None, None)];;;;
Nonza;42.78446;9.344958;[];42.785079;9.345498;[(None, None)];;;;
Ogliastro;42.8098541;9.3363793;[];42.813223;9.34082;[(None, None)];42.813223;9.34082;;
Olmeta-di-Capocorso;42.7691441;9.3716404;[];42.760836;9.346548;[(None, None)];42.760836;9.346548;42.760836;9.346548
Pietracorbara;42.8454878;9.4271292;[];42.836044;9.480062;[(None, None)];42.836044;9.480062;42.837844;9.469406
Pino;42.9100225;9.3509370;[];;;[(None, None)];;;;
Rogliano;42.956518;9.453228;[];42.952394;9.434146;[(Decimal('39.1809371'), Decimal('16.3222189')), (Decimal('39.1753901'), Decimal('16.3172099'))];;;;
Sisco;42.807541;9.483574;[];42.807541;9.483574;[(None, None)];42.807541;9.483574;42.817207;9.453473
San-Martino-di-Lota;42.7217492;9.4552951;[];42.738082;9.430355;[(None, None)];42.719103;9.455669;42.72124;9.453569
Santa-Maria-di-Lota;42.7428063;9.4563221;[];42.746344;9.443165;[(None, None)];42.746344;9.443165;42.746344;9.443165
Tomino;42.956205;9.453595;[];42.946515;9.442133;[(None, None)];42.946515;9.442133;42.946515;9.442133
Barcarès;42.795292;3.037727;[];42.807403;3.025421;[(None, None)];42.786652;3.036192;;
Canet-en-Roussillon;42.7272203;2.9853469;[(Decimal('42.7129356'), Decimal('3.0393352')), (Decimal('42.6727587'), Decimal('3.0321635'))];42.691984;3.032448;[(None, None)];42.698152;3.007334;42.702071;3.034965
Saint-Cyprien;44.9361590;1.0122517;[];42.6312;3.031936;[(Decimal('43.5979747'), Decimal('1.4316655')), (Decimal('44.9411916'), Decimal('1.0081942')), (Decimal('44.8632733'), Decimal('1.0434666')), (Decimal('43.5964448'), Decimal('1.4232466'))];;;42.613646;3.034686
Saint-Hippolyte;47.3439081;6.9942263;[];42.777581;2.970608;[(None, None)];;;;
Saint-Laurent-de-la-Salanque;42.7731159;2.9883181;[(Decimal('42.7690903'), Decimal('3.0350773')), (Decimal('42.7720184'), Decimal('3.0354871')), (Decimal('42.7708154'), Decimal('3.0353984'))];42.772926;2.996623;[(None, None)];42.775388;2.988827;42.773506;2.991547
Sainte-Marie-la-Mer;42.740317;3.03481;[];42.740317;3.03481;[(None, None)];;;42.72436;3.03673
Saint-Nazaire;47.0814249;-2.0382504;[(Decimal('47.2350436'), Decimal('-2.2937448'))];;;[(Decimal('47.2904432'), Decimal('-2.1655544')), (Decimal('47.2854118'), Decimal('-2.2113694')), (Decimal('47.2836505'), Decimal('-2.3648123')), (Decimal('47.2904897'), Decimal('-2.2008463')), (Decimal('47.3209456'), Decimal('-2.1616062')), (Decimal('47.5166443'), Decimal('-2.0439761')), (Decimal('47.2866383'), Decimal('-2.2111634')), (Decimal('47.5499299'), Decimal('-2.0727691')), (Decimal('47.4353259'), Decimal('-2.0885109')), (Decimal('47.3003329'), Decimal('-2.1934283')), (Decimal('47.2705207'), Decimal('-2.3447637')), (Decimal('47.3584359'), Decimal('-1.9507757')), (Decimal('47.2616258'), Decimal('-2.0151117')), (Decimal('47.3658329'), Decimal('-1.9395367')), (Decimal('47.4823703'), Decimal('-2.0500625')), (Decimal('47.0471487'), Decimal('-1.9523504')), (Decimal('47.0618825'), Decimal('-2.0009581')), (Decimal('47.0831649'), Decimal('-2.0338614')), (Decimal('47.1145045'), Decimal('-2.0977051')), (Decimal('47.1057842'), Decimal('-1.8651876')), (Decimal('47.3150702'), Decimal('-2.0736623')), (Decimal('47.2898097'), Decimal('-2.5069508'))];;;;
Salses-le-Château;42.8333118;2.9178185;[];42.827353;2.842593;[(Decimal('42.8355964'), Decimal('2.9174628'))];42.834514;2.917226;;
Torreilles;;;[(Decimal('42.7690903'), Decimal('3.0350773')), (Decimal('42.7720184'), Decimal('3.0354871')), (Decimal('42.7708154'), Decimal('3.0353984'))];42.762554;3.021829;[(None, None)];;;;
Beauvoir;48.5965183;-1.5041645;[];;;[(None, None)];47.795899;3.38145;;
Barzan;45.5254670;-0.8561157;[];45.527981;-0.882828;[(None, None)];45.535276;-0.871144;45.51674;-0.857089
Beauvoisin;46.9272321;5.3690160;[];;;[(Decimal('43.7245026'), Decimal('4.3212178'))];;;;
Bassens;44.8998270;-0.5164931;[];44.906427;-0.523927;[(Decimal('44.9012933'), Decimal('-0.5223144'))];;;44.904984;-0.528084
Villeneuve;46.0216405;4.8373827;[];;;[(Decimal('45.7065555'), Decimal('7.2134691')), (Decimal('48.0975501'), Decimal('-1.6754519'))];;;;
Cassis;;;[(Decimal('43.2086030'), Decimal('5.5491940'))];43.207415;5.520521;[(Decimal('43.2341325'), Decimal('5.5531719'))];43.2318;5.554463;43.208319;5.517777
Ciotat;43.17816;5.59191;[];43.189161;5.626161;[(None, None)];43.198312;5.62703;;
Saint-Hippolyte;47.3439081;6.9942263;[];;;[(None, None)];;;;
Saintes-Maries-de-la-Mer;;;[(Decimal('43.4591833'), Decimal('4.4658557')), (Decimal('43.4592833'), Decimal('4.4773716'))];43.450495;4.429938;[(Decimal('43.4865187'), Decimal('4.3843685'))];43.499981;4.390956;;
Aigues-Mortes;43.5664618;4.1903413;[(Decimal('43.5619783'), Decimal('4.1059252')), (Decimal('43.4802011'), Decimal('4.1464559'))];43.570851;4.191717;[(Decimal('43.6834214'), Decimal('4.2354229')), (Decimal('43.6392883'), Decimal('4.1930703')), (Decimal('43.6787661'), Decimal('4.2090313')), (Decimal('43.5709165'), Decimal('4.1910259')), (Decimal('43.7162243'), Decimal('4.1714976')), (Decimal('43.5370128'), Decimal('4.1403485'))];43.570923;4.191481;43.567824;4.186964
Beauvoisin;46.9272321;5.3690160;[];43.717854;4.323561;[(Decimal('43.7245026'), Decimal('4.3212178'))];;;43.652417;4.34236
Bellegarde;48.0350827;2.4894789;[];;;[(Decimal('46.1109056'), Decimal('5.8259584'))];;;;
Cailar;43.679885;4.236669;[];43.675452;4.25372;[(None, None)];43.679596;4.236473;;
Fourques;42.5816643;2.7788772;[];;;[(None, None)];;;;
Grau-du-Roi;43.544295;4.131103;[];43.529458;4.142179;[(None, None)];43.51982;4.147116;43.533692;4.143056
Saint-Gilles;43.8258684;4.2605811;[];43.686085;4.436862;[(Decimal('43.7324117'), Decimal('4.3434045')), (Decimal('43.7885662'), Decimal('4.3032442'))];;;;
Saint-Laurent-d'Aigouze;43.6339038;4.1958403;[];43.620237;4.193726;[(Decimal('43.6392883'), Decimal('4.1930703'))];43.638067;4.19349;43.607646;4.167675
Vauvert;43.7400701;4.2595249;[];43.647992;4.307928;[(Decimal('43.7245026'), Decimal('4.3212178')), (Decimal('43.7398702'), Decimal('4.2188847')), (Decimal('43.7579733'), Decimal('4.2672749')), (Decimal('43.6951124'), Decimal('4.2700401'))];;;;
Candillargues;;;[];43.618559;4.066026;[(None, None)];;;;
Lansargues;43.650965;4.077579;[];43.651067;4.073346;[(None, None)];;;;
Marsillargues;43.659302;4.178865;[];43.607696;4.165214;[(None, None)];;;;
Palavas-les-Flots;43.527401;3.925271;[];43.528892;3.926426;[(None, None)];43.52884;3.930292;43.52865;3.931998
Villeneuve-lès-Maguelone;43.536508;3.855243;[(Decimal('43.4713330'), Decimal('3.8306140'))];43.533251;3.858374;[(Decimal('43.5437372'), Decimal('3.8498862'))];;;43.533582;3.86017
Blaye;45.0819782;-0.4960701;[];;;[(Decimal('44.9729725'), Decimal('-0.4590937')), (Decimal('45.0152870'), Decimal('-0.4198416')), (Decimal('45.0543754'), Decimal('-0.3992247')), (Decimal('45.0337371'), Decimal('-0.4767372'))];;;45.125739;-0.664036
Saint-Seurin-de-Cadourne;45.2861680;-0.7894406;[];45.291368;-0.79445;[(None, None)];45.294743;-0.811593;45.308585;-0.781271
Lattes;43.5587195;3.8718028;[];43.591005;3.923427;[(Decimal('43.5748975'), Decimal('3.8306868')), (Decimal('43.5708614'), Decimal('3.8379115')), (Decimal('43.5826782'), Decimal('3.9256925')), (Decimal('43.5713368'), Decimal('3.9140675')), (Decimal('43.5780481'), Decimal('3.9351889')), (Decimal('43.6174575'), Decimal('3.8101021')), (Decimal('43.5579483'), Decimal('3.9636274')), (Decimal('43.5706924'), Decimal('3.9051913')), (Decimal('43.5719684'), Decimal('3.8264524')), (Decimal('43.5720031'), Decimal('3.8264551'))];;;;
Mauguio;43.6350461;3.9648444;[];43.546324;3.981046;[(Decimal('43.6354474'), Decimal('3.9629284')), (Decimal('43.6727002'), Decimal('4.0601623'))];43.590306;3.93764;43.632053;4.00186
Pérols;43.563628;3.953275;[];43.557681;3.961071;[(Decimal('43.5780481'), Decimal('3.9351889')), (Decimal('43.5579483'), Decimal('3.9636274'))];;;43.552857;3.969727
Grande-Motte;43.562427;4.083336;[];43.558001;4.094913;[(None, None)];;;43.559251;4.08456
Soorts-Hossegor;43.6582842;-1.4273835;[(Decimal('43.6712915'), Decimal('-1.4419602')), (Decimal('43.6798552'), Decimal('-1.4408212')), (Decimal('43.6765705'), Decimal('-1.4414184')), (Decimal('43.6804181'), Decimal('-1.4410585'))];43.664996;-1.390392;[(None, None)];43.664996;-1.390392;43.655673;-1.436436
Claira;42.759418;2.956331;[];;;[(None, None)];42.760561;2.954084;;
Fourques;42.5816643;2.7788772;[];;;[(None, None)];;;;
Bompas;42.8649252;1.6172277;[];42.732282;2.935622;[(None, None)];;;42.731773;2.934208
Perpignan;42.7731692;2.6977835;[(Decimal('42.7129356'), Decimal('3.0393352')), (Decimal('42.7690903'), Decimal('3.0350773')), (Decimal('42.7720184'), Decimal('3.0354871')), (Decimal('42.6727587'), Decimal('3.0321635')), (Decimal('42.7708154'), Decimal('3.0353984'))];42.687445;2.909318;[(Decimal('42.7790421'), Decimal('2.7931033')), (Decimal('42.7722782'), Decimal('2.8334040')), (Decimal('42.6962438'), Decimal('2.8796929')), (Decimal('42.7767387'), Decimal('2.6988642')), (Decimal('42.6773175'), Decimal('2.7378292')), (Decimal('42.6790242'), Decimal('2.7951877')), (Decimal('42.7663897'), Decimal('2.8677442')), (Decimal('42.8355964'), Decimal('2.9174628')), (Decimal('42.7767841'), Decimal('2.6983019')), (Decimal('42.7764085'), Decimal('2.7857140')), (Decimal('42.7724904'), Decimal('2.8332376')), (Decimal('42.7665735'), Decimal('2.8678777'))];42.699199;2.894621;;
Pia;42.7440543;2.9197276;[];;;[(None, None)];;;;
Ajaccio;41.9596207;8.6675916;[(Decimal('41.9277641'), Decimal('8.7712459'))];41.915118;8.722927;[(Decimal('41.9792650'), Decimal('8.8336248')), (Decimal('41.9280768'), Decimal('8.7958067')), (Decimal('41.9336944'), Decimal('8.7512605')), (Decimal('42.0511985'), Decimal('8.9786003')), (Decimal('42.0799736'), Decimal('9.0528805')), (Decimal('42.0239556'), Decimal('8.9093267')), (Decimal('41.9275104'), Decimal('8.7390393')), (Decimal('41.9964441'), Decimal('9.1287112')), (Decimal('41.9993772'), Decimal('9.1244180')), (Decimal('41.9998287'), Decimal('9.1244344')), (Decimal('41.9999986'), Decimal('9.1245588')), (Decimal('42.0013358'), Decimal('9.1217154')), (Decimal('42.0024755'), Decimal('9.1281873')), (Decimal('42.0032299'), Decimal('9.1200301')), (Decimal('42.0112372'), Decimal('9.1307611')), (Decimal('42.0688786'), Decimal('9.0072980')), (Decimal('41.9288667'), Decimal('8.7760119')), (Decimal('41.9639159'), Decimal('8.8147018')), (Decimal('41.9149878'), Decimal('8.7267840')), (Decimal('41.9229105'), Decimal('8.7396779'))];41.927806;8.739335;;
Alata;41.9761862;8.7424967;[];41.976641;8.74252;[(None, None)];;;;
Albitreccia;41.8631071;8.9417016;[];41.855219;8.796753;[(None, None)];;;;
Appietto;42.0150676;8.7673379;[];42.000174;8.74683;[(None, None)];;;42.000174;8.74683
Grosseto-Prugna;41.8686780;8.9642805;[];41.892973;8.805184;[(None, None)];41.882059;8.846111;41.882059;8.846111
Pietrosella;41.8497101;8.7889177;[];41.850134;8.79221;[(None, None)];;;;
Villanova;41.9596207;8.6675916;[];;;[(Decimal('42.4253185'), Decimal('12.1061860')), (Decimal('44.9159522'), Decimal('10.8424142')), (Decimal('44.6913048'), Decimal('10.9119122'))];;;;
Valeyrac;45.3961669;-0.8963913;[];45.39197;-0.899613;[(None, None)];;;45.395996;-0.914318
Saint-Cyprien;44.9361590;1.0122517;[];;;[(Decimal('43.5979747'), Decimal('1.4316655')), (Decimal('44.9411916'), Decimal('1.0081942')), (Decimal('44.8632733'), Decimal('1.0434666')), (Decimal('43.5964448'), Decimal('1.4232466'))];44.866235;1.041887;;
Arces;45.5527125;-0.8598773;[];45.551688;-0.919596;[(None, None)];;;;
Floirac;44.8477051;-0.4641645;[];;;[(Decimal('44.8459778'), Decimal('-0.5101522'))];45.465279;-0.746682;;
Saint-Christoly-Médoc;45.355328;-0.825268;[];45.358735;-0.820937;[(None, None)];45.354358;-0.825431;45.35863;-0.821742
Chenac-Saint-Seurin-d'Uzet;45.5015113;-0.8330338;[];45.514336;-0.814577;[(None, None)];45.514336;-0.814577;45.514336;-0.814577
Mortagne-sur-Gironde;45.4814526;-0.7876225;[];45.500509;-0.77589;[(None, None)];45.486104;-0.782703;45.478746;-0.7916
Talmont-sur-Gironde;45.5347467;-0.9077160;[];45.533148;-0.900802;[(None, None)];;;45.534753;-0.908218
Vallée;45.893862;-0.831331;[];;;[(None, None)];;;;
Bégadan;45.382653;-0.854296;[];45.355648;-0.89769;[(None, None)];;;45.374163;-0.880996
Carcans;45.0789452;-1.0454325;[(Decimal('45.0906490'), Decimal('-1.1911200')), (Decimal('45.0631264'), Decimal('-1.1304842')), (Decimal('45.0702413'), Decimal('-1.1410810')), (Decimal('45.0982190'), Decimal('-1.1418855'))];45.082823;-1.188862;[(None, None)];45.078658;-1.049065;;
Floirac;44.8477051;-0.4641645;[];44.841451;-0.517449;[(Decimal('44.8459778'), Decimal('-0.5101522'))];;;;
Grayan-et-l'Hôpital;45.415325;-1.138126;[];45.411359;-1.139631;[(None, None)];45.431614;-1.111298;45.442972;-1.063195
Hourtin;45.183408;-1.053031;[];45.164918;-1.071338;[(None, None)];45.186988;-1.063765;45.166437;-1.071579
Jau-Dignac-et-Loirac;45.407653;-0.959205;[];45.414341;-0.947106;[(None, None)];45.416893;-0.951013;45.406031;-0.910348
Naujac-sur-Mer;45.296729;-1.057538;[];45.277259;-0.969323;[(None, None)];45.256062;-1.029864;45.267702;-1.07266
Saint-Germain-de-la-Rivière;44.950701;-0.333127;[];;;[(None, None)];44.949059;-0.32418;;
Saint-Vivien-de-Médoc;45.3977820;-1.0410404;[];45.471398;-1.003222;[(Decimal('45.5081703'), Decimal('-1.1175934')), (Decimal('45.5494445'), Decimal('-1.0652833'))];45.428208;-1.038844;45.451744;-1.017857
Saint-Yzans-de-Médoc;45.322056;-0.820657;[];45.320285;-0.814844;[(None, None)];45.320036;-0.821603;45.330001;-0.821676
Soulac-sur-Mer;45.5151144;-1.1231381;[];45.514551;-1.124205;[(Decimal('45.5081703'), Decimal('-1.1175934'))];45.517456;-1.113845;45.508371;-1.079641
Talais;45.472316;-1.057392;[];45.472506;-1.05076;[(None, None)];;;45.487576;-1.061477
Vendays-Montalivet;45.3567578;-1.0616900;[];45.379372;-1.153935;[(None, None)];45.3357;-1.055274;45.338499;-1.088092
Vensac;45.3977820;-1.0410404;[];45.395706;-1.084642;[(None, None)];;;;
Verdon-sur-Mer;45.545075;-1.061861;[];45.546232;-1.060071;[(None, None)];45.548042;-1.063904;45.542121;-1.048485
Cabariot;45.9256040;-0.8570499;[];45.925416;-0.858465;[(None, None)];45.924665;-0.857803;45.911133;-0.83873
Éguille;;;[];;;[(None, None)];;;45.708389;-0.977973
Saint-Hippolyte;47.3439081;6.9942263;[];;;[(None, None)];;;;
Saint-Nazaire-sur-Charente;45.9357862;-1.0510941;[];;;[(None, None)];;;;
Saint-Trojan-les-Bains;45.8420353;-1.2079578;[(Decimal('45.8336863'), Decimal('-1.1984852')), (Decimal('45.8287093'), Decimal('-1.1955975'))];45.837087;-1.201568;[(Decimal('45.8378948'), Decimal('-1.2086128')), (Decimal('45.8119584'), Decimal('-1.2234039')), (Decimal('45.8074846'), Decimal('-1.2368142'))];45.841352;-1.208277;45.843595;-1.209878
Tonnay-Charente;45.9256040;-0.8570499;[];45.945476;-0.914479;[(Decimal('45.9660197'), Decimal('-0.8731059')), (Decimal('45.9433848'), Decimal('-0.8980505'))];;;45.953774;-0.931619
Port-des-Barques;45.948362;-1.076402;[];45.942242;-1.076042;[(None, None)];;;;
Caumont;44.6961182;-0.0075285;[];;;[(None, None)];;;;
Villeneuve;46.0216405;4.8373827;[];;;[(Decimal('45.7065555'), Decimal('7.2134691')), (Decimal('48.0975501'), Decimal('-1.6754519'))];;;;
Arvert;45.7408351;-1.1256421;[];45.741343;-1.11233;[(None, None)];45.741343;-1.11233;;
Bourcefranc-le-Chapus;45.850217;-1.151744;[];45.841371;-1.147351;[(None, None)];45.840853;-1.143378;45.851093;-1.152626
Breuillet;48.5666723;2.1731003;[];;;[(Decimal('48.5774260'), Decimal('2.1918832')), (Decimal('48.5645094'), Decimal('2.1707596'))];;;;
Chaillevette;45.7315760;-1.0695396;[];45.729997;-1.067737;[(None, None)];;;45.731302;-1.057896
Château-d'Oléron;45.883445;-1.20078;[];;;[(None, None)];45.886261;-1.19354;45.882514;-1.191522
Dolus-d'Oléron;45.9108284;-1.2648824;[];45.901508;-1.28213;[(None, None)];45.910624;-1.242267;45.934188;-1.231768
Échillais;45.919043;-0.948751;[];45.900803;-0.95564;[(None, None)];45.913854;-0.958583;45.913854;-0.958583
Étaules;45.7334148;-1.1004222;[];45.732808;-1.099341;[(None, None)];45.73429;-1.09815;45.720222;-1.100783
Fouras;45.9884499;-1.0936973;[];;;[(Decimal('46.0043866'), Decimal('-1.1190049'))];;;45.995571;-1.098947
Gua;45.716824;-0.950111;[];;;[(None, None)];;;45.706643;-0.937645
Marennes;45.6194062;4.9133949;[];45.81859;-1.132456;[(None, None)];;;;
Mathes;45.692562;-1.177001;[];45.684893;-1.180957;[(None, None)];;;;
Meschers-sur-Gironde;45.56838;-0.951407;[];45.56623;-0.970376;[(None, None)];45.559438;-0.959463;45.555453;-0.948668
Moëze;45.9045605;-1.0366068;[];45.90363;-1.0353;[(None, None)];;;;
Mornac-sur-Seudre;45.7088128;-1.0293265;[];45.709089;-1.028025;[(None, None)];45.706019;-1.024734;45.710376;-1.027651
Nieulle-sur-Seudre;45.7531275;-1.0024153;[];45.75073;-0.997807;[(None, None)];;;45.747121;-0.996676
Rochefort;46.0504101;-0.7068383;[(Decimal('46.0051561'), Decimal('-1.3914498')), (Decimal('45.8336863'), Decimal('-1.1984852')), (Decimal('45.8287093'), Decimal('-1.1955975')), (Decimal('45.9306158'), Decimal('-1.3570868')), (Decimal('45.9414358'), Decimal('-1.3710645'))];;;[(Decimal('45.9472690'), Decimal('-0.9637060')), (Decimal('45.8378948'), Decimal('-1.2086128')), (Decimal('46.0043866'), Decimal('-1.1190049')), (Decimal('46.0071934'), Decimal('-1.1741253')), (Decimal('45.9689307'), Decimal('-1.2364769')), (Decimal('46.9599174'), Decimal('6.7749714')), (Decimal('46.9672516'), Decimal('6.8125105')), (Decimal('45.9660197'), Decimal('-0.8731059')), (Decimal('46.0938943'), Decimal('-0.9520020')), (Decimal('46.0076849'), Decimal('-1.1745082')), (Decimal('45.8119584'), Decimal('-1.2234039')), (Decimal('50.1599751'), Decimal('5.2671586')), (Decimal('45.9671186'), Decimal('-1.2399071')), (Decimal('45.8074846'), Decimal('-1.2368142')), (Decimal('45.6259067'), Decimal('-1.0164955')), (Decimal('45.6261627'), Decimal('-1.0166940')), (Decimal('46.0078933'), Decimal('-1.1746726')), (Decimal('45.9168059'), Decimal('-0.9607608')), (Decimal('45.9925893'), Decimal('-1.0268753')), (Decimal('45.9433848'), Decimal('-0.8980505')), (Decimal('46.1133407'), Decimal('-0.7620913'))];;;45.932439;-0.962287
Royan;;;[];45.62697;-1.050497;[(Decimal('45.6259067'), Decimal('-1.0164955')), (Decimal('45.6261627'), Decimal('-1.0166940'))];45.625846;-1.017346;45.632665;-1.019645
Saint-Froult;45.9201953;-1.0586830;[];45.911019;-1.071425;[(None, None)];;;;
Saint-Georges-de-Didonne;45.604966;-0.996217;[];45.595532;-0.990203;[(None, None)];45.586649;-0.982103;45.601266;-1.00551
Saint-Georges-d'Oléron;45.9783788;-1.3329825;[];45.947333;-1.370642;[(Decimal('45.9689307'), Decimal('-1.2364769')), (Decimal('45.9671186'), Decimal('-1.2399071'))];45.972468;-1.378541;;
Saint-Just-Luzac;45.8027152;-1.0398318;[];45.795616;-1.053772;[(None, None)];45.800746;-1.043175;45.795544;-1.070643
Saint-Laurent-de-la-Prée;45.989564;-1.040907;[];45.98524;-1.031914;[(Decimal('45.9925893'), Decimal('-1.0268753'))];45.99422;-1.032809;45.98524;-1.031914
Saint-Palais-sur-Mer;;;[];45.642218;-1.085599;[(None, None)];;;;
Saint-Pierre-d'Oléron;45.9783788;-1.3329825;[(Decimal('46.0051561'), Decimal('-1.3914498')), (Decimal('45.9306158'), Decimal('-1.3570868')), (Decimal('45.9414358'), Decimal('-1.3710645'))];45.935328;-1.3575;[(Decimal('45.9689307'), Decimal('-1.2364769')), (Decimal('45.9671186'), Decimal('-1.2399071'))];45.943724;-1.310131;45.916502;-1.329267
Saint-Sulpice-de-Royan;45.663659;-0.988584;[];45.674795;-1.00725;[(None, None)];45.686302;-0.99788;45.674795;-1.00725
Saujon;45.6311781;-0.8559717;[];45.673321;-0.934426;[(Decimal('45.6709057'), Decimal('-0.9382942')), (Decimal('45.6664895'), Decimal('-0.9300520')), (Decimal('45.6791061'), Decimal('-0.9383155'))];;;45.672522;-0.934331
Soubise;45.9267375;-1.0086845;[];;;[(None, None)];;;45.928;-1.007018
Tremblade;45.768888;-1.15147;[];45.795142;-1.170139;[(None, None)];45.773229;-1.155387;45.770074;-1.138606
Vaux-sur-Mer;;;[];45.627264;-1.055623;[(None, None)];;;45.638941;-1.054895
Vergeroux;45.9610681;-0.9862750;[];45.960966;-0.985534;[(None, None)];;;45.971663;-0.982208
Lormont;44.8998270;-0.5164931;[];44.875952;-0.516136;[(Decimal('44.8877563'), Decimal('-0.5175126')), (Decimal('44.9012933'), Decimal('-0.5223144'))];;;44.871939;-0.527846
Fronsac;45.0248230;-0.3567037;[];42.951642;0.649341;[(None, None)];;;;
Cambes;44.7324005;-0.4618761;[];;;[(None, None)];;;;
Puyravault;46.3784979;-1.0809224;[];46.128518;-0.805849;[(None, None)];;;;
Saint-Cyprien;44.9361590;1.0122517;[];;;[(Decimal('43.5979747'), Decimal('1.4316655')), (Decimal('44.9411916'), Decimal('1.0081942')), (Decimal('44.8632733'), Decimal('1.0434666')), (Decimal('43.5964448'), Decimal('1.4232466'))];;;;
Caumont;44.6961182;-0.0075285;[];;;[(None, None)];;;;
Marseillan;43.4880953;0.3164775;[(Decimal('43.3206289'), Decimal('3.5598392'))];;;[(Decimal('43.3181806'), Decimal('3.5355290'))];;;;
Bouliac;44.823511;-0.487474;[];44.815768;-0.499872;[(None, None)];;;44.807155;-0.52262
Ars-en-Ré;46.2287920;-1.5416881;[];46.211292;-1.511066;[(Decimal('46.2470776'), Decimal('-1.4930275'))];46.206217;-1.506976;;
Saint-Clément-des-Baleines;46.2287920;-1.5416881;[];46.238526;-1.550167;[(None, None)];46.238461;-1.553326;46.230292;-1.548126
Lit-et-Mixe;44.0339476;-1.2581993;[];44.03447;-1.26924;[(None, None)];;;;
Messanges;47.1626476;4.8729736;[];43.815943;-1.380149;[(None, None)];43.811085;-1.371291;;
Mimizan;44.1464213;-1.2189741;[];44.21042;-1.254608;[(None, None)];44.198739;-1.222766;;
Saint-Julien-en-Born;44.063047;-1.225938;[];44.093943;-1.323127;[(None, None)];;;44.068496;-1.233233
Saint-Vincent-de-Paul;43.7418140;-1.0000255;[];;;[(None, None)];43.769838;-1.00084;;
Seignosse;43.708541;-1.433149;[(Decimal('43.7224593'), Decimal('-1.4315703')), (Decimal('43.6873113'), Decimal('-1.4406969')), (Decimal('43.7093841'), Decimal('-1.4366357'))];43.703894;-1.434987;[(None, None)];;;43.686597;-1.350656
Soustons;43.6582842;-1.4273835;[(Decimal('43.7224593'), Decimal('-1.4315703')), (Decimal('43.6712915'), Decimal('-1.4419602')), (Decimal('43.6873113'), Decimal('-1.4406969')), (Decimal('43.6798552'), Decimal('-1.4408212')), (Decimal('43.8483963'), Decimal('-1.3690569')), (Decimal('43.7929826'), Decimal('-1.4135831')), (Decimal('43.6765705'), Decimal('-1.4414184')), (Decimal('43.7093841'), Decimal('-1.4366357')), (Decimal('43.7843551'), Decimal('-1.3075354')), (Decimal('43.6804181'), Decimal('-1.4410585'))];43.775345;-1.414843;[(Decimal('43.6713034'), Decimal('-1.2410924'))];43.769722;-1.302557;43.756895;-1.334698
Vielle-Saint-Girons;43.9518243;-1.3023559;[];43.950812;-1.363131;[(None, None)];43.914341;-1.295284;43.901811;-1.309338
Capbreton;43.641057;-1.434964;[(Decimal('43.6496469'), Decimal('-1.4459659')), (Decimal('43.6370697'), Decimal('-1.4497843')), (Decimal('43.6417672'), Decimal('-1.4475108')), (Decimal('43.6457966'), Decimal('-1.4456762')), (Decimal('43.6573900'), Decimal('-1.4460178'))];43.64682;-1.443407;[(None, None)];43.640805;-1.426061;43.645464;-1.401845
Labenne;43.594878;-1.466311;[(Decimal('43.6083490'), Decimal('-1.4636630'))];43.59664;-1.465331;[(Decimal('43.5871745'), Decimal('-1.4287316')), (Decimal('43.5873275'), Decimal('-1.4293159')), (Decimal('43.5871552'), Decimal('-1.4290355'))];;;;
Moliets-et-Maa;43.862783;-1.350249;[];43.850404;-1.359277;[(None, None)];43.847378;-1.354001;43.851756;-1.368352
Ondres;43.5609274;-1.4483524;[(Decimal('43.5774218'), Decimal('-1.4882397'))];43.570389;-1.464598;[(Decimal('43.5685707'), Decimal('-1.4572005'))];43.568813;-1.458095;;
Tarnos;43.5404920;-1.4605547;[(Decimal('43.5591675'), Decimal('-1.5007225'))];43.543586;-1.473282;[(None, None)];;;;
Anglet;43.489718;-1.513479;[];43.512113;-1.52707;[(Decimal('43.5268429'), Decimal('-1.5122821'))];43.509781;-1.520314;43.504592;-1.519293
Bayonne;40.6683682;-74.1171196;[(Decimal('43.3908392'), Decimal('-1.6838257')), (Decimal('43.3795035'), Decimal('-1.7558642'))];;;[(Decimal('43.1679044'), Decimal('-1.2380368')), (Decimal('43.3858011'), Decimal('-1.6611208')), (Decimal('40.6542879'), Decimal('-74.1290734')), (Decimal('43.3250173'), Decimal('-1.6007389')), (Decimal('43.3702257'), Decimal('-1.7851785')), (Decimal('43.3530823'), Decimal('-1.7819475')), (Decimal('43.4964684'), Decimal('-1.4746983')), (Decimal('43.3862472'), Decimal('-1.6603440')), (Decimal('43.4933995'), Decimal('-1.4793511')), (Decimal('40.6718115'), Decimal('-74.1075790')), (Decimal('43.3529161'), Decimal('-1.7813989')), (Decimal('43.1605242'), Decimal('-1.2417164')), (Decimal('43.3522255'), Decimal('-1.7825049')), (Decimal('43.3863685'), Decimal('-1.6599473')), (Decimal('43.4979831'), Decimal('-1.4806735')), (Decimal('43.5268429'), Decimal('-1.5122821')), (Decimal('40.6613119'), Decimal('-74.1164420')), (Decimal('43.4254680'), Decimal('-1.6091940')), (Decimal('40.6787896'), Decimal('-74.1016880')), (Decimal('43.4970017'), Decimal('-1.4703615')), (Decimal('43.5234264'), Decimal('-1.4906332')), (Decimal('43.4993494'), Decimal('-1.3005397')), (Decimal('43.4313485'), Decimal('-1.4564177')), (Decimal('43.4047983'), Decimal('-1.4490194')), (Decimal('43.3655265'), Decimal('-1.3964735')), (Decimal('43.3779682'), Decimal('-1.4277341')), (Decimal('43.2682992'), Decimal('-1.3453023')), (Decimal('43.2351789'), Decimal('-1.3048238')), (Decimal('43.5226628'), Decimal('-1.4913118')), (Decimal('43.3240902'), Decimal('-1.3952883')), (Decimal('43.5297908'), Decimal('-1.1710687'))];;;43.490663;-1.475148
Biarritz;43.475453;-1.561408;[];43.46254;-1.572208;[(None, None)];43.478208;-1.557043;43.482091;-1.565878
Bidart;;;[];43.437145;-1.594371;[(None, None)];43.430659;-1.594133;43.44483;-1.547046
Biriatou;;;[];43.334883;-1.743402;[(None, None)];;;;
Boucau;43.525845;-1.474263;[];;;[(Decimal('43.5234264'), Decimal('-1.4906332')), (Decimal('43.5226628'), Decimal('-1.4913118'))];;;;
Ciboure;;;[(Decimal('43.3908392'), Decimal('-1.6838257'))];43.380006;-1.668889;[(None, None)];43.393813;-1.685602;;
Guéthary;;;[];43.420612;-1.608833;[(Decimal('43.4254680'), Decimal('-1.6091940'))];43.425914;-1.608317;43.425807;-1.609727
Hendaye;43.344615;-1.768462;[(Decimal('43.3908392'), Decimal('-1.6838257')), (Decimal('43.3795035'), Decimal('-1.7558642'))];43.360838;-1.759629;[(Decimal('43.3702257'), Decimal('-1.7851785')), (Decimal('43.3530823'), Decimal('-1.7819475')), (Decimal('43.3529161'), Decimal('-1.7813989')), (Decimal('43.3522255'), Decimal('-1.7825049'))];43.356919;-1.775428;43.358338;-1.776156
Saint-Jean-de-Luz;;;[(Decimal('43.3908392'), Decimal('-1.6838257'))];43.416531;-1.625264;[(Decimal('43.3858011'), Decimal('-1.6611208')), (Decimal('43.3862472'), Decimal('-1.6603440')), (Decimal('43.3863685'), Decimal('-1.6599473')), (Decimal('43.4254680'), Decimal('-1.6091940'))];;;43.382106;-1.655001
Urrugne;43.362489;-1.700201;[];43.388191;-1.689492;[(None, None)];;;43.374725;-1.67137
Bourg;45.0819782;-0.4960701;[];;;[(None, None)];;;;
Saint-Léonard;49.7391988;0.3580122;[];;;[(Decimal('46.2515098'), Decimal('7.4195382')), (Decimal('45.5997788'), Decimal('-73.6162114'))];;;;
Caumont;44.6961182;-0.0075285;[];;;[(None, None)];;;;
Bompas;42.8649252;1.6172277;[];;;[(None, None)];;;;
Châtelaillon-Plage;46.0410592;-1.0444428;[];46.078912;-1.093003;[(Decimal('46.0043866'), Decimal('-1.1190049')), (Decimal('46.0071934'), Decimal('-1.1741253')), (Decimal('46.0783586'), Decimal('-1.0909398')), (Decimal('46.0076849'), Decimal('-1.1745082')), (Decimal('46.0078933'), Decimal('-1.1746726')), (Decimal('46.1078633'), Decimal('-1.1156206')), (Decimal('45.9925893'), Decimal('-1.0268753'))];46.069341;-1.091373;46.075625;-1.085287
Ambès;;;[];45.030454;-0.594928;[(None, None)];45.029314;-0.594173;;
Arcins;45.0745112;-0.7263826;[];;;[(None, None)];;;45.075241;-0.722081
Arveyres;44.878858;-0.28816;[];44.887813;-0.287153;[(None, None)];44.88193;-0.300784;44.913541;-0.285289
Asques;43.9885427;0.9488174;[];44.953273;-0.414263;[(None, None)];;;44.949153;-0.413557
Bayon-sur-Gironde;45.0541327;-0.6008428;[];45.039141;-0.603443;[(None, None)];;;45.050537;-0.605615
Beautiran;44.7039238;-0.4484203;[];44.705771;-0.45466;[(Decimal('44.7011715'), Decimal('-0.4502003'))];44.700891;-0.450349;44.701607;-0.444575
Bègles;44.810815;-0.54556;[(Decimal('44.8029523'), Decimal('-0.5361902'))];44.802062;-0.551312;[(None, None)];44.799109;-0.555413;44.817703;-0.538645
Billaux;44.953889;-0.233382;[];;;[(None, None)];44.950954;-0.23661;;
Blanquefort;43.6742690;0.8071169;[];44.921969;-0.614877;[(Decimal('44.9175914'), Decimal('-0.6237518'))];44.91684;-0.626224;44.911405;-0.61771
Bonzac;45.0073720;-0.2232842;[];45.010269;-0.230881;[(None, None)];;;44.993088;-0.20879
Bordeaux;44.8083883;-0.5885601;[(Decimal('44.7851745'), Decimal('-0.7054801')), (Decimal('44.8029523'), Decimal('-0.5361902'))];44.828132;-0.586971;[(Decimal('44.9447027'), Decimal('-0.6193450')), (Decimal('44.9223901'), Decimal('-0.4332238')), (Decimal('44.9743982'), Decimal('-0.6118056')), (Decimal('44.8877563'), Decimal('-0.5175126')), (Decimal('45.0041853'), Decimal('-0.6200812')), (Decimal('44.8267789'), Decimal('-0.6261731')), (Decimal('44.8459778'), Decimal('-0.5101522')), (Decimal('44.8869972'), Decimal('-0.6094758')), (Decimal('44.9012933'), Decimal('-0.5223144')), (Decimal('44.9356617'), Decimal('-0.4769076')), (Decimal('44.9142839'), Decimal('-0.3921324')), (Decimal('44.7683428'), Decimal('-0.5472574')), (Decimal('44.8563178'), Decimal('-0.5336524')), (Decimal('44.7011715'), Decimal('-0.4502003')), (Decimal('44.8256587'), Decimal('-0.5555868')), (Decimal('44.7168532'), Decimal('-0.5055977')), (Decimal('44.8227420'), Decimal('-0.5547778')), (Decimal('44.9289345'), Decimal('-0.4964118')), (Decimal('44.8977980'), Decimal('-0.4939781')), (Decimal('44.8045273'), Decimal('-0.6313644')), (Decimal('44.8427995'), Decimal('-0.6274696')), (Decimal('44.9175914'), Decimal('-0.6237518')), (Decimal('44.7934479'), Decimal('-0.6595812')), (Decimal('44.7720419'), Decimal('-0.6993585')), (Decimal('44.8426261'), Decimal('-0.6275779')), (Decimal('44.8709177'), Decimal('-0.6140203')), (Decimal('44.8415723'), Decimal('-0.5696869')), (Decimal('44.8297480'), Decimal('-0.5537803')), (Decimal('44.8587269'), Decimal('-0.5197124')), (Decimal('44.8587131'), Decimal('-0.5197537'))];;;44.831982;-0.561181
Cadaujac;44.7558071;-0.5296410;[];44.757508;-0.5314;[(None, None)];44.751652;-0.536994;44.755095;-0.522977
Castres-Gironde;44.696835;-0.444968;[];44.687177;-0.453383;[(None, None)];;;44.698402;-0.445684
Fronsac;45.0248230;-0.3567037;[];;;[(None, None)];44.897827;-0.287543;44.921077;-0.276489
Galgon;44.9926523;-0.2733693;[];44.989409;-0.293316;[(None, None)];;;44.977094;-0.251568
Gauriac;45.062188;-0.616507;[];45.06258;-0.612306;[(None, None)];;;45.077697;-0.637411
Génissac;;;[];44.858166;-0.255154;[(None, None)];;;44.872577;-0.243894
Isle-Saint-Georges;;;[];;;[(None, None)];;;44.725282;-0.472987
Izon;;;[];;;[(Decimal('44.9279634'), Decimal('-0.3676061')), (Decimal('44.9279384'), Decimal('-0.3676215')), (Decimal('44.9281247'), Decimal('-0.3673038'))];;;44.930968;-0.363529
Lamarque;45.0959397;-0.7175132;[];;;[(Decimal('-39.4147000'), Decimal('-65.6949920'))];45.092693;-0.72308;45.098475;-0.69318
Libourne;44.7633738;0.2530662;[];44.921243;-0.227374;[(Decimal('44.8971627'), Decimal('-0.3168578')), (Decimal('44.8570225'), Decimal('-0.0406587')), (Decimal('44.9779485'), Decimal('-0.1985332')), (Decimal('44.8811708'), Decimal('-0.1593340')), (Decimal('45.0381495'), Decimal('-0.1951980')), (Decimal('45.0664839'), Decimal('-0.3281455')), (Decimal('45.0114031'), Decimal('-0.0026514')), (Decimal('45.0942280'), Decimal('-0.0437898')), (Decimal('45.0114376'), Decimal('-0.0026479')), (Decimal('44.9279634'), Decimal('-0.3676061')), (Decimal('44.9279384'), Decimal('-0.3676215')), (Decimal('44.9281247'), Decimal('-0.3673038'))];44.916592;-0.236827;44.915232;-0.247393
Ludon-Médoc;44.981686;-0.602327;[];44.974347;-0.614835;[(Decimal('44.9743982'), Decimal('-0.6118056'))];44.973255;-0.611407;44.974347;-0.614835
Lugon-et-l'Île-du-Carnay;44.95646;-0.353919;[];44.95646;-0.353919;[(None, None)];44.951354;-0.367872;44.95646;-0.353919
Macau;45.0092247;-0.6120754;[];44.99743;-0.611365;[(Decimal('45.0041853'), Decimal('-0.6200812')), (Decimal('-5.1083343'), Decimal('-36.6259127')), (Decimal('-5.1570778'), Decimal('-36.6022299'))];45.003803;-0.618117;45.006178;-0.620919
Margaux-Cantenac;45.032714;-0.680434;[];45.042882;-0.678592;[(Decimal('45.0358496'), Decimal('-0.6854735')), (Decimal('45.0359241'), Decimal('-0.6853822'))];45.037295;-0.685022;45.042268;-0.655254
Moulon;44.837669;-0.236115;[];;;[(None, None)];;;44.85133;-0.218475
Parempuyre;44.9477287;-0.6051182;[];44.954091;-0.613639;[(Decimal('44.9447027'), Decimal('-0.6193450'))];44.945688;-0.613041;44.944677;-0.599836
Plassac;45.4665376;-0.5681021;[];;;[(None, None)];;;45.103341;-0.647541
Rivière;;;[];;;[(None, None)];;;;
Saillans;44.6978352;5.1970963;[];;;[(Decimal('44.7111906'), Decimal('5.2658699'))];;;44.956501;-0.269067
Saint-Denis-de-Pile;44.9922677;-0.2050562;[];;;[(Decimal('44.9779485'), Decimal('-0.1985332'))];44.982533;-0.202641;44.992987;-0.205915
Saint-Louis-de-Montferrand;44.95261;-0.534877;[];;;[(None, None)];44.954575;-0.532816;;
Saint-Michel-de-Fronsac;44.931466;-0.28724;[];44.929943;-0.299442;[(None, None)];44.928036;-0.300753;44.913274;-0.311993
Saint-Romain-la-Virvée;44.965749;-0.400054;[];44.966136;-0.396093;[(None, None)];44.966136;-0.396093;44.966136;-0.396093
Saint-Seurin-de-Bourg;45.05022;-0.58328;[];45.05022;-0.58328;[(None, None)];45.05022;-0.58328;;
Saint-Vincent-de-Paul;43.7418140;-1.0000255;[];;;[(None, None)];;;44.96102;-0.466239
Savignac-de-l'Isle;44.990027;-0.234046;[];44.996584;-0.234608;[(None, None)];;;44.986978;-0.234278
Soussans;45.056311;-0.699326;[];45.05942;-0.716815;[(None, None)];45.054096;-0.708074;45.060434;-0.685956
Vayres;44.8965105;-0.3188577;[];44.871605;-0.317653;[(Decimal('44.8971627'), Decimal('-0.3168578'))];44.906047;-0.322994;44.908971;-0.321532
Villenave-d'Ornon;44.7697102;-0.5447004;[(Decimal('44.8029523'), Decimal('-0.5361902'))];44.764985;-0.572824;[(Decimal('44.7683428'), Decimal('-0.5472574'))];44.757582;-0.560192;44.773138;-0.526852
Vieux-Boucau-les-Bains;43.786033;-1.400703;[(Decimal('43.7929826'), Decimal('-1.4135831'))];43.787461;-1.410296;[(None, None)];43.785504;-1.397117;43.784921;-1.400871
Blanquefort;43.6742690;0.8071169;[];;;[(Decimal('44.9175914'), Decimal('-0.6237518'))];;;;
Cussac-Fort-Médoc;45.1145351;-0.7308255;[];45.107212;-0.714241;[(None, None)];45.107212;-0.714241;45.117838;-0.733358
Fours;46.8698347;3.6455036;[];;;[(Decimal('46.8578816'), Decimal('3.6452029'))];;;;
Pauillac;45.1655199;-0.7409295;[];45.201778;-0.759512;[(Decimal('45.2038160'), Decimal('-0.7551762'))];;;45.190401;-0.756136
Saint-Estèphe;45.5922397;0.6633188;[];;;[(Decimal('45.5979437'), Decimal('0.6771295')), (Decimal('45.5976995'), Decimal('0.6766271'))];45.238683;-0.787766;;
Saint-Genès-de-Blaye;45.162563;-0.64438;[];45.16108;-0.644794;[(None, None)];45.159087;-0.645836;45.170728;-0.660467
Saint-Julien-Beychevelle;45.1655199;-0.7409295;[];45.149859;-0.744438;[(None, None)];45.15549;-0.752813;45.165601;-0.729646
Bellegarde;48.0350827;2.4894789;[];43.435098;0.627351;[(Decimal('46.1109056'), Decimal('5.8259584'))];;;;
Houmeau;46.189019;-1.184095;[];46.19138;-1.189651;[(None, None)];46.189238;-1.193779;46.197621;-1.196229
Arcachon;44.7650504;-1.1394883;[(Decimal('44.6602730'), Decimal('-1.2392151')), (Decimal('44.5468949'), Decimal('-1.2499470')), (Decimal('44.5691282'), Decimal('-1.2323531')), (Decimal('44.6757446'), Decimal('-1.2566210')), (Decimal('44.6549241'), Decimal('-1.2593940')), (Decimal('44.7988490'), Decimal('-1.2343628')), (Decimal('44.7095954'), Decimal('-1.0593177')), (Decimal('44.7137204'), Decimal('-1.0675047')), (Decimal('44.7192020'), Decimal('-1.0743364')), (Decimal('44.7334298'), Decimal('-1.0921992')), (Decimal('44.7258332'), Decimal('-1.0850044')), (Decimal('44.7386995'), Decimal('-1.0997896')), (Decimal('44.7445299'), Decimal('-1.1184185')), (Decimal('44.6979740'), Decimal('-1.2536291'))];44.662592;-1.164841;[(Decimal('44.6369726'), Decimal('-1.1429337')), (Decimal('44.6324226'), Decimal('-1.0256103')), (Decimal('44.6566928'), Decimal('-1.2400756')), (Decimal('44.6589663'), Decimal('-1.1655698')), (Decimal('44.6551021'), Decimal('-1.2583599')), (Decimal('44.7440903'), Decimal('-1.1088665')), (Decimal('44.6399024'), Decimal('-1.1160310')), (Decimal('44.6404840'), Decimal('-1.0690856')), (Decimal('44.6405363'), Decimal('-1.0690963')), (Decimal('44.6372409'), Decimal('-0.9661780')), (Decimal('44.6904210'), Decimal('-0.8537008')), (Decimal('44.6582625'), Decimal('-0.8220599')), (Decimal('44.6583998'), Decimal('-0.8223998'))];44.641284;-1.200286;44.657373;-1.147665
Gujan-Mestras;44.6053964;-0.9392841;[];44.641187;-1.113898;[(Decimal('44.6324226'), Decimal('-1.0256103')), (Decimal('44.6399024'), Decimal('-1.1160310')), (Decimal('44.6404840'), Decimal('-1.0690856')), (Decimal('44.6405363'), Decimal('-1.0690963')), (Decimal('44.6904210'), Decimal('-0.8537008')), (Decimal('44.6582625'), Decimal('-0.8220599')), (Decimal('44.6583998'), Decimal('-0.8223998'))];44.61724;-1.071771;44.639415;-1.101127
Lacanau;44.995786;-1.189741;[];45.002655;-1.13472;[(None, None)];44.977245;-1.090413;44.967028;-1.144855
Porge;;;[];;;[(None, None)];44.875891;-1.081841;;
Sainte-Hélène;44.5192412;3.6032955;[];44.970502;-0.887907;[(None, None)];;;;
Teich;;;[];44.625252;-1.034786;[(None, None)];44.633674;-1.023156;44.63709;-1.021374
Teste-de-Buch;44.639317;-1.193311;[];44.635548;-1.203491;[(None, None)];44.637772;-1.139378;44.635713;-1.144555
Villeneuve;46.0216405;4.8373827;[];;;[(Decimal('45.7065555'), Decimal('7.2134691')), (Decimal('48.0975501'), Decimal('-1.6754519'))];44.429079;2.06517;;
Île-d'Aix;46.0123581;-1.1735745;[];;;[(Decimal('46.0071934'), Decimal('-1.1741253')), (Decimal('46.0076849'), Decimal('-1.1745082')), (Decimal('46.0078933'), Decimal('-1.1746726'))];;;;
Angoulins;46.101646;-1.109752;[];46.103589;-1.113775;[(Decimal('46.1078633'), Decimal('-1.1156206'))];46.105538;-1.107949;;
Aytré;46.1886143;-1.0638158;[];46.118385;-1.123265;[(Decimal('46.0783586'), Decimal('-1.0909398')), (Decimal('46.1275818'), Decimal('-1.1283581')), (Decimal('46.1078633'), Decimal('-1.1156206'))];46.135328;-1.112233;;
Bois-Plage-en-Ré;46.185885;-1.388938;[];46.183017;-1.393386;[(None, None)];46.182576;-1.386186;;
Charron;;;[];;;[(None, None)];;;46.304107;-1.100268
Couarde-sur-Mer;46.197643;-1.442943;[];46.193597;-1.429351;[(None, None)];46.1935;-1.427878;46.194906;-1.423849
Esnandes;46.2498180;-1.1157498;[];46.249034;-1.115761;[(None, None)];;;;
Flotte;46.183801;-1.315182;[];46.186642;-1.319159;[(None, None)];;;46.184648;-1.327837
Loix;46.2239122;-1.4379990;[];;;[(None, None)];;;;
Marans;46.2031364;-0.8161382;[];;;[(None, None)];46.304524;-1.001078;46.311817;-0.995508
Marsilly;46.2295060;-1.1346480;[];46.226702;-1.139465;[(None, None)];;;46.231777;-1.142384
Nieul-sur-Mer;46.209457;-1.163714;[];46.209457;-1.163714;[(None, None)];46.20786;-1.162223;46.206268;-1.196618
Portes-en-Ré;46.238517;-1.482693;[];46.245885;-1.498869;[(None, None)];46.247572;-1.503349;46.246042;-1.498809
Rivedoux-Plage;46.1589211;-1.2725988;[];46.158156;-1.26972;[(None, None)];46.154785;-1.274944;46.162533;-1.279284
Rochelle;46.151514;-1.202962;[];46.169321;-1.20299;[(None, None)];;;46.158543;-1.151599
Saint-Denis-d'Oléron;46.0332351;-1.3781297;[(Decimal('46.0051561'), Decimal('-1.3914498'))];46.034032;-1.37368;[(None, None)];46.03385;-1.37436;46.034687;-1.374941
Sainte-Marie-de-Ré;46.1506220;-1.3118059;[];46.163201;-1.349275;[(None, None)];46.153343;-1.314872;46.147302;-1.301625
Saint-Martin-de-Ré;46.1888849;-1.3264146;[(Decimal('46.1788592'), Decimal('-1.3972514')), (Decimal('46.1769193'), Decimal('-1.3909832'))];46.202377;-1.356267;[(None, None)];;;;
Yves;46.0410592;-1.0444428;[];;;[(None, None)];;;46.054036;-1.077369
Brée-les-Bains;46.01246;-1.343593;[];46.015666;-1.348435;[(None, None)];46.01246;-1.343593;46.01246;-1.343593
Saint-Sylvain;49.8453744;0.6724089;[];;;[(None, None)];;;45.190967;1.890622
Cambes;44.7324005;-0.4618761;[];;;[(None, None)];;;;
Aiguillon-sur-Mer;;;[];;;[(None, None)];46.313735;-1.281106;;
Puyravault;46.3784979;-1.0809224;[];;;[(None, None)];46.378056;-1.085967;46.329335;-1.114763
Saint-Michel-en-l'Herm;46.359622;-1.241364;[];46.345304;-1.247347;[(None, None)];;;46.335336;-1.245151
Tranche-sur-Mer;46.342919;-1.437685;[];46.342471;-1.438503;[(None, None)];46.343486;-1.45366;46.358456;-1.454934
Saint-Estèphe;45.5922397;0.6633188;[];;;[(Decimal('45.5979437'), Decimal('0.6771295')), (Decimal('45.5976995'), Decimal('0.6766271'))];;;;
Floirac;44.8477051;-0.4641645;[];;;[(Decimal('44.8459778'), Decimal('-0.5101522'))];;;;
Vayres;44.8965105;-0.3188577;[];;;[(Decimal('44.8971627'), Decimal('-0.3168578'))];;;;
Beaucaire;43.8272136;4.5632703;[];;;[(Decimal('43.8022132'), Decimal('4.6471462'))];;;43.838449;0.385324
Quinsac;44.7545957;-0.4876675;[];;;[(None, None)];;;;
Biscarrosse;44.4446577;-1.2517404;[(Decimal('44.4581381'), Decimal('-1.2544523'))];44.442505;-1.246158;[(Decimal('44.3956629'), Decimal('-1.1672099'))];44.442994;-1.253496;44.428287;-1.165925
Gastes;44.3257549;-1.1469516;[];44.318971;-1.160694;[(None, None)];;;;
Sainte-Eulalie-en-Born;44.276065;-1.183089;[];44.272262;-1.18465;[(None, None)];44.269062;-1.188547;44.307493;-1.181431
